{
"type": "FeatureCollection",
"name": "chicago_isochrones",
"crs": { "type": "name", "properties": { "name": "urn:ogc:def:crs:OGC:1.3:CRS84" } },
"features": [
{ "type": "Feature", "properties": { "site_label": "KXMe8lXQ64", "site_name": "Northwestern Medicine Field at Martin Stadium", "travel_time_minutes": 30.0 }, "geometry": { "type": "MultiLineString", "coordinates": [ [ [ -87.676267220228951, 42.016743930897832 ], [ -87.676158347111169, 42.016876830128815 ], [ -87.671983241508187, 42.018896034898702 ], [ -87.671610239081588, 42.01874630740263 ], [ -87.671528680534152, 42.010967149534252 ], [ -87.667105060641774, 42.00916610689768 ], [ -87.66710649995504, 42.008849311874719 ], [ -87.671487737145114, 42.007093887515417 ], [ -87.671404829834543, 41.999184746241774 ], [ -87.671795350235513, 41.999040468307854 ], [ -87.675339244552177, 42.001167318638615 ], [ -87.676449380231844, 42.00507041689513 ], [ -87.680945607749365, 42.006771289560731 ], [ -87.685457800481473, 42.008758384839297 ], [ -87.68544835696423, 42.009072563575174 ], [ -87.680943485331284, 42.010858132347593 ], [ -87.676554694794461, 42.012805008698926 ], [ -87.676267220228951, 42.016743930897832 ] ], [ [ -87.754104328732183, 42.061074428661371 ], [ -87.753897106213046, 42.064944736452489 ], [ -87.753781132948745, 42.065090740589241 ], [ -87.744954797246706, 42.069074431495281 ], [ -87.731562274452017, 42.071156439689162 ], [ -87.713414166335284, 42.075467134297028 ], [ -87.704341125412796, 42.079108679760516 ], [ -87.695317772047616, 42.083083656304858 ], [ -87.69508344427183, 42.083088534279312 ], [ -87.681647419247966, 42.077900721577684 ], [ -87.681529383471585, 42.077797913146142 ], [ -87.676751503765374, 42.067148703311943 ], [ -87.669665993114236, 42.059382368551965 ], [ -87.670175770876625, 42.055592772277926 ], [ -87.671192879163954, 42.042519256690206 ], [ -87.670073815682713, 42.036468778865178 ], [ -87.668894834009748, 42.032195187185053 ], [ -87.668937089942034, 42.032051936497005 ], [ -87.676295600584865, 42.024617148747978 ], [ -87.680909169101341, 42.022406084877439 ], [ -87.681221792665895, 42.022439951544825 ], [ -87.690257325204072, 42.030227302527329 ], [ -87.699518584168203, 42.045647999802028 ], [ -87.704007289681996, 42.048065937928861 ], [ -87.713163146554294, 42.051446951027195 ], [ -87.731129236165785, 42.055215890714535 ], [ -87.749276859671241, 42.055063979476479 ], [ -87.749488565533809, 42.055153575464139 ], [ -87.754104328732183, 42.061074428661371 ] ], [ [ -87.671452878218503, 41.991381766446118 ], [ -87.671452878218503, 41.991381766446118 ] ], [ [ -87.675872069751264, 41.99321087572234 ], [ -87.675872069751264, 41.99321087572234 ] ] ] } },
{ "type": "Feature", "properties": { "site_label": "KXMe8lXQ64", "site_name": "Northwestern Medicine Field at Martin Stadium", "travel_time_minutes": 45.0 }, "geometry": { "type": "MultiLineString", "coordinates": [ [ [ -87.754431635120696, 42.07681902608671 ], [ -87.754302775336896, 42.076878776772524 ], [ -87.7405617910172, 42.079355451305247 ], [ -87.705255876341468, 42.090439406881565 ], [ -87.702843314825671, 42.089657704330683 ], [ -87.681614292635189, 42.077885278072358 ], [ -87.68154072956402, 42.07781876529269 ], [ -87.669647977570207, 42.059359042603738 ], [ -87.669387547381746, 42.052199476235295 ], [ -87.669072397221512, 42.039665979328838 ], [ -87.664153407949883, 42.021191048762965 ], [ -87.654895958801973, 42.006983519915124 ], [ -87.654872049729434, 42.006914816632722 ], [ -87.653143436783424, 41.983755512427159 ], [ -87.657514447232614, 41.966075772991481 ], [ -87.657592472256113, 41.965973185059397 ], [ -87.67554066426338, 41.954198809754814 ], [ -87.675886066419437, 41.954219387205526 ], [ -87.684775673463164, 41.962252172902872 ], [ -87.689746274999777, 41.967902196988817 ], [ -87.689804779962699, 41.987386335308997 ], [ -87.699305568480909, 42.014597566002756 ], [ -87.703985478522725, 42.023981545188391 ], [ -87.722097569549575, 42.043484925895946 ], [ -87.749239150977161, 42.047282654764714 ], [ -87.754195213581283, 42.049249671723629 ], [ -87.767529615705371, 42.055187175854222 ], [ -87.767647094148955, 42.055340063518202 ], [ -87.767739923010325, 42.062952063086847 ], [ -87.763223227701573, 42.068959012071566 ], [ -87.754431635120696, 42.07681902608671 ] ], [ [ -87.675705147514762, 41.923043994259615 ], [ -87.675344092637843, 41.923196302966218 ], [ -87.670709032197195, 41.92121295947711 ], [ -87.666190001971998, 41.919402941497054 ], [ -87.661615694957476, 41.917316636594535 ], [ -87.661500243561036, 41.917160124591717 ], [ -87.661580658234925, 41.913262524653447 ], [ -87.661711741755184, 41.913105012877388 ], [ -87.666381133261382, 41.911316117365409 ], [ -87.666618481520871, 41.911323394045674 ], [ -87.670802829291233, 41.913265372653342 ], [ -87.675361264971613, 41.915185490695933 ], [ -87.675483942612104, 41.915339321373168 ], [ -87.675705147514762, 41.923043994259615 ] ], [ [ -87.675382181797943, 41.946388208200261 ], [ -87.675382181797943, 41.946388208200261 ] ] ] } },
{ "type": "Feature", "properties": { "site_label": "KXMe8lXQ64", "site_name": "Northwestern Medicine Field at Martin Stadium", "travel_time_minutes": 60.0 }, "geometry": { "type": "MultiLineString", "coordinates": [ [ [ -87.772193866014376, 42.060987081138883 ], [ -87.772137609891757, 42.061112741887342 ], [ -87.754394844661945, 42.076845595081558 ], [ -87.727352022230718, 42.09259382997864 ], [ -87.714686426518966, 42.098243056886091 ], [ -87.714407459720988, 42.098226942909932 ], [ -87.681603936666278, 42.077879199323903 ], [ -87.68154072956402, 42.07781876529269 ], [ -87.669647977570207, 42.059359042603738 ], [ -87.669387547381746, 42.052199476235295 ], [ -87.669072665557678, 42.039676653685099 ], [ -87.654883387355767, 42.006960212695809 ], [ -87.649657745567708, 41.985416427380081 ], [ -87.639484128405641, 41.96614982713286 ], [ -87.639397155030096, 41.962520771822462 ], [ -87.63913972873182, 41.942976570777439 ], [ -87.639154617058821, 41.938902990219944 ], [ -87.643550678700976, 41.925248312860418 ], [ -87.643256245272653, 41.909720818473581 ], [ -87.625131446377296, 41.882552041197776 ], [ -87.625181180247594, 41.88234109360954 ], [ -87.63905787799078, 41.872488013466345 ], [ -87.639223388438239, 41.872438460270274 ], [ -87.647723964569991, 41.872424660475637 ], [ -87.652381222976672, 41.87430786980817 ], [ -87.665999500226391, 41.880118855953896 ], [ -87.67061209658813, 41.882146681966518 ], [ -87.69819512937282, 41.909207236151175 ], [ -87.698244439998248, 41.909314423477511 ], [ -87.69835009026454, 41.917194384642286 ], [ -87.689348261837381, 41.940565572650513 ], [ -87.707616536203602, 41.955933421292883 ], [ -87.725520681963559, 41.959714563676528 ], [ -87.72569632484786, 41.959885612301136 ], [ -87.72582906206253, 41.967683928052871 ], [ -87.726136152148925, 41.990964638843124 ], [ -87.753509465607991, 42.022045406005816 ], [ -87.758089135043534, 42.024112052540225 ], [ -87.762279091726484, 42.025768961541893 ], [ -87.762402432412955, 42.025891425019353 ], [ -87.772193866014376, 42.060987081138883 ] ], [ [ -87.69776421738672, 41.924912319170296 ], [ -87.69776421738672, 41.924912319170296 ] ], [ [ -87.7066812434269, 41.917077637491367 ], [ -87.7066812434269, 41.917077637491367 ] ], [ [ -87.734699880012613, 41.991015731305616 ], [ -87.734699880012613, 41.991015731305616 ] ], [ [ -87.739222084568169, 41.989002640502719 ], [ -87.739222084568169, 41.989002640502719 ] ] ] } }
]
}
