{
"type": "FeatureCollection",
"name": "dc_isochrones",
"crs": { "type": "name", "properties": { "name": "urn:ogc:def:crs:OGC:1.3:CRS84" } },
"features": [
{ "type": "Feature", "properties": { "site_label": "old", "site_name": "Maryland SoccerPlex", "travel_time_minutes": 30.0 }, "geometry": { "type": "MultiLineString", "coordinates": [ [ [ -77.318072896849174, 39.16361301168493 ], [ -77.319890433709688, 39.164843501921297 ], [ -77.319570577543274, 39.165689928506112 ], [ -77.310059753241845, 39.165599229006055 ], [ -77.306157671019406, 39.163946910351562 ], [ -77.306038543824485, 39.163800376818287 ], [ -77.305734220055058, 39.159988950083928 ], [ -77.301920807768596, 39.158829072916383 ], [ -77.29753704753341, 39.16005553107437 ], [ -77.297227525045372, 39.159891681090095 ], [ -77.297076361325352, 39.156161342850012 ], [ -77.296753962942702, 39.152337275240789 ], [ -77.292945920116978, 39.15376226717602 ], [ -77.292615052334696, 39.153585677725978 ], [ -77.292959935808284, 39.150194981572724 ], [ -77.29280888165728, 39.146671710420385 ], [ -77.293131944555782, 39.146500360003735 ], [ -77.297226797704241, 39.147879463441676 ], [ -77.301274449957987, 39.14623216521413 ], [ -77.297882571509973, 39.142921953086393 ], [ -77.296909832012048, 39.140722065742807 ], [ -77.297261575010538, 39.140516629715691 ], [ -77.300686796659164, 39.142384059259307 ], [ -77.30509611217397, 39.140030512802049 ], [ -77.305457961050308, 39.140170502440817 ], [ -77.305700434137862, 39.144122017984543 ], [ -77.310087255167105, 39.142392615503134 ], [ -77.313717955319404, 39.139586834926121 ], [ -77.317024473566534, 39.139627386778329 ], [ -77.317219730042723, 39.139892286867678 ], [ -77.316209876393316, 39.141359774380561 ], [ -77.314075229358551, 39.14356306839673 ], [ -77.310358891694761, 39.145831771521266 ], [ -77.31366585236114, 39.147550166761668 ], [ -77.319087023880115, 39.147214075569387 ], [ -77.322940310859209, 39.146911865077648 ], [ -77.323018667766789, 39.147266045286266 ], [ -77.319329539767821, 39.147971345972145 ], [ -77.315238516875226, 39.151953692134512 ], [ -77.318213355034331, 39.154316829512943 ], [ -77.322733561343327, 39.155114144368433 ], [ -77.325621284393691, 39.153739121190029 ], [ -77.327573357217091, 39.153548720905981 ], [ -77.327727190084005, 39.153877974185164 ], [ -77.324595817405779, 39.155491530036372 ], [ -77.321770111268265, 39.156147531812913 ], [ -77.319110348152975, 39.156208661886296 ], [ -77.313843264284174, 39.155354920067893 ], [ -77.311116643617709, 39.158377747649446 ], [ -77.31433033900997, 39.159370557059212 ], [ -77.314472754635247, 39.159506205244448 ], [ -77.315192273209917, 39.162630001130658 ], [ -77.318072896849174, 39.16361301168493 ] ] ] } },
{ "type": "Feature", "properties": { "site_label": "old", "site_name": "Maryland SoccerPlex", "travel_time_minutes": 45.0 }, "geometry": { "type": "MultiLineString", "coordinates": [ [ [ -77.321263074772801, 39.167908962011033 ], [ -77.321466318235395, 39.169404712498896 ], [ -77.321339397623106, 39.173640140800401 ], [ -77.320876596864437, 39.173633858286642 ], [ -77.320997301478243, 39.169512838661596 ], [ -77.309966293280112, 39.165582900624862 ], [ -77.306360255691843, 39.164033966511369 ], [ -77.302439897392532, 39.169562165080563 ], [ -77.302137239998117, 39.169637534241808 ], [ -77.29796017796977, 39.168072207739627 ], [ -77.293389773686044, 39.165108096544856 ], [ -77.288813846765294, 39.164144401564577 ], [ -77.284554439747723, 39.162313397714378 ], [ -77.284435382680968, 39.162167314361703 ], [ -77.284126034494889, 39.158439381932737 ], [ -77.279633349643206, 39.152807238965998 ], [ -77.279456535074885, 39.148760134468496 ], [ -77.279797941198154, 39.14859667879341 ], [ -77.284008405128162, 39.150371378589384 ], [ -77.288026382651168, 39.144600356501385 ], [ -77.285852549108867, 39.140785058134107 ], [ -77.286141374044348, 39.140542230525625 ], [ -77.293565467136844, 39.142593885581235 ], [ -77.294773242625411, 39.138004952903273 ], [ -77.29208360450275, 39.135201729002588 ], [ -77.292098489584575, 39.134972086730485 ], [ -77.295386991118775, 39.132181591457353 ], [ -77.295787580416587, 39.132321101979102 ], [ -77.295161932855223, 39.137255672692 ], [ -77.302206257765235, 39.138802752189576 ], [ -77.305783940197074, 39.136229098457733 ], [ -77.307425915189867, 39.133102800252352 ], [ -77.307764324904085, 39.133019091556818 ], [ -77.314408258189417, 39.136316992289636 ], [ -77.317856780008825, 39.130210377692805 ], [ -77.3182619046582, 39.130184104256415 ], [ -77.322809912332687, 39.1355844965328 ], [ -77.322775421743387, 39.135814192440037 ], [ -77.317201985091032, 39.139918152770797 ], [ -77.31627914256245, 39.141263304070648 ], [ -77.319259339602766, 39.14720056374135 ], [ -77.323078491090371, 39.146934787095738 ], [ -77.327668998342588, 39.148982206692295 ], [ -77.332794055648591, 39.147644303378407 ], [ -77.333074078979635, 39.147733850683998 ], [ -77.336570490092541, 39.153120744196805 ], [ -77.336413486690816, 39.153377972071546 ], [ -77.332128105937699, 39.154108462403897 ], [ -77.324589364740262, 39.155493028145969 ], [ -77.321770111268265, 39.156147531812913 ], [ -77.319250325494622, 39.156210426236335 ], [ -77.314549450602087, 39.159565114732942 ], [ -77.31815443134235, 39.163657495678869 ], [ -77.319956868606042, 39.164920868789686 ], [ -77.321263074772801, 39.167908962011033 ] ] ] } },
{ "type": "Feature", "properties": { "site_label": "old", "site_name": "Maryland SoccerPlex", "travel_time_minutes": 60.0 }, "geometry": { "type": "MultiLineString", "coordinates": [ [ [ -77.341039176946339, 39.16303691350916 ], [ -77.340393606330466, 39.163471497440625 ], [ -77.331977427874961, 39.154136141217052 ], [ -77.324589364740262, 39.155493028145969 ], [ -77.321770111268265, 39.156147531812913 ], [ -77.319250325494622, 39.156210426236335 ], [ -77.314549450602087, 39.159565114732942 ], [ -77.31815443134235, 39.163657495678869 ], [ -77.319956868606042, 39.164920868789686 ], [ -77.321227216446943, 39.16782693587222 ], [ -77.33056048471083, 39.170446535065274 ], [ -77.330677124694688, 39.170712856494859 ], [ -77.328447889584737, 39.17339153839368 ], [ -77.324068038955616, 39.175230756660561 ], [ -77.320221643166832, 39.177434066984532 ], [ -77.315367271667952, 39.18293311489073 ], [ -77.314945461047245, 39.182842006904608 ], [ -77.314662872828634, 39.179215905994958 ], [ -77.314716707887186, 39.178051391097135 ], [ -77.315282576474303, 39.177411124945642 ], [ -77.320878377258012, 39.17355465041279 ], [ -77.320997301478243, 39.169512838661596 ], [ -77.310088899847543, 39.165626589072161 ], [ -77.305360111362575, 39.1682877879622 ], [ -77.30170734595967, 39.172811871309747 ], [ -77.302483165121501, 39.177396675735608 ], [ -77.302271131719081, 39.177599831232776 ], [ -77.296062916087479, 39.177964632620117 ], [ -77.293253496634875, 39.177906187726457 ], [ -77.28901202507933, 39.172180548201887 ], [ -77.280457648955831, 39.172320405151609 ], [ -77.27584550443683, 39.170299120373066 ], [ -77.275728882473658, 39.170144220645199 ], [ -77.275579832051349, 39.162498489628156 ], [ -77.270611592407434, 39.156756440360489 ], [ -77.270684133586514, 39.156501476633956 ], [ -77.275106463979327, 39.154427892590093 ], [ -77.270848980713865, 39.148946066047266 ], [ -77.26765431571954, 39.148216871034968 ], [ -77.267500334596733, 39.147986069354431 ], [ -77.270460529137239, 39.14119836684911 ], [ -77.270432589694238, 39.135229056551431 ], [ -77.270728402614353, 39.135055399393657 ], [ -77.274586851517086, 39.135927892273187 ], [ -77.283376724529532, 39.134794613293877 ], [ -77.28366933377454, 39.130526295677981 ], [ -77.283795475243323, 39.130375317338554 ], [ -77.289848437616541, 39.127978191066767 ], [ -77.292153733648533, 39.1265418827888 ], [ -77.295246754997379, 39.120801288909718 ], [ -77.295684642243202, 39.120828205655101 ], [ -77.296941839149468, 39.124832383209849 ], [ -77.300830639025477, 39.127934879048233 ], [ -77.309573558143967, 39.126293640096115 ], [ -77.308995148829567, 39.12271973057301 ], [ -77.309218693991482, 39.12251711482832 ], [ -77.31600307674654, 39.122381915688763 ], [ -77.316175565220803, 39.122437028727866 ], [ -77.322442168735876, 39.127504288517699 ], [ -77.326716044492656, 39.130284025145798 ], [ -77.326798417046788, 39.130408562179554 ], [ -77.327205231569707, 39.13455090848786 ], [ -77.331830814898865, 39.140510165906313 ], [ -77.339019083305772, 39.139785251518703 ], [ -77.339233432839777, 39.139855376964249 ], [ -77.344785438400663, 39.145583168062444 ], [ -77.344809856253221, 39.145768837920563 ], [ -77.34141616495009, 39.151345281881113 ], [ -77.341753135761351, 39.153266000851517 ], [ -77.342081154474769, 39.159010999636862 ], [ -77.341039176946339, 39.16303691350916 ] ] ] } },
{ "type": "Feature", "properties": { "site_label": "new", "site_name": "Audi Field", "travel_time_minutes": 30.0 }, "geometry": { "type": "MultiLineString", "coordinates": [ [ [ -76.984611915860938, 38.845876141780899 ], [ -76.984611915860938, 38.845876141780899 ] ], [ [ -77.028021334964563, 38.88026209297157 ], [ -77.02803210325672, 38.880429716027983 ], [ -77.024502917500385, 38.886376021913485 ], [ -77.024175586698519, 38.886454878329332 ], [ -77.019991176959252, 38.884501271701041 ], [ -77.007673841849197, 38.886629328068871 ], [ -77.003092921946717, 38.884780874252542 ], [ -76.998631257643808, 38.88281959746562 ], [ -76.994151428289271, 38.876974555613231 ], [ -76.990062918191015, 38.875225041149037 ], [ -76.989943388057, 38.875075861476461 ], [ -76.989443540539824, 38.867139676838327 ], [ -76.98529949755499, 38.865573614855506 ], [ -76.98528181489219, 38.865256627940774 ], [ -76.989483149571157, 38.863298928090629 ], [ -76.993258306657211, 38.857339832345922 ], [ -76.993405533637926, 38.85724568699208 ], [ -77.005705206294451, 38.854685393905228 ], [ -77.005994771772663, 38.854852947033891 ], [ -77.006206860341948, 38.859409005226759 ], [ -77.012570261696339, 38.863580633773608 ], [ -77.012650076986631, 38.86374556046885 ], [ -77.01168104431072, 38.868770341561088 ], [ -77.02009001195033, 38.87271055045175 ], [ -77.028021334964563, 38.88026209297157 ] ], [ [ -76.988862521642815, 38.843771849955232 ], [ -76.988862521642815, 38.843771849955232 ] ], [ [ -77.0204809588882, 38.892058216450138 ], [ -77.0204809588882, 38.892058216450138 ] ] ] } },
{ "type": "Feature", "properties": { "site_label": "new", "site_name": "Audi Field", "travel_time_minutes": 45.0 }, "geometry": { "type": "MultiLineString", "coordinates": [ [ [ -76.915423049964119, 38.83159513153965 ], [ -76.915100413716303, 38.831695178340858 ], [ -76.91077240626187, 38.829951274656139 ], [ -76.910647549588901, 38.8297916014834 ], [ -76.910633062726035, 38.82571680112224 ], [ -76.910686991311991, 38.822417095558784 ], [ -76.910988036297269, 38.822247926957139 ], [ -76.915411126564678, 38.823364424549816 ], [ -76.915570642288898, 38.823540893422027 ], [ -76.915431146601236, 38.827477008643051 ], [ -76.915423049964119, 38.83159513153965 ] ], [ [ -76.933099126658135, 38.842751143393706 ], [ -76.933136047459612, 38.842891353736917 ], [ -76.932146358845785, 38.846605755339851 ], [ -76.929383790719299, 38.848786354663744 ], [ -76.928992999408663, 38.848680211511052 ], [ -76.928398212483444, 38.844874359635369 ], [ -76.928348425341966, 38.840886659209545 ], [ -76.928694606611629, 38.840729138692687 ], [ -76.933099126658135, 38.842751143393706 ] ], [ [ -76.934328991186035, 38.9090258358368 ], [ -76.934328991186035, 38.9090258358368 ] ], [ [ -76.938410739983752, 38.891443341770746 ], [ -76.938410739983752, 38.891443341770746 ] ], [ [ -76.947081708715416, 38.899109458313028 ], [ -76.947081708715416, 38.899109458313028 ] ], [ [ -77.047364862773506, 38.911265093296208 ], [ -77.026118073964412, 38.921407979769114 ], [ -77.021624870415067, 38.923528710422573 ], [ -77.021342272664299, 38.923501714376535 ], [ -76.999346405241084, 38.906262978749623 ], [ -76.977217066469635, 38.892999685263938 ], [ -76.95550898372035, 38.883788332824885 ], [ -76.955415130075252, 38.883545901898238 ], [ -76.959565816961089, 38.877398401454748 ], [ -76.954672652747391, 38.856257733429516 ], [ -76.945815971460547, 38.848308953189786 ], [ -76.945789324798142, 38.848101653623125 ], [ -76.949845684572509, 38.842514484473739 ], [ -76.967949415905963, 38.821925512819419 ], [ -76.96811437103834, 38.82184847311801 ], [ -76.988380621197479, 38.820127578700209 ], [ -76.988520179150939, 38.820150448143899 ], [ -76.997356165445154, 38.824118739907128 ], [ -76.997456959056308, 38.824211316457699 ], [ -77.006805307603642, 38.843559498071954 ], [ -77.006995554454576, 38.847472989935234 ], [ -77.006730990882929, 38.85127885510569 ], [ -77.012617995381333, 38.863613573906477 ], [ -77.033545175131039, 38.878089046574814 ], [ -77.03784898502829, 38.879831800560297 ], [ -77.055371908599781, 38.899313171856839 ], [ -77.055387886118027, 38.899499882642012 ], [ -77.051521415124171, 38.905313049373255 ], [ -77.047364862773506, 38.911265093296208 ] ], [ [ -76.995334700664515, 38.919763448519134 ], [ -76.995334700664515, 38.919763448519134 ] ], [ [ -77.035085595185848, 38.932782687797449 ], [ -77.034763142376207, 38.932887949357067 ], [ -77.030568059813064, 38.931249594903079 ], [ -77.026456516842927, 38.936872356599338 ], [ -77.022159186960835, 38.938993523299281 ], [ -77.021960508816548, 38.939010677872425 ], [ -77.017686199621735, 38.937837375339349 ], [ -77.017611123714332, 38.937531579768951 ], [ -77.021759222282043, 38.934707685148204 ], [ -77.025926649864473, 38.932821306586327 ], [ -77.025923937495733, 38.929058901514281 ], [ -77.026039124804569, 38.92890283331073 ], [ -77.030241461903145, 38.927004434979949 ], [ -77.034624183918609, 38.924848446297155 ], [ -77.034860774662619, 38.924844131836984 ], [ -77.039244367728969, 38.926783527790242 ], [ -77.039246121180554, 38.927096288668693 ], [ -77.034962574078506, 38.929030048992011 ], [ -77.035085595185848, 38.932782687797449 ] ], [ [ -77.044347132573151, 38.833088312991535 ], [ -77.044347132573151, 38.833088312991535 ] ], [ [ -77.051135214154769, 38.86894305074626 ], [ -77.051306556767855, 38.86909691233712 ], [ -77.051904969548033, 38.873163810827023 ], [ -77.051360649111274, 38.873451002831523 ], [ -77.046096736851268, 38.872393700599709 ], [ -77.045923921297984, 38.872228361433564 ], [ -77.045769128922331, 38.869851560924772 ], [ -77.045957908483928, 38.869665159257551 ], [ -77.051135214154769, 38.86894305074626 ] ], [ [ -77.051779743343062, 38.924585335516412 ], [ -77.051779743343062, 38.924585335516412 ] ], [ [ -77.056234109710502, 38.93437144487465 ], [ -77.056234109710502, 38.93437144487465 ] ], [ [ -77.056153922445972, 38.92652526062728 ], [ -77.056153922445972, 38.92652526062728 ] ] ] } },
{ "type": "Feature", "properties": { "site_label": "new", "site_name": "Audi Field", "travel_time_minutes": 60.0 }, "geometry": { "type": "MultiLineString", "coordinates": [ [ [ -76.875536180432036, 38.953101866938056 ], [ -76.875202925909548, 38.953216169149137 ], [ -76.866450261468145, 38.949533466590637 ], [ -76.866332706046421, 38.949407567586526 ], [ -76.865581715697743, 38.946236565902801 ], [ -76.865870723843813, 38.946030274075582 ], [ -76.870779138440085, 38.947101759010188 ], [ -76.874600500253763, 38.94501562934618 ], [ -76.874838841852778, 38.945003318412162 ], [ -76.879607833654276, 38.94693271431683 ], [ -76.879624607694495, 38.947245188134218 ], [ -76.875556105009878, 38.949244761146829 ], [ -76.875536180432036, 38.953101866938056 ] ], [ [ -76.864824869964565, 38.895049378514855 ], [ -76.864824869964565, 38.895049378514855 ] ], [ [ -76.868825691458866, 38.896533514914189 ], [ -76.868825691458866, 38.896533514914189 ] ], [ [ -76.892232944782421, 38.933095763510515 ], [ -76.888587468725618, 38.93520872365621 ], [ -76.888224299348749, 38.935089016582623 ], [ -76.887539686891003, 38.931249999942459 ], [ -76.891453999982772, 38.925322406429586 ], [ -76.891888191208452, 38.925384685902131 ], [ -76.892476303981965, 38.929433084439296 ], [ -76.892232944782421, 38.933095763510515 ] ], [ [ -76.916979085883142, 38.885977712677715 ], [ -76.917116904790376, 38.889877340741741 ], [ -76.917008658959787, 38.890033456470476 ], [ -76.912739353759392, 38.892120361032582 ], [ -76.912503012256863, 38.892124171625568 ], [ -76.90810401901409, 38.890166332036927 ], [ -76.903891568221127, 38.888478763245985 ], [ -76.899855907932519, 38.890187329246451 ], [ -76.899648162943748, 38.890192013774609 ], [ -76.890939611373128, 38.8870162586676 ], [ -76.890907571892157, 38.886703483909088 ], [ -76.895020371791063, 38.884532411670023 ], [ -76.898886624966281, 38.882364598203303 ], [ -76.899248758301326, 38.882483181193287 ], [ -76.899963299294058, 38.88605689353664 ], [ -76.907975449164582, 38.886157733716814 ], [ -76.911993204974863, 38.884037670545816 ], [ -76.912228585552427, 38.884027155237305 ], [ -76.916979085883142, 38.885977712677715 ] ], [ [ -76.89455283808104, 38.872706759922828 ], [ -76.89455283808104, 38.872706759922828 ] ], [ [ -77.09209475549703, 38.961104512122901 ], [ -77.087959293373146, 38.966851156133295 ], [ -77.087725188338112, 38.966941223085577 ], [ -77.07462865582923, 38.965467320309614 ], [ -77.07446256845779, 38.965380190983375 ], [ -77.070121775176091, 38.959605282666644 ], [ -77.03596164011843, 38.968051868058375 ], [ -77.036471699388329, 38.971824733755028 ], [ -77.036451827235723, 38.97962073977579 ], [ -77.036515719515037, 38.983519395608695 ], [ -77.03625827109704, 38.983700664837293 ], [ -77.01422551589711, 38.981701461313826 ], [ -77.014054240934868, 38.98161516952019 ], [ -77.010240510342825, 38.976651671006159 ], [ -76.992062405502566, 38.957271128419535 ], [ -76.987566578920024, 38.951311721002583 ], [ -76.965493079203512, 38.93412904363818 ], [ -76.939867661946778, 38.914055994255492 ], [ -76.935020111689809, 38.915768376067049 ], [ -76.930588445130425, 38.914900534819104 ], [ -76.925957960615719, 38.913491480911802 ], [ -76.921360470503984, 38.907528972950502 ], [ -76.921308496945827, 38.903580435083228 ], [ -76.925304638914497, 38.889778541646528 ], [ -76.9292657301757, 38.876284278758433 ], [ -76.898886426117812, 38.863209464539061 ], [ -76.894685425111064, 38.865183632480161 ], [ -76.894348103913401, 38.86497212022411 ], [ -76.898485830914964, 38.855285327221594 ], [ -76.902683240784953, 38.849087644660905 ], [ -76.926945920257509, 38.835184573216182 ], [ -76.927024130371493, 38.835155518828799 ], [ -76.949767190033555, 38.830527974286305 ], [ -76.961618720802619, 38.816563054472333 ], [ -76.961696384191839, 38.816506241060893 ], [ -76.9796647591956, 38.808475559130706 ], [ -76.988233442701087, 38.808602145222522 ], [ -76.997263227533011, 38.812350837353101 ], [ -77.005526156430832, 38.815823052887659 ], [ -77.013893263359876, 38.824149239845532 ], [ -77.014940254946268, 38.828333426296268 ], [ -77.015006261258804, 38.831981097277385 ], [ -77.010728080578019, 38.837715962233673 ], [ -77.006993874984616, 38.847510477635524 ], [ -77.006730990879078, 38.851278855097625 ], [ -77.012585673605656, 38.863545864980807 ], [ -77.040029919681359, 38.864828748757276 ], [ -77.051176495105082, 38.868954761030118 ], [ -77.051267997817902, 38.869015981106635 ], [ -77.057371152481025, 38.876017905909855 ], [ -77.064892687653852, 38.890541291303215 ], [ -77.069357378725783, 38.900369021471462 ], [ -77.068855605838678, 38.904894468545855 ], [ -77.069504239363908, 38.92825853556495 ], [ -77.082844670614293, 38.941589260687763 ], [ -77.09174091098285, 38.949516448297089 ], [ -77.0917980125881, 38.949629614635924 ], [ -77.092091736492932, 38.957022913402682 ], [ -77.09209475549703, 38.961104512122901 ] ], [ [ -76.928610538658688, 38.829525875468583 ], [ -76.928266965193046, 38.82967716186652 ], [ -76.923890820140343, 38.827742503046224 ], [ -76.919730321474361, 38.829540408682064 ], [ -76.915327789078916, 38.831687889909752 ], [ -76.911158520631602, 38.833142170306488 ], [ -76.906476710595953, 38.831860767538075 ], [ -76.906322445228525, 38.831689779086986 ], [ -76.906348519432612, 38.827700995636953 ], [ -76.90599656107311, 38.823158621315145 ], [ -76.901787383744605, 38.821654285849654 ], [ -76.901653193534031, 38.821479539408671 ], [ -76.901946405758778, 38.817680939672094 ], [ -76.902212557487459, 38.817513865486191 ], [ -76.909713239092284, 38.818449063644756 ], [ -76.914857183089325, 38.819795157335044 ], [ -76.919563279542814, 38.821949309885653 ], [ -76.923896663400583, 38.823514505552716 ], [ -76.928290676684853, 38.822014560506737 ], [ -76.928601739127529, 38.822235650657397 ], [ -76.927375663129538, 38.825171583571063 ], [ -76.928610538658688, 38.829525875468583 ] ], [ [ -76.910552215211865, 39.008438200903321 ], [ -76.910552215211865, 39.008438200903321 ] ], [ [ -76.908699068793027, 38.917387563534987 ], [ -76.908699068793027, 38.917387563534987 ] ], [ [ -76.911743507142589, 39.010735903286459 ], [ -76.911743507142589, 39.010735903286459 ] ], [ [ -76.909625500188881, 38.913918391043758 ], [ -76.909625500188881, 38.913918391043758 ] ], [ [ -76.917490078509076, 38.917730212020409 ], [ -76.921144979193244, 38.916961264004257 ], [ -76.921423463628301, 38.917079527703855 ], [ -76.922272969094692, 38.919114125983846 ], [ -76.922171507682322, 38.919324899495138 ], [ -76.917932718704165, 38.921292189536288 ], [ -76.913544088129242, 38.923453126397646 ], [ -76.913223752494915, 38.923207434174032 ], [ -76.917490078509076, 38.917730212020409 ] ], [ [ -76.936775866891423, 38.979240254649454 ], [ -76.936713205690225, 38.979528266269405 ], [ -76.932493198718944, 38.981148770099516 ], [ -76.932311347799754, 38.981156122427969 ], [ -76.927558167036523, 38.9797862578517 ], [ -76.92464353294811, 38.98039573830934 ], [ -76.9243649112735, 38.980278916274422 ], [ -76.92312871896236, 38.977397613781733 ], [ -76.923248550353605, 38.977177656005544 ], [ -76.927803286729429, 38.975488543096951 ], [ -76.932458307307641, 38.973491110264426 ], [ -76.932799794452137, 38.973661095232082 ], [ -76.932496465155182, 38.977180220411668 ], [ -76.936775866891423, 38.979240254649454 ] ], [ [ -76.975376771437809, 38.968700095057969 ], [ -76.975049472093275, 38.968813634282796 ], [ -76.970388894096018, 38.966965269034482 ], [ -76.962258297948523, 38.967431639068792 ], [ -76.953829837291622, 38.967685202742871 ], [ -76.953945332909385, 38.971275576874397 ], [ -76.953607180533027, 38.971439570640506 ], [ -76.948991309689774, 38.969513744215263 ], [ -76.944640519855298, 38.963687236586445 ], [ -76.944721469910093, 38.963441858811876 ], [ -76.949101794842804, 38.961422760143414 ], [ -76.957540087248006, 38.961168042986223 ], [ -76.95748551056171, 38.957422291179597 ], [ -76.957250987131886, 38.954035326738328 ], [ -76.95734828576262, 38.953878428720003 ], [ -76.961732081638758, 38.95146083378296 ], [ -76.965976409561137, 38.949460927592121 ], [ -76.966208403021284, 38.949458026414867 ], [ -76.974951626670972, 38.953330965286987 ], [ -76.975067379072456, 38.953482857008964 ], [ -76.97518440835303, 38.957272169392965 ], [ -76.975484636722399, 38.961612984502786 ], [ -76.975487984559081, 38.965352986489705 ], [ -76.975376771437809, 38.968700095057969 ] ], [ [ -77.03664853685757, 38.99121994062989 ], [ -77.036706175597217, 38.995217722737088 ], [ -77.036598158986791, 38.995370739626892 ], [ -77.032486154021399, 38.99738744405299 ], [ -77.032132499159232, 38.997239716261063 ], [ -77.032010472576729, 38.993678438026805 ], [ -77.027881133827236, 38.995573504767641 ], [ -77.027533268769631, 38.995414580412437 ], [ -77.027633281407461, 38.991530780272456 ], [ -77.027742567114089, 38.991381217214773 ], [ -77.032026461806751, 38.989311121780858 ], [ -77.032259727424844, 38.9893066376343 ], [ -77.03664853685757, 38.99121994062989 ] ], [ [ -77.0460449639112, 39.014731062273249 ], [ -77.045957582374285, 39.014990754586336 ], [ -77.041677475578112, 39.01670095859869 ], [ -77.041341302532274, 39.016544269120004 ], [ -77.041241414961206, 39.012718068591575 ], [ -77.041593884687785, 39.012561226334519 ], [ -77.0460449639112, 39.014731062273249 ] ], [ [ -77.039113574053786, 38.81460821915141 ], [ -77.039113574053786, 38.81460821915141 ] ], [ [ -77.047673763807396, 38.840553247221564 ], [ -77.047251580188686, 38.840663308627882 ], [ -77.04548028311234, 38.83856620565814 ], [ -77.045216024900839, 38.836994781357838 ], [ -77.039751255232858, 38.83152989509891 ], [ -77.039753534219187, 38.831305662867607 ], [ -77.041346135777829, 38.829763965247622 ], [ -77.041649319623417, 38.829725373407264 ], [ -77.043015235044848, 38.83043633443561 ], [ -77.044769840226976, 38.833061731254652 ], [ -77.045816383487931, 38.837141629422021 ], [ -77.047673763807396, 38.840553247221564 ] ], [ [ -77.039341596799943, 38.813486401710108 ], [ -77.039341596799943, 38.813486401710108 ] ], [ [ -77.064658960142125, 38.884033156196423 ], [ -77.064658960142125, 38.884033156196423 ] ], [ [ -77.074612781056899, 38.901184092136013 ], [ -77.074612781056899, 38.901184092136013 ] ], [ [ -77.076386396734577, 38.90175428009055 ], [ -77.076386396734577, 38.90175428009055 ] ] ] } }
]
}
