{
"type": "FeatureCollection",
"name": "extra_venues_isochrones",
"crs": { "type": "name", "properties": { "name": "urn:ogc:def:crs:OGC:1.3:CRS84" } },
"features": [
{ "type": "Feature", "properties": { "site_id": "yankee_stadium", "site_name": "Yankee Stadium", "travel_time_minutes": 30.0 }, "geometry": { "type": "MultiLineString", "coordinates": [ [ [ -73.879564739685875, 40.884174840049745 ], [ -73.879564739685875, 40.884174840049745 ] ], [ [ -73.879639628451429, 40.887528140083212 ], [ -73.879639628451429, 40.887528140083212 ] ], [ [ -73.884132854723276, 40.87829694899829 ], [ -73.884132854723276, 40.87829694899829 ] ], [ [ -73.887920698500366, 40.880650208436187 ], [ -73.887920698500366, 40.880650208436187 ] ], [ [ -73.949173670151879, 40.837908895353351 ], [ -73.938446425100366, 40.847707886530948 ], [ -73.933834690518168, 40.849687681882706 ], [ -73.916231085933958, 40.853690812520298 ], [ -73.907029051479142, 40.860954368978845 ], [ -73.90268164520289, 40.870809415378019 ], [ -73.902499650928391, 40.87092937007467 ], [ -73.888797515409706, 40.872847074676862 ], [ -73.88851723563053, 40.872665417400768 ], [ -73.888910578397557, 40.860666818753515 ], [ -73.889035268554338, 40.860512687742549 ], [ -73.897897002811177, 40.856888129037792 ], [ -73.902487361852891, 40.847549679138197 ], [ -73.90231325097281, 40.839321555599199 ], [ -73.889752098815904, 40.829749774240149 ], [ -73.889496341307037, 40.825623868237166 ], [ -73.893968608911322, 40.819613101825595 ], [ -73.903111786233751, 40.812268127154283 ], [ -73.912068940892951, 40.804396772350216 ], [ -73.912184319510956, 40.804341122360725 ], [ -73.930081522870992, 40.800528279460245 ], [ -73.93444856220394, 40.798782397726285 ], [ -73.93898227934676, 40.79660343586103 ], [ -73.943403683215877, 40.795013620198127 ], [ -73.943621987044111, 40.795019802641896 ], [ -73.952487673286285, 40.798842093580994 ], [ -73.956978892041349, 40.800820989573033 ], [ -73.965740198899113, 40.808730376030013 ], [ -73.96578195549931, 40.808907301897136 ], [ -73.961185283506126, 40.818629611031582 ], [ -73.952173207941172, 40.826348639323307 ], [ -73.950778744441536, 40.833650963469992 ], [ -73.949173670151879, 40.837908895353351 ] ], [ [ -73.957257743076738, 40.781787819443707 ], [ -73.957133803583758, 40.781901505814339 ], [ -73.952716795285212, 40.783550709670038 ], [ -73.952375498132611, 40.78338122764935 ], [ -73.952589120463529, 40.779620705021244 ], [ -73.948168439488086, 40.777542527121057 ], [ -73.948174778917178, 40.777233195397393 ], [ -73.957149564493605, 40.773301604324708 ], [ -73.961565551420307, 40.771685850884339 ], [ -73.961871806968531, 40.771940516836509 ], [ -73.957381405688892, 40.777661150317442 ], [ -73.957257743076738, 40.781787819443707 ] ], [ [ -73.947923768026953, 40.789290930484022 ], [ -73.947923768026953, 40.789290930484022 ] ], [ [ -73.966028560143343, 40.761963709467899 ], [ -73.966028560143343, 40.761963709467899 ] ], [ [ -73.970474549135673, 40.763972817917626 ], [ -73.970474549135673, 40.763972817917626 ] ], [ [ -73.979117917779632, 40.768113792909155 ], [ -73.979117917779632, 40.768113792909155 ] ], [ [ -73.983953661194363, 40.754394202927315 ], [ -73.983953661194363, 40.754394202927315 ] ], [ [ -73.983756716094888, 40.770022143165846 ], [ -73.983756716094888, 40.770022143165846 ] ] ] } },
{ "type": "Feature", "properties": { "site_id": "yankee_stadium", "site_name": "Yankee Stadium", "travel_time_minutes": 45.0 }, "geometry": { "type": "MultiLineString", "coordinates": [ [ [ -73.978944193662258, 40.794986128948558 ], [ -73.962693888635201, 40.819264165062407 ], [ -73.957468781865785, 40.827144506140478 ], [ -73.942998603285787, 40.849538729728145 ], [ -73.932360929166194, 40.869456509888956 ], [ -73.932281959182262, 40.869533740131907 ], [ -73.90224862774042, 40.886357076046622 ], [ -73.898049850666297, 40.888672018038129 ], [ -73.868353806585802, 40.902538649167447 ], [ -73.868003274292775, 40.90244015701969 ], [ -73.865993078104111, 40.897649029970417 ], [ -73.86614577030231, 40.878132544684156 ], [ -73.852932431287485, 40.860533195573517 ], [ -73.853365320892763, 40.856511898358121 ], [ -73.862607403600919, 40.833227134855228 ], [ -73.868136071780043, 40.806498339976272 ], [ -73.872975566354413, 40.801490690593496 ], [ -73.873098621799258, 40.801425113841958 ], [ -73.916503959882846, 40.791606862425688 ], [ -73.925687168792948, 40.786918272431812 ], [ -73.952794622640255, 40.759878212823672 ], [ -73.979849311524461, 40.729209544166494 ], [ -73.993482287289027, 40.715383204752946 ], [ -74.01143567588629, 40.703812428159878 ], [ -74.011710196709799, 40.703795267839773 ], [ -74.016147990300979, 40.705814563145701 ], [ -74.016258404510978, 40.706005466555901 ], [ -74.006886306550328, 40.740693046464152 ], [ -74.005871850577122, 40.756580740145672 ], [ -74.003719023015194, 40.763704001739377 ], [ -73.986835772687883, 40.785025814373846 ], [ -73.983173771578848, 40.789007024728107 ], [ -73.980947787461076, 40.79231003545565 ], [ -73.978944193662258, 40.794986128948558 ] ], [ [ -73.857194230878321, 40.893480996860028 ], [ -73.857194230878321, 40.893480996860028 ] ], [ [ -73.861765157792433, 40.884032005938415 ], [ -73.861765157792433, 40.884032005938415 ] ], [ [ -73.92207890516633, 40.769678661868674 ], [ -73.921911628941089, 40.773352380937787 ], [ -73.921551934449056, 40.773498012151002 ], [ -73.917157583663567, 40.771470148322919 ], [ -73.912842723301281, 40.769577333095427 ], [ -73.908482707551471, 40.771455256046963 ], [ -73.908129144965685, 40.771290693771803 ], [ -73.908340358065544, 40.76758809436776 ], [ -73.908577200090974, 40.767415737760558 ], [ -73.917415576216939, 40.767418237450279 ], [ -73.92207890516633, 40.769678661868674 ] ], [ [ -73.960738522817678, 40.743939349914541 ], [ -73.960598587489358, 40.744253132915212 ], [ -73.953462838857703, 40.744670832061864 ], [ -73.948937737138223, 40.746328877845684 ], [ -73.944431066818453, 40.75220784302973 ], [ -73.944105052845643, 40.752271836188747 ], [ -73.939806985861978, 40.750322416264268 ], [ -73.935495080227909, 40.752245493605592 ], [ -73.931032878002782, 40.757966314143239 ], [ -73.930592181304903, 40.757872569717698 ], [ -73.930683387151504, 40.750049193660097 ], [ -73.930627324721868, 40.746110550459548 ], [ -73.93094843991247, 40.745940212782145 ], [ -73.935801783023749, 40.74734449482132 ], [ -73.944046837088806, 40.748046353581287 ], [ -73.944195176853185, 40.740198063334361 ], [ -73.944560902472745, 40.740050449469322 ], [ -73.948830293076227, 40.742156700991202 ], [ -73.953120666330832, 40.740304419178926 ], [ -73.953365235697163, 40.740309328241338 ], [ -73.960738522817678, 40.743939349914541 ] ], [ [ -73.949218731933541, 40.714982478720849 ], [ -73.949218731933541, 40.714982478720849 ] ], [ [ -73.957888722844885, 40.715163595289937 ], [ -73.957888722844885, 40.715163595289937 ] ], [ [ -73.957851210220099, 40.718997595103531 ], [ -73.957851210220099, 40.718997595103531 ] ] ] } },
{ "type": "Feature", "properties": { "site_id": "yankee_stadium", "site_name": "Yankee Stadium", "travel_time_minutes": 60.0 }, "geometry": { "type": "MultiLineString", "coordinates": [ [ [ -73.978945869657565, 40.850139833262716 ], [ -73.973483834918227, 40.859549669104993 ], [ -73.973390565828666, 40.859630668961728 ], [ -73.964738252930061, 40.863650277998126 ], [ -73.960164443766445, 40.865504355278894 ], [ -73.928148083525201, 40.876646984665072 ], [ -73.911025858610131, 40.893995490131303 ], [ -73.907245152701961, 40.902042004135104 ], [ -73.907084127338578, 40.902155278540022 ], [ -73.896279814027835, 40.904394199438869 ], [ -73.877712079766198, 40.906060852785913 ], [ -73.852784314110451, 40.903598745366189 ], [ -73.852696296675205, 40.903576128463236 ], [ -73.830223962548985, 40.89373070511396 ], [ -73.826056877403303, 40.891778890219342 ], [ -73.81313155239296, 40.865954466641718 ], [ -73.813127622251699, 40.865835022092931 ], [ -73.827123220757045, 40.832991550545145 ], [ -73.831576825254814, 40.826530878683627 ], [ -73.836242203423424, 40.82118210720563 ], [ -73.846305713243439, 40.811420123451235 ], [ -73.846425533206215, 40.811358353066559 ], [ -73.854290889249185, 40.809601527785958 ], [ -73.872897718058752, 40.801507024278187 ], [ -73.864834181785483, 40.773225691612076 ], [ -73.861871129995095, 40.771653069356034 ], [ -73.855282496925099, 40.751200857250041 ], [ -73.855397782328282, 40.751000412845123 ], [ -73.864276544492213, 40.74726403583692 ], [ -73.882006376884007, 40.743449743600792 ], [ -73.886620244733834, 40.741636696876718 ], [ -73.89971100121123, 40.739808707080599 ], [ -73.913663242903951, 40.707092953601951 ], [ -73.909290161727597, 40.701126951621809 ], [ -73.904696855245106, 40.69524929533619 ], [ -73.905020407309522, 40.69500195140251 ], [ -73.914067410196395, 40.699010656605751 ], [ -73.936017052072771, 40.701216987984353 ], [ -73.954172664182792, 40.6702090705854 ], [ -73.958781746023874, 40.668245278025225 ], [ -73.958994316023762, 40.668239631675462 ], [ -73.994187949403766, 40.680564001057135 ], [ -73.994274212884775, 40.680615448055285 ], [ -74.017031936336366, 40.702357012232333 ], [ -74.019118548398581, 40.704657264199952 ], [ -74.019578663712096, 40.706096762936092 ], [ -74.018327181941387, 40.715188731435454 ], [ -74.011492195929321, 40.748680546461117 ], [ -74.010917832480445, 40.7510654635199 ], [ -74.01012370348181, 40.753026996649133 ], [ -74.007085630898402, 40.759289365048488 ], [ -74.00139213569895, 40.767003523319879 ], [ -73.991597745551118, 40.77984953264766 ], [ -73.983173771578848, 40.789007024728107 ], [ -73.980947787461076, 40.79231003545565 ], [ -73.97897216504164, 40.794948775740707 ], [ -73.978747693459724, 40.830597857006445 ], [ -73.978762701919223, 40.834336743193042 ], [ -73.978945869657565, 40.850139833262716 ] ], [ [ -73.837714624924544, 40.720033165511317 ], [ -73.837714624924544, 40.720033165511317 ] ], [ [ -73.842367114223833, 40.721884474332619 ], [ -73.842367114223833, 40.721884474332619 ] ], [ [ -73.846222701021944, 40.755011880562328 ], [ -73.846222701021944, 40.755011880562328 ] ], [ [ -73.905144779252893, 40.683421495495708 ], [ -73.905144779252893, 40.683421495495708 ] ], [ [ -73.955495108534336, 40.871013086045757 ], [ -73.955495108534336, 40.871013086045757 ] ], [ [ -73.977929465882426, 40.881077932182151 ], [ -73.977554147104513, 40.881174657364291 ], [ -73.973410911389564, 40.878730796438141 ], [ -73.969299630726297, 40.876955593355369 ], [ -73.969180270449954, 40.876812082942919 ], [ -73.968853982532792, 40.873410382425121 ], [ -73.968963769745969, 40.873245067209297 ], [ -73.973326911262774, 40.871180452121592 ], [ -73.982293486949928, 40.871097252055904 ], [ -73.98247191524392, 40.871398673271955 ], [ -73.979426563594473, 40.873938219357015 ], [ -73.978004947647534, 40.877493418487646 ], [ -73.977929465882426, 40.881077932182151 ] ], [ [ -73.980833163054541, 40.666591099668246 ], [ -73.980833163054541, 40.666591099668246 ] ], [ [ -73.99891479321289, 40.674241033112324 ], [ -73.998618619980121, 40.674512206229522 ], [ -73.989722305106923, 40.670923297609505 ], [ -73.989930242633534, 40.670599814786776 ], [ -73.994582533688103, 40.67219451080895 ], [ -73.99891479321289, 40.674241033112324 ] ], [ [ -74.031194123046674, 40.893169332913587 ], [ -74.030926936240661, 40.8934651576524 ], [ -74.026449468345177, 40.891591020618321 ], [ -74.004414505750503, 40.893321207099603 ], [ -73.999825505768428, 40.891300454931475 ], [ -73.991244294987595, 40.887859992538054 ], [ -73.991215047176695, 40.887555286727888 ], [ -73.995635961812994, 40.885139741806661 ], [ -74.00433065241117, 40.884915845839387 ], [ -74.008530992104966, 40.882975897947809 ], [ -74.008778154200286, 40.882976058205045 ], [ -74.01788755692796, 40.887199152543879 ], [ -74.022370748236582, 40.889036769139921 ], [ -74.031194123046674, 40.893169332913587 ] ], [ [ -74.03747155302537, 40.770420748014487 ], [ -74.037435387102022, 40.774338666074492 ], [ -74.037315086018452, 40.774494115362231 ], [ -74.032708204161338, 40.776447561935662 ], [ -74.023887729707198, 40.776402074051347 ], [ -74.014962396497793, 40.780022904790243 ], [ -74.010546624861234, 40.785922991156511 ], [ -74.010343503709791, 40.786014051514506 ], [ -74.001576880010774, 40.786095351456574 ], [ -74.001438768967617, 40.785767232967231 ], [ -74.005535685011083, 40.783603926543044 ], [ -74.009057521015194, 40.777166062450426 ], [ -74.01030940313413, 40.774075578614706 ], [ -74.012182751120406, 40.771716870333115 ], [ -74.01554935548333, 40.768417283691441 ], [ -74.018121515012496, 40.760914658291064 ], [ -74.01830379187372, 40.760706122691836 ], [ -74.028387315111587, 40.754634897970043 ], [ -74.028771723979219, 40.754776063993802 ], [ -74.028767094362678, 40.758647468495525 ], [ -74.03747155302537, 40.770420748014487 ] ], [ [ -74.043590240800214, 40.775101057611842 ], [ -74.043590240800214, 40.775101057611842 ] ], [ [ -74.059726921598354, 40.788262077874613 ], [ -74.063936590078157, 40.794291664979731 ], [ -74.063598505382245, 40.794527356665853 ], [ -74.054574349392865, 40.790110899861858 ], [ -74.050198261396588, 40.784376492303345 ], [ -74.050526911614526, 40.784132373193145 ], [ -74.054896039926021, 40.786161998079102 ], [ -74.059726921598354, 40.788262077874613 ] ], [ [ -74.112025539522151, 40.815665487793623 ], [ -74.112025539522151, 40.815665487793623 ] ] ] } },
{ "type": "Feature", "properties": { "site_id": "citi_field", "site_name": "Citi Field", "travel_time_minutes": 30.0 }, "geometry": { "type": "MultiLineString", "coordinates": [ [ [ -73.788545084614242, 40.760252016527048 ], [ -73.788545084614242, 40.760252016527048 ] ], [ [ -73.930998329938291, 40.745960098674658 ], [ -73.930947370599227, 40.74627729445632 ], [ -73.904301711863198, 40.753872012701784 ], [ -73.886458817335949, 40.757707575012986 ], [ -73.868615248954697, 40.761333457935365 ], [ -73.859871224995373, 40.761028928186285 ], [ -73.837355583846843, 40.774522801742101 ], [ -73.837092656967201, 40.774538297705234 ], [ -73.832330949534722, 40.772500592857718 ], [ -73.828442368401852, 40.770659025538912 ], [ -73.801812093266676, 40.762594761366891 ], [ -73.801711518359028, 40.762318028165268 ], [ -73.81527423316065, 40.748816150265732 ], [ -73.824301387460849, 40.741074959184495 ], [ -73.824546882786365, 40.741021988186638 ], [ -73.842182608512147, 40.745058674644625 ], [ -73.860108258040455, 40.741327932057594 ], [ -73.877787980059637, 40.737950469227464 ], [ -73.877890186502356, 40.737948244146885 ], [ -73.904395581601335, 40.741800195166064 ], [ -73.917483104552204, 40.73990601488417 ], [ -73.917646673767138, 40.739927344672289 ], [ -73.92670536022699, 40.743942535240478 ], [ -73.930998329938291, 40.745960098674658 ] ], [ [ -73.842360075769705, 40.721901324317265 ], [ -73.842360075769705, 40.721901324317265 ] ], [ [ -73.845879193596758, 40.77448292923885 ], [ -73.845879193596758, 40.77448292923885 ] ], [ [ -73.864286807907305, 40.766332665930143 ], [ -73.864286807907305, 40.766332665930143 ] ], [ [ -73.86818979623763, 40.768905873547077 ], [ -73.86818979623763, 40.768905873547077 ] ], [ [ -73.912854202185954, 40.757578662246324 ], [ -73.912854202185954, 40.757578662246324 ] ], [ [ -73.93957890832128, 40.750067215338653 ], [ -73.93957890832128, 40.750067215338653 ] ] ] } },
{ "type": "Feature", "properties": { "site_id": "citi_field", "site_name": "Citi Field", "travel_time_minutes": 45.0 }, "geometry": { "type": "MultiLineString", "coordinates": [ [ [ -73.694042588502995, 40.811776756708056 ], [ -73.694042588502995, 40.811776756708056 ] ], [ [ -73.694388499876482, 40.808046657471301 ], [ -73.694388499876482, 40.808046657471301 ] ], [ [ -73.703677140416374, 40.796351468600633 ], [ -73.70361175791146, 40.79662315759473 ], [ -73.699123150520421, 40.798560061989612 ], [ -73.698769038292994, 40.798402683892668 ], [ -73.698789552243213, 40.79448138414628 ], [ -73.699146210001373, 40.794326561607164 ], [ -73.703677140416374, 40.796351468600633 ] ], [ [ -73.730420971547858, 40.784972430419081 ], [ -73.730680133872241, 40.789127930252725 ], [ -73.730546097057371, 40.78929763139142 ], [ -73.725917888182195, 40.790990535340079 ], [ -73.725578098412981, 40.790825039834914 ], [ -73.725663317622406, 40.787133239202596 ], [ -73.721350829713188, 40.784986302942357 ], [ -73.721370216877972, 40.784676215291135 ], [ -73.726175508340177, 40.78275161971748 ], [ -73.726424775561441, 40.782764956840126 ], [ -73.730420971547858, 40.784972430419081 ] ], [ [ -73.755249691513484, 40.770604336873483 ], [ -73.755189852658901, 40.770874367664277 ], [ -73.752840758116832, 40.771944786422168 ], [ -73.748447429777585, 40.773442340851389 ], [ -73.744142642834674, 40.77554802442156 ], [ -73.744477852365065, 40.778134838687109 ], [ -73.744166019513528, 40.778323146215229 ], [ -73.738273806357682, 40.776806942181786 ], [ -73.738121066438765, 40.776589166157251 ], [ -73.739241941439445, 40.773445642957796 ], [ -73.739309657669651, 40.769568208677541 ], [ -73.739432580877349, 40.769412670270334 ], [ -73.743799763121515, 40.767590104968427 ], [ -73.743856272662143, 40.763883212425377 ], [ -73.744229560362712, 40.763737967703321 ], [ -73.748037350249817, 40.765775268677721 ], [ -73.752164146313888, 40.768069163670951 ], [ -73.755249691513484, 40.770604336873483 ] ], [ [ -73.993218405143182, 40.750934312799572 ], [ -73.993238461402186, 40.751064699254215 ], [ -73.988697903144597, 40.764230008666807 ], [ -73.988590014749633, 40.764339062195774 ], [ -73.984079261699094, 40.766382894330278 ], [ -73.979382179606361, 40.768337779589729 ], [ -73.966244545127637, 40.769832083124044 ], [ -73.957344878642672, 40.770101666300668 ], [ -73.921660257309654, 40.765530920960927 ], [ -73.886255222281591, 40.773181774311908 ], [ -73.853881706155917, 40.792556172330421 ], [ -73.841173557022486, 40.796292975530392 ], [ -73.841003685308465, 40.796293221188087 ], [ -73.819080183841962, 40.789933026656193 ], [ -73.783691562570894, 40.781916742723091 ], [ -73.783586285850134, 40.781867229918291 ], [ -73.761594993227732, 40.764006097396781 ], [ -73.761545934605223, 40.763820165547124 ], [ -73.766238761652019, 40.754230674873966 ], [ -73.770777227809504, 40.752259207610209 ], [ -73.775080036858895, 40.750492915497468 ], [ -73.793185384650982, 40.738646908263682 ], [ -73.802632216576256, 40.707804302964128 ], [ -73.802700663369947, 40.703917752960173 ], [ -73.802918277681911, 40.699859953602648 ], [ -73.803043943193913, 40.699708116193328 ], [ -73.807501859948786, 40.697942646916921 ], [ -73.816252553784906, 40.698534729180501 ], [ -73.829755649181919, 40.700126738761448 ], [ -73.851602517966967, 40.710105715522502 ], [ -73.856105392604064, 40.712416304196488 ], [ -73.900330031504566, 40.724236804980698 ], [ -73.935587537742379, 40.736347057068485 ], [ -73.948917621357381, 40.738516984023491 ], [ -73.9887702311444, 40.748436357767424 ], [ -73.993218405143182, 40.750934312799572 ] ], [ [ -73.83850018974789, 40.700138467698928 ], [ -73.83850018974789, 40.700138467698928 ] ], [ [ -73.984125606298832, 40.742659944661916 ], [ -73.984125606298832, 40.742659944661916 ] ], [ [ -73.992915397838303, 40.742619261481913 ], [ -73.992915397838303, 40.742619261481913 ] ] ] } },
{ "type": "Feature", "properties": { "site_id": "citi_field", "site_name": "Citi Field", "travel_time_minutes": 60.0 }, "geometry": { "type": "MultiLineString", "coordinates": [ [ [ -73.689852977921191, 40.833326149333942 ], [ -73.68951725239755, 40.833418124667247 ], [ -73.68049849179225, 40.829597445144771 ], [ -73.680500176945216, 40.829282642354755 ], [ -73.684981140527242, 40.827405689742349 ], [ -73.689457545113513, 40.825412091408509 ], [ -73.689696154333376, 40.825411516353299 ], [ -73.694097547700551, 40.827343311771784 ], [ -73.694097541126979, 40.827655291231004 ], [ -73.690032186360853, 40.829439207883482 ], [ -73.689852977921191, 40.833326149333942 ] ], [ [ -73.952321571684934, 40.810875316017473 ], [ -73.952109611510622, 40.810903552643971 ], [ -73.934390870449363, 40.806775541577466 ], [ -73.934290395145766, 40.806728885358339 ], [ -73.899415174229574, 40.779455080272989 ], [ -73.853784050084215, 40.794042786456743 ], [ -73.848733226510163, 40.795492148562808 ], [ -73.846196520933418, 40.796039336926817 ], [ -73.841110238917125, 40.796304333747109 ], [ -73.816684378851605, 40.798497116928381 ], [ -73.812098152150824, 40.798116981425217 ], [ -73.779010050052975, 40.795224388409878 ], [ -73.734941182698364, 40.795318693250756 ], [ -73.7039155687403, 40.814131932955945 ], [ -73.694080171826414, 40.816118996055444 ], [ -73.69388631663719, 40.816093749732957 ], [ -73.685240906780052, 40.811624539689213 ], [ -73.685137227658799, 40.811472416357688 ], [ -73.685397767489704, 40.800270417498425 ], [ -73.689988410606574, 40.794297618746995 ], [ -73.694678897292405, 40.788401882692682 ], [ -73.735072607900577, 40.763842866485483 ], [ -73.744367647980596, 40.736225138534849 ], [ -73.744398824497281, 40.736171259605783 ], [ -73.780721380280738, 40.693851252317756 ], [ -73.789772222927766, 40.682096608224533 ], [ -73.794657940703544, 40.680107753115614 ], [ -73.830190045080428, 40.680438450898606 ], [ -73.84746627537541, 40.684934154490961 ], [ -73.85215352537756, 40.686704626338532 ], [ -73.896495380369288, 40.699239469421649 ], [ -73.954022659879271, 40.6894656741297 ], [ -73.954135756840046, 40.689467513074973 ], [ -74.016908106642504, 40.702295278268771 ], [ -74.017081995810386, 40.702489832513422 ], [ -74.011034834655177, 40.742583946311498 ], [ -74.007112222909115, 40.759232983408076 ], [ -74.001379998616741, 40.767017843093541 ], [ -73.983870023902242, 40.785669572346976 ], [ -73.974851787594801, 40.79348055178847 ], [ -73.952321571684934, 40.810875316017473 ] ], [ [ -73.704557836513359, 40.72624871114752 ], [ -73.704557836513359, 40.72624871114752 ] ], [ [ -73.709088038014514, 40.724423519860665 ], [ -73.709088038014514, 40.724423519860665 ] ], [ [ -73.740097499700866, 40.726684978929946 ], [ -73.740097499700866, 40.726684978929946 ] ], [ [ -73.744555188760472, 40.728580751791711 ], [ -73.744555188760472, 40.728580751791711 ] ], [ [ -73.785528733135848, 40.672482867620332 ], [ -73.785528733135848, 40.672482867620332 ] ], [ [ -73.78945302217528, 40.674634775024913 ], [ -73.78945302217528, 40.674634775024913 ] ], [ [ -73.867492349812707, 40.834864319152508 ], [ -73.867338018971907, 40.835180355507035 ], [ -73.858369594684589, 40.83522075529357 ], [ -73.853916353878063, 40.83326754613153 ], [ -73.845107731878116, 40.833251857471225 ], [ -73.840641315157271, 40.831437535509657 ], [ -73.835628585445463, 40.82875257706128 ], [ -73.831656423424761, 40.826764945100123 ], [ -73.831550497116368, 40.826600013968097 ], [ -73.831919209332199, 40.823127914881972 ], [ -73.832038219835468, 40.822985856442358 ], [ -73.836311512842201, 40.821136660649515 ], [ -73.836666001854027, 40.821296909616457 ], [ -73.836568051922683, 40.824909825783699 ], [ -73.845236855675822, 40.825108923782629 ], [ -73.849899335876884, 40.827054836154105 ], [ -73.854176374288969, 40.82908739811176 ], [ -73.862954270259152, 40.8331096231638 ], [ -73.867492349812707, 40.834864319152508 ] ], [ [ -73.930001942644665, 40.820258154881522 ], [ -73.929641712198134, 40.820370529711745 ], [ -73.925285606639974, 40.81823252483516 ], [ -73.925177173604624, 40.818078955111027 ], [ -73.925304101146438, 40.810340155714272 ], [ -73.925665759892652, 40.810189098576281 ], [ -73.930036053870339, 40.81223889383331 ], [ -73.930148462246962, 40.81238553127799 ], [ -73.93034897688068, 40.816498131053145 ], [ -73.930001942644665, 40.820258154881522 ] ], [ [ -73.967204003728327, 40.687891913905879 ], [ -73.967204003728327, 40.687891913905879 ] ], [ [ -74.023697882240114, 40.768453719688196 ], [ -74.023697882240114, 40.768453719688196 ] ], [ [ -74.028128071531995, 40.770380228120437 ], [ -74.028128071531995, 40.770380228120437 ] ], [ [ -74.028307910274933, 40.758631928783821 ], [ -74.028307910274933, 40.758631928783821 ] ] ] } }
]
}
