{
"type": "FeatureCollection",
"name": "houston_isochrones",
"crs": { "type": "name", "properties": { "name": "urn:ogc:def:crs:OGC:1.3:CRS84" } },
"features": [
{ "type": "Feature", "properties": { "site_label": "0x5g6ojM7O", "site_name": "Shell Energy Stadium", "travel_time_minutes": 30.0 }, "geometry": { "type": "MultiLineString", "coordinates": [ [ [ -95.37508603111749, 29.764124984142487 ], [ -95.3749869986394, 29.764270690629754 ], [ -95.371222001436379, 29.766270033268285 ], [ -95.359876451276278, 29.776173825430138 ], [ -95.355935860334341, 29.778294740516845 ], [ -95.355687867577288, 29.778274154711163 ], [ -95.343844535436276, 29.768814160563913 ], [ -95.327985321411958, 29.761060967238482 ], [ -95.327908271800538, 29.760995181779364 ], [ -95.320244603646216, 29.749645963569108 ], [ -95.316264233943585, 29.747917225123427 ], [ -95.304623699991524, 29.746023339923862 ], [ -95.304508580880452, 29.745967295725666 ], [ -95.296371781637518, 29.738149586326692 ], [ -95.296318360606818, 29.738019077302745 ], [ -95.296556068945577, 29.733966577226333 ], [ -95.296680443476788, 29.733810225312208 ], [ -95.300902217622522, 29.732229108017222 ], [ -95.308253304576667, 29.731921809262602 ], [ -95.312018932701903, 29.73368748961418 ], [ -95.327577648767232, 29.733300833871183 ], [ -95.331461929972832, 29.731079904881764 ], [ -95.335236505071961, 29.729532977602325 ], [ -95.346554772292123, 29.719560649405864 ], [ -95.350659804574704, 29.717095997576166 ], [ -95.354222379084305, 29.715462861467216 ], [ -95.354524987282446, 29.715617904678201 ], [ -95.354861545951067, 29.727172919352025 ], [ -95.366633154467777, 29.736803684517554 ], [ -95.374585798863635, 29.744431301007278 ], [ -95.374639425572099, 29.744544991389873 ], [ -95.375019127734461, 29.752293707205713 ], [ -95.37508603111749, 29.764124984142487 ] ], [ [ -95.328179160991596, 29.765402007710172 ], [ -95.328179160991596, 29.765402007710172 ] ], [ [ -95.338683705657417, 29.715724447508087 ], [ -95.338683705657417, 29.715724447508087 ] ], [ [ -95.405633942358335, 29.763519527360216 ], [ -95.405633942358335, 29.763519527360216 ] ], [ [ -95.409506503573184, 29.761510263548512 ], [ -95.409506503573184, 29.761510263548512 ] ], [ [ -95.417261743606787, 29.76126334509495 ], [ -95.417261743606787, 29.76126334509495 ] ] ] } },
{ "type": "Feature", "properties": { "site_label": "0x5g6ojM7O", "site_name": "Shell Energy Stadium", "travel_time_minutes": 45.0 }, "geometry": { "type": "MultiLineString", "coordinates": [ [ [ -95.273522456893787, 29.742183574290355 ], [ -95.273295668325034, 29.742478739624584 ], [ -95.269413257686381, 29.740973885742044 ], [ -95.265693954477854, 29.738687482584297 ], [ -95.265915576582316, 29.738383376520705 ], [ -95.273522456893787, 29.742183574290355 ] ], [ [ -95.460563248465277, 29.769763545345231 ], [ -95.456641485584811, 29.772545275104022 ], [ -95.441246761138586, 29.776794655572775 ], [ -95.414666702029677, 29.798783888537866 ], [ -95.411132968787612, 29.812431335888899 ], [ -95.410871826539676, 29.812564394823092 ], [ -95.375759974945836, 29.803383752702828 ], [ -95.372463644312703, 29.817397251191682 ], [ -95.37225592411454, 29.817541334904558 ], [ -95.348972582169708, 29.817040936301098 ], [ -95.329539568627425, 29.816203272653922 ], [ -95.317819107379648, 29.813827998634554 ], [ -95.317666532303846, 29.813700103308388 ], [ -95.313482290874973, 29.800420617222649 ], [ -95.297330438425462, 29.773373148181886 ], [ -95.285335070994648, 29.755727417741035 ], [ -95.284818560494713, 29.752015846974828 ], [ -95.284788077456227, 29.732486048566585 ], [ -95.272780202481442, 29.714837707815079 ], [ -95.272830733254594, 29.71460339503615 ], [ -95.295711623725481, 29.699007917395729 ], [ -95.295777270225344, 29.698977884181019 ], [ -95.326537924840238, 29.690596600844863 ], [ -95.326636344952718, 29.690591294830924 ], [ -95.338259587836248, 29.692430044950513 ], [ -95.36529419471897, 29.682179841446708 ], [ -95.365503565965113, 29.682203064909817 ], [ -95.389069449656404, 29.698250543315687 ], [ -95.400727555129919, 29.706916750013491 ], [ -95.400800189511273, 29.707050336971442 ], [ -95.400899443576193, 29.711202459836311 ], [ -95.401087022539954, 29.714750907854718 ], [ -95.417177269053099, 29.741610406883684 ], [ -95.421294131511303, 29.751668979725462 ], [ -95.429394477316535, 29.759085005835594 ], [ -95.459746695979774, 29.750683836753211 ], [ -95.466925276072473, 29.738806652736866 ], [ -95.467313306642524, 29.738869213280868 ], [ -95.467881683226693, 29.742992672641304 ], [ -95.467994998933477, 29.750653671564649 ], [ -95.467902901605513, 29.754465505997889 ], [ -95.467717874641764, 29.758596159303387 ], [ -95.464236754304153, 29.764149017745993 ], [ -95.460563248465277, 29.769763545345231 ] ], [ [ -95.27774371071034, 29.748219627777985 ], [ -95.27774371071034, 29.748219627777985 ] ], [ [ -95.456643566763361, 29.780041904356523 ], [ -95.456977276483286, 29.780183572107486 ], [ -95.456995584618724, 29.784139071615687 ], [ -95.456898031427826, 29.784292961880958 ], [ -95.453248328468661, 29.786273465052492 ], [ -95.453047358926668, 29.786281959023015 ], [ -95.448945253518403, 29.784510556495217 ], [ -95.448972901959465, 29.784177402179118 ], [ -95.453542199106124, 29.782877811858718 ], [ -95.456643566763361, 29.780041904356523 ] ] ] } },
{ "type": "Feature", "properties": { "site_label": "0x5g6ojM7O", "site_name": "Shell Energy Stadium", "travel_time_minutes": 60.0 }, "geometry": { "type": "MultiLineString", "coordinates": [ [ [ -95.231411389574745, 29.772367620572727 ], [ -95.231411389574745, 29.772367620572727 ] ], [ [ -95.251167722181521, 29.77393281291215 ], [ -95.251136620061359, 29.774217968449801 ], [ -95.247304216945011, 29.776308071770693 ], [ -95.247087401635127, 29.776309370693212 ], [ -95.243159261429227, 29.774231587395519 ], [ -95.23922945791152, 29.771865984109077 ], [ -95.239266851386674, 29.77155116230735 ], [ -95.243107146471758, 29.770144464873734 ], [ -95.243286956766639, 29.770152778536147 ], [ -95.251167722181521, 29.77393281291215 ] ], [ [ -95.41252050582635, 29.870884860122391 ], [ -95.412174297267427, 29.870974510531731 ], [ -95.380584260261472, 29.844185567269964 ], [ -95.369098969324369, 29.84636336932579 ], [ -95.368952194012564, 29.846343650203231 ], [ -95.342686061346797, 29.833230579265958 ], [ -95.31903355779815, 29.84143292716535 ], [ -95.318774847773653, 29.841350718897736 ], [ -95.298342439434649, 29.80820298108782 ], [ -95.294441549495033, 29.802672509614286 ], [ -95.289876743705747, 29.781277234562502 ], [ -95.285609336097266, 29.772276860859201 ], [ -95.254070728615247, 29.750759697976616 ], [ -95.25013500006861, 29.743397136462033 ], [ -95.246279717231076, 29.733100429874224 ], [ -95.246129419585003, 29.730544230222133 ], [ -95.245602847163084, 29.717023427964197 ], [ -95.245704177241564, 29.716862028175616 ], [ -95.257407291056197, 29.71081824652801 ], [ -95.276261078811302, 29.697385766544173 ], [ -95.287186159805444, 29.667573356042883 ], [ -95.287568102271763, 29.663931744518962 ], [ -95.287891680872221, 29.663800060635531 ], [ -95.291349085514412, 29.665898498337246 ], [ -95.333499540064309, 29.65604218777229 ], [ -95.337207712823172, 29.653046576896649 ], [ -95.336994649243422, 29.64564363331711 ], [ -95.337407530158856, 29.645633900978197 ], [ -95.337613187341262, 29.65271900182303 ], [ -95.364011658493865, 29.63138519666105 ], [ -95.367150117168833, 29.621615653765115 ], [ -95.367547490889507, 29.621615060201574 ], [ -95.371971614461458, 29.635206952301449 ], [ -95.372057966054953, 29.642301978723999 ], [ -95.403922658483964, 29.66971974627543 ], [ -95.411585181848238, 29.673397308969573 ], [ -95.411682958882594, 29.673501866738146 ], [ -95.419987557065767, 29.696832194587707 ], [ -95.451321923837426, 29.715645480539152 ], [ -95.470314502361873, 29.717259165181801 ], [ -95.470486130950761, 29.717371193995611 ], [ -95.474970045414139, 29.72706858669747 ], [ -95.478958928586266, 29.736896987451786 ], [ -95.479741477156239, 29.748482632297755 ], [ -95.492115995000219, 29.785463338778676 ], [ -95.492091272759453, 29.78561167155674 ], [ -95.473131402432728, 29.811245094685979 ], [ -95.472856975655048, 29.811304895490768 ], [ -95.468860963924101, 29.809364403442178 ], [ -95.465093093104613, 29.807651522270795 ], [ -95.422877140003948, 29.81785255527733 ], [ -95.41935637308076, 29.831602577369637 ], [ -95.415812083343056, 29.845324980656127 ], [ -95.416066767844498, 29.853129333435117 ], [ -95.41252050582635, 29.870884860122391 ] ], [ [ -95.282581596331568, 29.804619715158704 ], [ -95.282581596331568, 29.804619715158704 ] ], [ [ -95.286391097561534, 29.802726720544587 ], [ -95.286391097561534, 29.802726720544587 ] ], [ [ -95.371716534264479, 29.616029515046925 ], [ -95.371716534264479, 29.616029515046925 ] ], [ [ -95.399435693397464, 29.663975570761966 ], [ -95.399435693397464, 29.663975570761966 ] ], [ [ -95.400598232530754, 29.660753763846497 ], [ -95.400598232530754, 29.660753763846497 ] ], [ [ -95.410054436740396, 29.931510298197686 ], [ -95.409659219376152, 29.931437101287198 ], [ -95.409549535580425, 29.923606300218534 ], [ -95.40996365930495, 29.923601562460387 ], [ -95.410054436740396, 29.931510298197686 ] ], [ [ -95.427340849164679, 29.696617308492765 ], [ -95.427340849164679, 29.696617308492765 ] ], [ [ -95.46645150160829, 29.711582969435426 ], [ -95.46645150160829, 29.711582969435426 ] ], [ [ -95.473031140872067, 29.822823497394396 ], [ -95.473031140872067, 29.822823497394396 ] ], [ [ -95.472936984781427, 29.818887292108126 ], [ -95.472936984781427, 29.818887292108126 ] ], [ [ -95.497272319551257, 29.722584421205255 ], [ -95.497272319551257, 29.722584421205255 ] ], [ [ -95.497612672995515, 29.718851317522809 ], [ -95.497612672995515, 29.718851317522809 ] ], [ [ -95.546220684168972, 29.788224086914369 ], [ -95.545934340066154, 29.788344768264036 ], [ -95.538143529189469, 29.785251463872658 ], [ -95.538045087464212, 29.785005192799844 ], [ -95.541839947817195, 29.778529899638347 ], [ -95.541947980947057, 29.774672266538808 ], [ -95.541516565794907, 29.771050077488454 ], [ -95.54145985314463, 29.76695094999225 ], [ -95.537494184953673, 29.761222496790872 ], [ -95.533616318909097, 29.759263598570701 ], [ -95.533757972854161, 29.758930211258097 ], [ -95.54499535323707, 29.760766909190995 ], [ -95.553856879678136, 29.764513335575248 ], [ -95.557300523053158, 29.766372339413998 ], [ -95.557312857873228, 29.766671851172454 ], [ -95.553504587342815, 29.769074841605299 ], [ -95.549806710339084, 29.774786963365255 ], [ -95.546192022598831, 29.783932198510332 ], [ -95.546220684168972, 29.788224086914369 ] ], [ [ -95.560974483335897, 29.772618820953543 ], [ -95.560974483335897, 29.772618820953543 ] ] ] } }
]
}
