{
"type": "FeatureCollection",
"name": "kansas_city_isochrones",
"crs": { "type": "name", "properties": { "name": "urn:ogc:def:crs:OGC:1.3:CRS84" } },
"features": [
{ "type": "Feature", "properties": { "site_label": "old", "site_name": "Children's Mercy Park", "travel_time_minutes": 30.0 }, "geometry": { "type": "MultiLineString", "coordinates": [ [ [ -94.836830383737208, 39.129467789136825 ], [ -94.836919601823681, 39.13315190224084 ], [ -94.836790720478987, 39.133316856600707 ], [ -94.831728412075407, 39.1352633612088 ], [ -94.831515835152615, 39.135260237427502 ], [ -94.827973742793532, 39.133766318677914 ], [ -94.821335630241435, 39.132616547478086 ], [ -94.815179201786606, 39.131720658720724 ], [ -94.805956671682736, 39.131841252758633 ], [ -94.802231420952637, 39.129950543109196 ], [ -94.802128361354605, 39.129793084526085 ], [ -94.802337648532045, 39.126836234863077 ], [ -94.806038680369241, 39.12362011475247 ], [ -94.805748803228468, 39.120138438349727 ], [ -94.802778388332229, 39.113978558596841 ], [ -94.802817808258027, 39.113799308304479 ], [ -94.806923611548939, 39.109991314406891 ], [ -94.807112394678839, 39.109927251946047 ], [ -94.816337618506012, 39.110290789002434 ], [ -94.823861134368229, 39.108677881320503 ], [ -94.831382155481293, 39.109667424095626 ], [ -94.836335974629733, 39.113581620668917 ], [ -94.840687534945346, 39.11546315988128 ], [ -94.844283199968288, 39.117361533608182 ], [ -94.845577249516779, 39.12063740218121 ], [ -94.842530847307245, 39.125769640283266 ], [ -94.836830383737208, 39.129467789136825 ] ] ] } },
{ "type": "Feature", "properties": { "site_label": "old", "site_name": "Children's Mercy Park", "travel_time_minutes": 45.0 }, "geometry": { "type": "MultiLineString", "coordinates": [ [ [ -94.858063270341376, 39.115925602026415 ], [ -94.858083509398085, 39.116449270305125 ], [ -94.853806778442078, 39.11741357303076 ], [ -94.853967892454747, 39.125011577815584 ], [ -94.857739493854012, 39.129565832296812 ], [ -94.857617324867135, 39.129834668208261 ], [ -94.851331945577115, 39.131443327587867 ], [ -94.845607969863337, 39.137017042871335 ], [ -94.841294417179427, 39.139275865823713 ], [ -94.835890651294008, 39.141653503577963 ], [ -94.832802026733944, 39.146971350828778 ], [ -94.832475828035442, 39.147053281577492 ], [ -94.828982822595762, 39.145488678280515 ], [ -94.828872694529338, 39.145292146384719 ], [ -94.829949181983068, 39.141644326966308 ], [ -94.822536058888261, 39.137847974242113 ], [ -94.818047026925669, 39.138218725955703 ], [ -94.81482573161432, 39.139168154683361 ], [ -94.810227796866755, 39.141771100686697 ], [ -94.808400829786564, 39.147355780201124 ], [ -94.807955471057554, 39.147364364338621 ], [ -94.806385078851619, 39.143396242668423 ], [ -94.799820303314235, 39.138107170923575 ], [ -94.794821769954083, 39.135310049564573 ], [ -94.789510965201274, 39.132100343272597 ], [ -94.788248271055437, 39.128026277562803 ], [ -94.788276972494913, 39.120323308626887 ], [ -94.783595819504825, 39.117406502057541 ], [ -94.783578945138245, 39.117136706184354 ], [ -94.788863645198958, 39.113127913430048 ], [ -94.790066000437932, 39.113052868264582 ], [ -94.797535065142725, 39.110143237426094 ], [ -94.797521145289068, 39.106430439389356 ], [ -94.797749257214619, 39.106249237406814 ], [ -94.807190595217648, 39.106173932175892 ], [ -94.816394496309357, 39.110278597498962 ], [ -94.823812283404408, 39.108688355887821 ], [ -94.831453424941458, 39.103674193836817 ], [ -94.835760377962529, 39.101537479157848 ], [ -94.836094458344164, 39.101613998439191 ], [ -94.840624621494186, 39.10926131503011 ], [ -94.844850574366447, 39.108819479447853 ], [ -94.848996255664161, 39.108621833430739 ], [ -94.853470444745327, 39.109288632041448 ], [ -94.853658224790834, 39.109462269743702 ], [ -94.853748810618725, 39.11328142857581 ], [ -94.858063270341376, 39.115925602026415 ] ], [ [ -94.807251425779299, 39.098089205720235 ], [ -94.807251425779299, 39.098089205720235 ] ], [ [ -94.809652612881294, 39.101739810695065 ], [ -94.809652612881294, 39.101739810695065 ] ], [ [ -94.823714373188352, 39.143071241485366 ], [ -94.823714373188352, 39.143071241485366 ] ] ] } },
{ "type": "Feature", "properties": { "site_label": "old", "site_name": "Children's Mercy Park", "travel_time_minutes": 60.0 }, "geometry": { "type": "MultiLineString", "coordinates": [ [ [ -94.866948008248997, 39.128443142564215 ], [ -94.8712882115138, 39.128460928366614 ], [ -94.871456166290614, 39.128763990621728 ], [ -94.865164816644622, 39.13401727510935 ], [ -94.859005759770682, 39.13925775398107 ], [ -94.854822274894516, 39.140834584068088 ], [ -94.850146845058447, 39.143272559223171 ], [ -94.848331867949184, 39.146482603714482 ], [ -94.845954234199894, 39.148647285212846 ], [ -94.845765059859147, 39.148709657157895 ], [ -94.836832211878246, 39.148295557297914 ], [ -94.833827242017918, 39.154083231844865 ], [ -94.828793727128527, 39.157834628344972 ], [ -94.828501756354441, 39.157851852451067 ], [ -94.824102051240544, 39.155461147617636 ], [ -94.822919160687917, 39.154476257548545 ], [ -94.826509450585704, 39.150851896230051 ], [ -94.826668395026999, 39.148632108382472 ], [ -94.826487962669376, 39.147150249741365 ], [ -94.819821183723249, 39.143354919871364 ], [ -94.817246994931395, 39.147897244855415 ], [ -94.812376566540124, 39.1506195918328 ], [ -94.809780571026977, 39.15334093634447 ], [ -94.807033354876481, 39.155038681851934 ], [ -94.806704054813153, 39.155004663420648 ], [ -94.802221169177344, 39.150300290127014 ], [ -94.798200855671737, 39.15139615945899 ], [ -94.797906401028598, 39.151165663655952 ], [ -94.799191595321361, 39.148355066916963 ], [ -94.793764619100472, 39.143486269585097 ], [ -94.789590948432902, 39.143818843059847 ], [ -94.789336762921351, 39.143654036538827 ], [ -94.788921540193371, 39.13963117746308 ], [ -94.783210256597727, 39.137177201366143 ], [ -94.780267134008525, 39.135983225816133 ], [ -94.77550170299466, 39.134174439376729 ], [ -94.771298112899544, 39.128565932009998 ], [ -94.771370786064082, 39.128324558971137 ], [ -94.775588989320525, 39.126163658975486 ], [ -94.778860596975122, 39.120416602372671 ], [ -94.775967653126003, 39.118247030664584 ], [ -94.771156323799914, 39.11676861035852 ], [ -94.771040612547168, 39.116511290293978 ], [ -94.775185823787766, 39.110886097100504 ], [ -94.778929270757601, 39.108527626336041 ], [ -94.779261108899348, 39.108562096120366 ], [ -94.784560365692911, 39.114236186334786 ], [ -94.788951296166729, 39.113086214353352 ], [ -94.790066000437932, 39.113052868264582 ], [ -94.797535065142725, 39.110143237426094 ], [ -94.797521642176235, 39.10649778168176 ], [ -94.792437808173162, 39.101991669924402 ], [ -94.788151940830602, 39.101970676347591 ], [ -94.787982637467991, 39.101669003569278 ], [ -94.791136418164157, 39.098981411145772 ], [ -94.79618931474117, 39.095893917352569 ], [ -94.797573305261068, 39.096402704838681 ], [ -94.799082270918888, 39.097353666708628 ], [ -94.806682420886887, 39.096412421712095 ], [ -94.806638407351386, 39.088753045173604 ], [ -94.807060496069411, 39.08864995271508 ], [ -94.808550686856904, 39.090349617179406 ], [ -94.814495428082594, 39.096363882731488 ], [ -94.821763511186347, 39.097490684158622 ], [ -94.823113743667136, 39.099007919548527 ], [ -94.82976192971347, 39.100758106328954 ], [ -94.834611627029915, 39.096054169813655 ], [ -94.834067392235895, 39.092220008377126 ], [ -94.834735778678365, 39.090202742362926 ], [ -94.835132925749804, 39.090129821875045 ], [ -94.839772031116794, 39.094240944555906 ], [ -94.844615255132112, 39.097955697908723 ], [ -94.849563617171043, 39.100761741062726 ], [ -94.853253512274975, 39.101449494571064 ], [ -94.857510769016983, 39.101444824435141 ], [ -94.857694572060851, 39.101734665421077 ], [ -94.853859273127412, 39.105629980325645 ], [ -94.853658351264684, 39.109467609440372 ], [ -94.853748810615059, 39.113281428573572 ], [ -94.858000216344664, 39.115886772921591 ], [ -94.862177804700963, 39.11587878040725 ], [ -94.867075534314225, 39.114916497096154 ], [ -94.871040264286378, 39.115831361033059 ], [ -94.87098964467306, 39.116183395999101 ], [ -94.866822977981599, 39.116420352851222 ], [ -94.859870143030562, 39.125791877136351 ], [ -94.866948008248997, 39.128443142564215 ] ] ] } },
{ "type": "Feature", "properties": { "site_label": "new", "site_name": "CPKC Stadium", "travel_time_minutes": 30.0 }, "geometry": { "type": "MultiLineString", "coordinates": [ [ [ -94.58902151831029, 39.103537475243769 ], [ -94.589639966472745, 39.111152112875196 ], [ -94.589514524129726, 39.111323383637867 ], [ -94.579883708682317, 39.115165135336703 ], [ -94.566839159640566, 39.120669347378822 ], [ -94.562898110278667, 39.122201252621096 ], [ -94.548753892819988, 39.1282857042765 ], [ -94.545239664506539, 39.130056493655879 ], [ -94.544882793202547, 39.129898787838243 ], [ -94.54516801361909, 39.123659887987849 ], [ -94.545885326614098, 39.119580011326988 ], [ -94.546027843470668, 39.119437429025346 ], [ -94.549995688303554, 39.118193328947655 ], [ -94.558529280808784, 39.117115464503897 ], [ -94.567012587811959, 39.109704597679226 ], [ -94.566811619333535, 39.105870251964426 ], [ -94.566924020674534, 39.105708242027774 ], [ -94.584160039106521, 39.097661967981196 ], [ -94.584476908622122, 39.097722583067224 ], [ -94.58902151831029, 39.103537475243769 ] ] ] } },
{ "type": "Feature", "properties": { "site_label": "new", "site_name": "CPKC Stadium", "travel_time_minutes": 45.0 }, "geometry": { "type": "MultiLineString", "coordinates": [ [ [ -94.60616580443147, 39.099304796423262 ], [ -94.606212996191005, 39.099481042959624 ], [ -94.602096306798231, 39.109191499340618 ], [ -94.58963391193943, 39.11974291725079 ], [ -94.589403099051452, 39.119794796970069 ], [ -94.575317073142784, 39.116815126617169 ], [ -94.570941506807159, 39.118713819541597 ], [ -94.566849749986844, 39.120664593593929 ], [ -94.562895339128247, 39.122202329631769 ], [ -94.553283302536983, 39.126079654147297 ], [ -94.548782872751019, 39.12827150191027 ], [ -94.537037289467719, 39.137967564235844 ], [ -94.536682028266853, 39.137950048601283 ], [ -94.532786108494847, 39.13373758539062 ], [ -94.532367530225571, 39.127058184135862 ], [ -94.532793908385912, 39.123785175607111 ], [ -94.545442628851404, 39.115731480927522 ], [ -94.549538919304155, 39.106018731259013 ], [ -94.549449859358461, 39.102373322056891 ], [ -94.549158407404221, 39.098291409377921 ], [ -94.549251961291944, 39.094394777063634 ], [ -94.54924787586458, 39.090505847613301 ], [ -94.549588662136699, 39.090347019210576 ], [ -94.553955511580767, 39.09217800849445 ], [ -94.570368164789471, 39.091924365779988 ], [ -94.575067905821385, 39.082294843578062 ], [ -94.579338686254573, 39.076376424046039 ], [ -94.583251199686387, 39.062687716252512 ], [ -94.587493821746321, 39.056712561627243 ], [ -94.587926212522248, 39.056785028674163 ], [ -94.588348825220635, 39.060736827584279 ], [ -94.588108528582936, 39.064621908672898 ], [ -94.588277639664639, 39.068489230640573 ], [ -94.592822378509609, 39.082043130501233 ], [ -94.592922813901936, 39.085962475658398 ], [ -94.60175797862199, 39.097446084382938 ], [ -94.60616580443147, 39.099304796423262 ] ], [ [ -94.553244635805257, 39.076691602576716 ], [ -94.553244635805257, 39.076691602576716 ] ], [ [ -94.570697623240591, 39.076507135641272 ], [ -94.570697623240591, 39.076507135641272 ] ], [ [ -94.584474631224538, 39.141325126708146 ], [ -94.580753260468313, 39.14698029858635 ], [ -94.580415160747322, 39.147045869746037 ], [ -94.576463456183546, 39.144902965400206 ], [ -94.576391971279634, 39.144669654301325 ], [ -94.580378022371079, 39.138906216334107 ], [ -94.576570233965782, 39.137116366291949 ], [ -94.5764596396982, 39.136980534901021 ], [ -94.57594561810248, 39.133087952206481 ], [ -94.572969494639395, 39.126931490243855 ], [ -94.57319714484467, 39.126688018035679 ], [ -94.580468135984063, 39.126960939027818 ], [ -94.58392674765652, 39.124977693271433 ], [ -94.584295218423179, 39.125124962088769 ], [ -94.584234642361835, 39.129057453407931 ], [ -94.58468583041676, 39.134218759773248 ], [ -94.583938638849759, 39.13616734306185 ], [ -94.584474631224538, 39.141325126708146 ] ], [ [ -94.577137841490497, 39.168187383610267 ], [ -94.576677926142395, 39.168157430807391 ], [ -94.576720062181082, 39.156457877357589 ], [ -94.577182880843935, 39.156454189750164 ], [ -94.577294523720269, 39.160363964703741 ], [ -94.577137841490497, 39.168187383610267 ] ], [ [ -94.579419776648166, 39.121339855459794 ], [ -94.579419776648166, 39.121339855459794 ] ], [ [ -94.587302596760637, 39.048925265085991 ], [ -94.587302596760637, 39.048925265085991 ] ], [ [ -94.597941984267791, 39.114446290095678 ], [ -94.597941984267791, 39.114446290095678 ] ] ] } },
{ "type": "Feature", "properties": { "site_label": "new", "site_name": "CPKC Stadium", "travel_time_minutes": 60.0 }, "geometry": { "type": "MultiLineString", "coordinates": [ [ [ -94.483684193490177, 39.061951812401126 ], [ -94.483773719070527, 39.062077208805505 ], [ -94.484268731584081, 39.065988807596469 ], [ -94.483906768487728, 39.066154462651362 ], [ -94.48056681532367, 39.064344478917668 ], [ -94.474794435330296, 39.062329461492084 ], [ -94.470794094987269, 39.060313067404856 ], [ -94.470805160383307, 39.060005284834439 ], [ -94.474985854415877, 39.058145489013555 ], [ -94.475219428177098, 39.058147535650654 ], [ -94.478830739326895, 39.059839041026812 ], [ -94.483684193490177, 39.061951812401126 ] ], [ [ -94.523299024890065, 39.075243815608495 ], [ -94.522945658512754, 39.075390193744326 ], [ -94.518592912938914, 39.07327389120934 ], [ -94.514699854019895, 39.071468274567451 ], [ -94.50985605480696, 39.069376094178168 ], [ -94.506042590155772, 39.071828111334177 ], [ -94.50336002680767, 39.073376139952934 ], [ -94.501635240012348, 39.074047083831957 ], [ -94.501342102659848, 39.07398801182579 ], [ -94.493441014409314, 39.065057398833552 ], [ -94.493766809013664, 39.06480911732573 ], [ -94.497733064425034, 39.067165701764409 ], [ -94.504280226013876, 39.067963601592162 ], [ -94.511676857070526, 39.066127500898268 ], [ -94.518044194415467, 39.065762975401519 ], [ -94.522827612349829, 39.067005635347506 ], [ -94.527407705051331, 39.068997331114566 ], [ -94.52741861331296, 39.069307014905363 ], [ -94.523237159768925, 39.071367390253464 ], [ -94.523299024890065, 39.075243815608495 ] ], [ [ -94.578976136177843, 39.238241562685069 ], [ -94.578875600248097, 39.238366131627359 ], [ -94.574574195520299, 39.240605336436914 ], [ -94.574213863731231, 39.240464423606667 ], [ -94.573979451500932, 39.236746067329207 ], [ -94.569537219627705, 39.210870043994042 ], [ -94.56913085784565, 39.207378723921927 ], [ -94.568918880909749, 39.200343923036257 ], [ -94.568871789385568, 39.195573943931954 ], [ -94.564044558154563, 39.174391561258965 ], [ -94.563973582198358, 39.170361499865102 ], [ -94.530468352002103, 39.141506303101174 ], [ -94.519660110055611, 39.13551459230829 ], [ -94.515363592452047, 39.130582682388855 ], [ -94.506423930447994, 39.114546865533008 ], [ -94.506830506367137, 39.110883590748848 ], [ -94.510618363558947, 39.108432044345115 ], [ -94.540213040982408, 39.07487673090727 ], [ -94.54472322639063, 39.065180398111508 ], [ -94.548439614590819, 39.055292233128498 ], [ -94.552670800494425, 39.045536274897856 ], [ -94.556519388425542, 39.043377855023571 ], [ -94.582648552879192, 39.03136568177613 ], [ -94.582873651876781, 39.031361505429842 ], [ -94.591658337066576, 39.034973597703242 ], [ -94.596456296172576, 39.041072828356917 ], [ -94.605930935217046, 39.07214186621551 ], [ -94.61458372998581, 39.103621347612197 ], [ -94.614982115710276, 39.107328424524091 ], [ -94.610174674536864, 39.113831429259498 ], [ -94.58568560773206, 39.144640618775405 ], [ -94.587689636323688, 39.155611920945113 ], [ -94.590398168770477, 39.169938983939836 ], [ -94.582399257083438, 39.197433715131027 ], [ -94.578897159995563, 39.230571752391874 ], [ -94.578976136177843, 39.238241562685069 ] ], [ [ -94.535729105900558, 39.069217475078723 ], [ -94.535729105900558, 39.069217475078723 ] ], [ [ -94.578695064174156, 39.246288771610729 ], [ -94.578695064174156, 39.246288771610729 ] ] ] } }
]
}
