{
"type": "FeatureCollection",
"name": "los_angeles_isochrones",
"crs": { "type": "name", "properties": { "name": "urn:ogc:def:crs:OGC:1.3:CRS84" } },
"features": [
{ "type": "Feature", "properties": { "site_label": "7vQ7xbOMD1", "site_name": "BMO Stadium", "travel_time_minutes": 30.0 }, "geometry": { "type": "MultiLineString", "coordinates": [ [ [ -118.309579414068253, 34.032651862376724 ], [ -118.309415768444481, 34.032873964674032 ], [ -118.2976213841918, 34.0350007435162 ], [ -118.293470971714981, 34.04089144702418 ], [ -118.285405462699046, 34.044880754407615 ], [ -118.28525612170435, 34.044903157602953 ], [ -118.273060635344507, 34.04306058644616 ], [ -118.264961612672693, 34.051110802525137 ], [ -118.261199607340743, 34.053120112683082 ], [ -118.260973252442966, 34.05312361082548 ], [ -118.252762842146865, 34.049108803813006 ], [ -118.252655969949799, 34.04895684849479 ], [ -118.252588625938984, 34.044864077738922 ], [ -118.26038681557398, 34.033183480650344 ], [ -118.260379892408608, 34.029275248901641 ], [ -118.264224249772624, 34.015614944810196 ], [ -118.2640447586721, 34.003896256602438 ], [ -118.264073811703042, 34.003803841776396 ], [ -118.271985829880848, 33.992402314017461 ], [ -118.271649972880155, 33.988249121197683 ], [ -118.271755803602375, 33.988081749507771 ], [ -118.276118381904226, 33.985939739260822 ], [ -118.292295752278676, 33.982071547705729 ], [ -118.292558150019516, 33.982181427639418 ], [ -118.296723852542172, 33.991410170513511 ], [ -118.30898344183835, 33.993537232414212 ], [ -118.309126086847058, 33.993622574413742 ], [ -118.317281068788006, 34.005205237128159 ], [ -118.32123411572114, 34.007048103834038 ], [ -118.333304141228851, 34.008891001396528 ], [ -118.333371578462305, 34.009225448727996 ], [ -118.329451769819272, 34.011068496552895 ], [ -118.321312501122975, 34.015236538789992 ], [ -118.313238699695106, 34.015323235449763 ], [ -118.309135539525187, 34.01729096278499 ], [ -118.305339970417137, 34.01921807076247 ], [ -118.309579414068253, 34.032651862376724 ] ], [ [ -118.280103598602167, 33.960732299180336 ], [ -118.280103598602167, 33.960732299180336 ] ] ] } },
{ "type": "Feature", "properties": { "site_label": "7vQ7xbOMD1", "site_name": "BMO Stadium", "travel_time_minutes": 45.0 }, "geometry": { "type": "MultiLineString", "coordinates": [ [ [ -118.366353739677763, 34.032207358752999 ], [ -118.366328598867938, 34.032512696071734 ], [ -118.362242089828058, 34.03431506359324 ], [ -118.349959721893129, 34.0363247847365 ], [ -118.338244379573112, 34.038523847955879 ], [ -118.321523626197489, 34.042550927144191 ], [ -118.301708451038891, 34.052624646168908 ], [ -118.294243284479649, 34.064240173078439 ], [ -118.294015240366036, 34.064332811462258 ], [ -118.281392143731964, 34.062513773563921 ], [ -118.253361504067868, 34.06874545197757 ], [ -118.253249069128998, 34.068745311875716 ], [ -118.236843937530381, 34.065055205120125 ], [ -118.236750888443169, 34.065011580911488 ], [ -118.224185385753842, 34.055030665857295 ], [ -118.224119951620764, 34.054878050086323 ], [ -118.227870617100066, 34.029644352929218 ], [ -118.227814832503626, 34.025733254759466 ], [ -118.226800187977588, 34.002535163418045 ], [ -118.226971070554512, 34.002352272414448 ], [ -118.238829665512412, 34.00022770913607 ], [ -118.243719412781772, 33.998441734187708 ], [ -118.259570123227974, 33.974695601647902 ], [ -118.263475867965127, 33.965068512996396 ], [ -118.271502927415938, 33.941345058305437 ], [ -118.275091803843949, 33.927330752570207 ], [ -118.275199398589677, 33.927210244430135 ], [ -118.283244688637623, 33.923533551374831 ], [ -118.283451860310379, 33.923533164470811 ], [ -118.287755745113373, 33.925509440007836 ], [ -118.291817071707754, 33.931370295955332 ], [ -118.296049954769558, 33.944900262778724 ], [ -118.308611024003639, 33.958446616571536 ], [ -118.332952928094898, 33.973891098327115 ], [ -118.349459781502091, 33.988783957924944 ], [ -118.349517195564843, 33.988903966310311 ], [ -118.349766536240224, 34.00494626489143 ], [ -118.345826220718848, 34.01466901516882 ], [ -118.362208020474725, 34.030417563908806 ], [ -118.366353739677763, 34.032207358752999 ] ], [ [ -118.29122271516718, 33.900057680346627 ], [ -118.291392241345221, 33.904099711806644 ], [ -118.291063321558653, 33.904257954008415 ], [ -118.287091286954521, 33.902236625344003 ], [ -118.282862961591135, 33.904323215778106 ], [ -118.282536638739529, 33.904161468151656 ], [ -118.282706748627263, 33.900247468217707 ], [ -118.28282479324028, 33.900093261431053 ], [ -118.28749088699891, 33.89811286524845 ], [ -118.287707889509662, 33.898122932880611 ], [ -118.29122271516718, 33.900057680346627 ] ], [ [ -118.286514920177268, 33.870732869077202 ], [ -118.286514920177268, 33.870732869077202 ] ], [ [ -118.286649028175233, 33.867471769099943 ], [ -118.286649028175233, 33.867471769099943 ] ] ] } },
{ "type": "Feature", "properties": { "site_label": "7vQ7xbOMD1", "site_name": "BMO Stadium", "travel_time_minutes": 60.0 }, "geometry": { "type": "MultiLineString", "coordinates": [ [ [ -118.04477712349717, 34.073354464671453 ], [ -118.04477712349717, 34.073354464671453 ] ], [ [ -118.04580692485618, 34.072623666408823 ], [ -118.04580692485618, 34.072623666408823 ] ], [ [ -118.167419347237612, 34.063258129067002 ], [ -118.171194398937914, 34.061442456855659 ], [ -118.171515188675329, 34.061579386951834 ], [ -118.172061898489403, 34.065534285800211 ], [ -118.171955032881542, 34.065711060599178 ], [ -118.168162728448195, 34.067534763997259 ], [ -118.167838387415614, 34.06739418851916 ], [ -118.167419347237612, 34.063258129067002 ] ], [ [ -118.362559394924546, 34.061407577636054 ], [ -118.362364806526045, 34.061474117686849 ], [ -118.330633975063051, 34.058366192687416 ], [ -118.322711870296857, 34.069931028706499 ], [ -118.318555176486825, 34.075699553319275 ], [ -118.314664631218719, 34.077750709038106 ], [ -118.290186967524775, 34.097189677234809 ], [ -118.290124224738122, 34.097224420801716 ], [ -118.261850681603207, 34.107514741550666 ], [ -118.261726819440327, 34.107527211518246 ], [ -118.237255212940823, 34.104001133738436 ], [ -118.200817993582078, 34.106488255486241 ], [ -118.200584476122089, 34.10632577768267 ], [ -118.20007011036769, 34.101879669614249 ], [ -118.195714207893985, 34.073502143932409 ], [ -118.19971774931696, 34.051511225647666 ], [ -118.179758368872783, 34.042032052952067 ], [ -118.175648521263597, 34.040120448554013 ], [ -118.175552822433858, 34.039896475717967 ], [ -118.183030554421393, 34.024206087140342 ], [ -118.187032680229322, 34.018286685348897 ], [ -118.187161243951039, 34.018201935446051 ], [ -118.203353731895561, 34.014302563939971 ], [ -118.219369023134519, 33.998450531195637 ], [ -118.22321132337882, 33.984832520506792 ], [ -118.230794682863745, 33.957408913259094 ], [ -118.230873396700375, 33.957306594582711 ], [ -118.255028510482063, 33.94177371252902 ], [ -118.258860374427414, 33.928235334079602 ], [ -118.258824640703025, 33.923651792354455 ], [ -118.270674380264467, 33.90235481010923 ], [ -118.278481300586151, 33.894329210292433 ], [ -118.28276485772777, 33.892283243293576 ], [ -118.291058275996207, 33.892326044259079 ], [ -118.30693335627744, 33.895919847712719 ], [ -118.327623992210533, 33.897660852493019 ], [ -118.343909369313565, 33.901395103898238 ], [ -118.343962663629611, 33.90172396212845 ], [ -118.339879003892761, 33.903739422702451 ], [ -118.327881584828773, 33.905719177275444 ], [ -118.320265498861176, 33.933223953911948 ], [ -118.352816192936146, 33.94425782292096 ], [ -118.352944096129804, 33.944379384457577 ], [ -118.357125425753424, 33.957738650402938 ], [ -118.360824517353095, 33.963590044424485 ], [ -118.38569018360387, 33.979004478420769 ], [ -118.394462215452805, 33.982772802533155 ], [ -118.402139919870891, 33.986701226245941 ], [ -118.402138632723506, 33.987009227340202 ], [ -118.39818009600954, 33.98900312407644 ], [ -118.394045522294718, 33.990994365472275 ], [ -118.378055959084037, 33.995066450954866 ], [ -118.374865905624716, 34.021181995641491 ], [ -118.378455472883559, 34.026038876417211 ], [ -118.37899076893936, 34.029844640494744 ], [ -118.378638189200203, 34.037811640608282 ], [ -118.374856215732166, 34.043912749283386 ], [ -118.362559394924546, 34.061407577636054 ] ], [ [ -118.24097017491971, 34.109850306964773 ], [ -118.24097017491971, 34.109850306964773 ] ], [ [ -118.245230059400967, 34.115106814473364 ], [ -118.245230059400967, 34.115106814473364 ] ], [ [ -118.246329358837386, 33.90253970198215 ], [ -118.246329358837386, 33.90253970198215 ] ], [ [ -118.263057030001889, 33.90634672593211 ], [ -118.262686748134456, 33.906448070942673 ], [ -118.259595708574835, 33.903770088696795 ], [ -118.254582299089364, 33.90263465316459 ], [ -118.254532113794625, 33.902303799583926 ], [ -118.258899597958319, 33.90026024212537 ], [ -118.265309384461986, 33.900232842489885 ], [ -118.265457480831373, 33.900545519091814 ], [ -118.262977272126975, 33.902461094080259 ], [ -118.263057030001889, 33.90634672593211 ] ], [ [ -118.2989996606007, 33.872776199332222 ], [ -118.298664425571815, 33.872913470109928 ], [ -118.294742959088822, 33.870742219742567 ], [ -118.290995989530188, 33.873088174467071 ], [ -118.290975530265541, 33.876534693141117 ], [ -118.290772668430989, 33.876713814331936 ], [ -118.282671251538872, 33.877132115592921 ], [ -118.278242000044017, 33.875087501654384 ], [ -118.275372281439999, 33.873167707767458 ], [ -118.275374143415846, 33.872885258658819 ], [ -118.278305733834642, 33.870964585878191 ], [ -118.278308090130125, 33.867119007893805 ], [ -118.278393273936388, 33.866975631709963 ], [ -118.281389923731993, 33.865071107898082 ], [ -118.282590312597847, 33.860759992773879 ], [ -118.282725344578324, 33.860631812665254 ], [ -118.285949715804094, 33.859628408934945 ], [ -118.290408632748083, 33.857083542842545 ], [ -118.290746884202591, 33.857232527098482 ], [ -118.290743678429422, 33.861036704705249 ], [ -118.294342671870922, 33.862906947169492 ], [ -118.298804881296462, 33.864826395125831 ], [ -118.298921151646084, 33.864970707135207 ], [ -118.2993361612874, 33.86885940619193 ], [ -118.2989996606007, 33.872776199332222 ] ], [ [ -118.330015207839807, 34.069566156896833 ], [ -118.330015207839807, 34.069566156896833 ] ] ] } }
]
}
