{
"type": "FeatureCollection",
"name": "louisville_isochrones",
"crs": { "type": "name", "properties": { "name": "urn:ogc:def:crs:OGC:1.3:CRS84" } },
"features": [
{ "type": "Feature", "properties": { "site_label": "BLMvra8Mxe", "site_name": "Lynn Family Stadium", "travel_time_minutes": 30.0 }, "geometry": { "type": "MultiLineString", "coordinates": [ [ [ -85.771607398953577, 38.251493969342896 ], [ -85.771608613827397, 38.25167012063298 ], [ -85.767543524482065, 38.257466327665881 ], [ -85.767338465119821, 38.257559289538428 ], [ -85.758467434772825, 38.257404841864677 ], [ -85.748928494144394, 38.260577156003194 ], [ -85.737004427939524, 38.263037897411735 ], [ -85.724837851322519, 38.267941980288761 ], [ -85.724546571611711, 38.267955868539801 ], [ -85.719657708404867, 38.266731057780675 ], [ -85.706440364313764, 38.264438717347204 ], [ -85.698280816422923, 38.272243932962446 ], [ -85.698099595151774, 38.272309490033741 ], [ -85.689765974582073, 38.272171089326228 ], [ -85.68954229100909, 38.271996486924408 ], [ -85.68939081893464, 38.268145939008008 ], [ -85.681065691087824, 38.260559015659659 ], [ -85.676745559724608, 38.258407469723423 ], [ -85.664273012882788, 38.256518079772263 ], [ -85.6555508645244, 38.256095734124493 ], [ -85.647282064671401, 38.25619369225236 ], [ -85.638414452704524, 38.252115883421283 ], [ -85.638429411238548, 38.251798211514746 ], [ -85.642877634743343, 38.250093070879643 ], [ -85.655648705050211, 38.247906975546961 ], [ -85.655825377458001, 38.247933885450465 ], [ -85.660093825086733, 38.250214010976563 ], [ -85.672889969518124, 38.24821864035755 ], [ -85.685628709863138, 38.246204520391721 ], [ -85.694430012948388, 38.242831797333757 ], [ -85.694643024802318, 38.242837300471493 ], [ -85.698799047895321, 38.244705701576017 ], [ -85.702939336461029, 38.247059547961292 ], [ -85.7108622322678, 38.25113595509189 ], [ -85.719734273195911, 38.246733460692241 ], [ -85.719867220169164, 38.246705985775662 ], [ -85.728661288383364, 38.247046544303693 ], [ -85.737060329763224, 38.247010618935803 ], [ -85.750031026056476, 38.241429092932563 ], [ -85.750251727863102, 38.241429855713221 ], [ -85.754708210013092, 38.243387994404593 ], [ -85.767087933140957, 38.245337352655696 ], [ -85.76724198733649, 38.245425176459364 ], [ -85.771607398953577, 38.251493969342896 ] ] ] } },
{ "type": "Feature", "properties": { "site_label": "BLMvra8Mxe", "site_name": "Lynn Family Stadium", "travel_time_minutes": 45.0 }, "geometry": { "type": "MultiLineString", "coordinates": [ [ [ -85.801006836661102, 38.273270922264309 ], [ -85.800890931908285, 38.27345757496925 ], [ -85.796861425591203, 38.275197378595045 ], [ -85.796653579779061, 38.275202130075442 ], [ -85.792340265448431, 38.273588467039019 ], [ -85.751214753692039, 38.266054756857905 ], [ -85.715959768413825, 38.273077844758632 ], [ -85.701107606156, 38.281116486940164 ], [ -85.693640142622499, 38.281815247462802 ], [ -85.693489239064547, 38.28178723544648 ], [ -85.683158987146626, 38.276484628650934 ], [ -85.646522333172044, 38.264172711180507 ], [ -85.609029875891451, 38.276584683483399 ], [ -85.599665760965593, 38.276898874057075 ], [ -85.599429571453101, 38.276741370115531 ], [ -85.595425248497847, 38.251726163943545 ], [ -85.595538118688182, 38.247603924288491 ], [ -85.595645288185167, 38.247455161334493 ], [ -85.604633266495753, 38.243036075648085 ], [ -85.681225599865869, 38.236298328324999 ], [ -85.707413617280224, 38.233061556079271 ], [ -85.75463552590891, 38.227618268601873 ], [ -85.767455418457885, 38.226056778578602 ], [ -85.767566241992611, 38.226064912890457 ], [ -85.788942099150361, 38.232004998495356 ], [ -85.789086277195182, 38.232126517395947 ], [ -85.797414343413649, 38.255639003049986 ], [ -85.801006836661102, 38.273270922264309 ] ], [ [ -85.742041499143269, 38.27418533331705 ], [ -85.742041499143269, 38.27418533331705 ] ], [ [ -85.744533200904058, 38.273034338035636 ], [ -85.744533200904058, 38.273034338035636 ] ] ] } },
{ "type": "Feature", "properties": { "site_label": "BLMvra8Mxe", "site_name": "Lynn Family Stadium", "travel_time_minutes": 60.0 }, "geometry": { "type": "MultiLineString", "coordinates": [ [ [ -85.814155429395498, 38.271287151799349 ], [ -85.814087555083134, 38.271393095794593 ], [ -85.803550753037769, 38.279407509859695 ], [ -85.80337481555307, 38.279457524345659 ], [ -85.739811922301129, 38.275663792688157 ], [ -85.693222734087129, 38.284657367113965 ], [ -85.693153329851413, 38.284662137395323 ], [ -85.625105029691824, 38.281099582395171 ], [ -85.582375658044356, 38.292283055002841 ], [ -85.551772743657907, 38.302213559059446 ], [ -85.54339072769686, 38.301842008749652 ], [ -85.543245739783814, 38.301532147920106 ], [ -85.556363096688798, 38.291597636473384 ], [ -85.582626725691739, 38.245374746812821 ], [ -85.582683045431068, 38.245313998744997 ], [ -85.596192739320301, 38.235793615967793 ], [ -85.597997429991125, 38.234926579951747 ], [ -85.630203351882827, 38.236138631930714 ], [ -85.681833798175063, 38.221053792644462 ], [ -85.707879984537726, 38.197996996720903 ], [ -85.707977196911216, 38.197946202982962 ], [ -85.729262726417545, 38.192259834416824 ], [ -85.785239163701107, 38.19103241020008 ], [ -85.810973033189256, 38.187415658728554 ], [ -85.815192828915542, 38.189305851062016 ], [ -85.8153049877114, 38.189442546816579 ], [ -85.820920216349847, 38.231108738170555 ], [ -85.820919507642373, 38.231151536903937 ], [ -85.814155429395498, 38.271287151799349 ] ], [ [ -85.724323699996205, 38.186820402317785 ], [ -85.724323699996205, 38.186820402317785 ] ], [ [ -85.739982967238845, 38.285235828966371 ], [ -85.739982967238845, 38.285235828966371 ] ], [ [ -85.785177783900664, 38.183196618930864 ], [ -85.785177783900664, 38.183196618930864 ] ], [ [ -85.819539718442456, 38.175796550774827 ], [ -85.823973202347659, 38.173821758910428 ], [ -85.824277218680265, 38.17407602021072 ], [ -85.81990972671052, 38.179473427418557 ], [ -85.815543306471739, 38.181861499736677 ], [ -85.815216834672725, 38.181621950477748 ], [ -85.819539718442456, 38.175796550774827 ] ] ] } }
]
}
