{
"type": "FeatureCollection",
"name": "nyc_isochrones_90min",
"crs": { "type": "name", "properties": { "name": "urn:ogc:def:crs:OGC:1.3:CRS84" } },
"features": [
{ "type": "Feature", "properties": { "site_id": "NWMW84L5lz", "site_label": "current", "site_name": "Red Bull Arena", "travel_time_minutes": 30.0 }, "geometry": { "type": "MultiLineString", "coordinates": [ [ [ -74.175697985395615, 40.730573769510045 ], [ -74.180071046085118, 40.736395831079491 ], [ -74.179979544766724, 40.73664240341315 ], [ -74.175387544039324, 40.738544023433413 ], [ -74.166585283406548, 40.738389432106295 ], [ -74.162322128166991, 40.744184317174899 ], [ -74.162375592975323, 40.748133845421663 ], [ -74.162246249148112, 40.748296234653914 ], [ -74.157581940693518, 40.750103438868948 ], [ -74.157359766084156, 40.7501005746076 ], [ -74.153032753883423, 40.7482810274484 ], [ -74.148754174480757, 40.753851082108632 ], [ -74.148312681566409, 40.753758857876917 ], [ -74.148351095482028, 40.749837758093648 ], [ -74.148485009750488, 40.745969031301001 ], [ -74.14614121448993, 40.739059472323369 ], [ -74.139723827741648, 40.734365868738138 ], [ -74.139651179512029, 40.734232906027309 ], [ -74.139773824259152, 40.730218206026706 ], [ -74.144302235001021, 40.724509514002051 ], [ -74.148861920747535, 40.722125786944709 ], [ -74.157746384491958, 40.722552178144461 ], [ -74.162198732255902, 40.720383954465341 ], [ -74.162462316612149, 40.720388159880969 ], [ -74.166879767331466, 40.722763992290133 ], [ -74.171243200863614, 40.7284775958964 ], [ -74.175697985395615, 40.730573769510045 ] ] ] } },
{ "type": "Feature", "properties": { "site_id": "NWMW84L5lz", "site_label": "current", "site_name": "Red Bull Arena", "travel_time_minutes": 45.0 }, "geometry": { "type": "MultiLineString", "coordinates": [ [ [ -74.042230658213342, 40.717773696338121 ], [ -74.042230658213342, 40.717773696338121 ] ], [ [ -74.042177246089594, 40.721625596154304 ], [ -74.042177246089594, 40.721625596154304 ] ], [ [ -74.06465380723958, 40.731609963141231 ], [ -74.06463124370309, 40.735595839642961 ], [ -74.064269918894581, 40.735747180154192 ], [ -74.059862412819641, 40.733675975385765 ], [ -74.059750068067288, 40.733524919325561 ], [ -74.059682582849163, 40.729357219351584 ], [ -74.060052685416821, 40.729206071413572 ], [ -74.06465380723958, 40.731609963141231 ] ], [ [ -74.082137323441486, 40.761662268195785 ], [ -74.082345054397308, 40.761878668033511 ], [ -74.082018055139159, 40.763057966631713 ], [ -74.082057861171748, 40.76680554528653 ], [ -74.081723644773987, 40.766971294952349 ], [ -74.076843635342797, 40.765301290782958 ], [ -74.072700908042179, 40.763159307973424 ], [ -74.072656302014721, 40.762891473750209 ], [ -74.074933603081178, 40.760920877235783 ], [ -74.076004181465507, 40.761184814980915 ], [ -74.082137323441486, 40.761662268195785 ] ], [ [ -74.183951649158445, 40.773635572396984 ], [ -74.179501753606516, 40.775640920948547 ], [ -74.179174976346786, 40.775574592048237 ], [ -74.174770089028073, 40.769661684386023 ], [ -74.170807682990088, 40.764019587275733 ], [ -74.152852811215368, 40.768028197311928 ], [ -74.148613448276492, 40.77359268756021 ], [ -74.143784242891883, 40.779159280135509 ], [ -74.13945999640103, 40.785038920580682 ], [ -74.134863489558597, 40.786965183633193 ], [ -74.134543895022418, 40.786895123102511 ], [ -74.130070885991358, 40.780801274050901 ], [ -74.130162108641912, 40.773007939982918 ], [ -74.135010279853461, 40.763621518495199 ], [ -74.13502388227063, 40.751868641906491 ], [ -74.135055982961362, 40.747913806496022 ], [ -74.123091973420273, 40.736536368960024 ], [ -74.119803392711702, 40.734658382388325 ], [ -74.119786741239295, 40.734380662707771 ], [ -74.130838030375585, 40.726777850765984 ], [ -74.132257307514777, 40.718980275102105 ], [ -74.131192733135336, 40.713677907412084 ], [ -74.131403337966645, 40.713471415837233 ], [ -74.13636285293741, 40.713104021599534 ], [ -74.148940488185431, 40.715125623669188 ], [ -74.162198793239639, 40.712705242711657 ], [ -74.166961972537706, 40.71174798699051 ], [ -74.175703803870448, 40.715108234351206 ], [ -74.187196622229308, 40.710880177300574 ], [ -74.188603562653299, 40.709385264245469 ], [ -74.193434213748205, 40.702998821610052 ], [ -74.193691525003246, 40.702912948450091 ], [ -74.206950392114877, 40.705189642222763 ], [ -74.207128752458559, 40.705324103372568 ], [ -74.211396297645564, 40.719113095366687 ], [ -74.211395184387783, 40.719199149152217 ], [ -74.206847701041369, 40.732690561549994 ], [ -74.210811406259893, 40.734403516238999 ], [ -74.215483300100544, 40.736665911090732 ], [ -74.215592967113153, 40.736818021307094 ], [ -74.215589580704574, 40.740649321438973 ], [ -74.215481778246314, 40.740800273683476 ], [ -74.211403997107979, 40.742815218065552 ], [ -74.206808796746188, 40.744755729675539 ], [ -74.201999152430147, 40.758304862061244 ], [ -74.201880931516698, 40.75841726630707 ], [ -74.19296740976155, 40.761991283137924 ], [ -74.183951649158445, 40.773635572396984 ] ], [ [ -74.122562724613928, 40.726628310102839 ], [ -74.122562724613928, 40.726628310102839 ] ], [ [ -74.157959455995993, 40.706799778352242 ], [ -74.157959455995993, 40.706799778352242 ] ], [ [ -74.16224634497388, 40.707630316525439 ], [ -74.16224634497388, 40.707630316525439 ] ], [ [ -74.174436596496079, 40.781286537607201 ], [ -74.174436596496079, 40.781286537607201 ] ], [ [ -74.216386010495668, 40.670451451201998 ], [ -74.216040163760255, 40.6705624374952 ], [ -74.211614456893486, 40.668646832999272 ], [ -74.211494812645881, 40.668486982775939 ], [ -74.211591627222788, 40.664359183107429 ], [ -74.211723391389853, 40.664200866045476 ], [ -74.216629282300943, 40.662354970364966 ], [ -74.21686927177474, 40.66236862321329 ], [ -74.221053367165794, 40.664586318327423 ], [ -74.221022297359355, 40.664896000969101 ], [ -74.216436943970692, 40.666606447673935 ], [ -74.216386010495668, 40.670451451201998 ] ], [ [ -74.223684763037383, 40.767785844712598 ], [ -74.223490435492778, 40.76806017798917 ], [ -74.214970612497638, 40.768268678335673 ], [ -74.214835846613269, 40.767936560493212 ], [ -74.219385140278078, 40.765737165392018 ], [ -74.219642769463235, 40.765738795191417 ], [ -74.223684763037383, 40.767785844712598 ] ], [ [ -74.238273227356601, 40.6842898563944 ], [ -74.238273227356601, 40.6842898563944 ] ] ] } },
{ "type": "Feature", "properties": { "site_id": "NWMW84L5lz", "site_label": "current", "site_name": "Red Bull Arena", "travel_time_minutes": 60.0 }, "geometry": { "type": "MultiLineString", "coordinates": [ [ [ -74.002165296739875, 40.754648232148796 ], [ -74.002059119814518, 40.754744455861172 ], [ -73.993095605189453, 40.758615764679305 ], [ -73.984163053978392, 40.76239634628007 ], [ -73.979601621025949, 40.764461404407093 ], [ -73.979243527811249, 40.764301812164661 ], [ -73.979416621272321, 40.760207302833756 ], [ -73.983945893674715, 40.754390645163426 ], [ -73.98394697850209, 40.750746986125399 ], [ -73.979649345746665, 40.744793499698893 ], [ -73.979738010891339, 40.744551012772128 ], [ -73.984175961792062, 40.742590122818008 ], [ -73.988786474591009, 40.736788790201295 ], [ -73.997778660305784, 40.732817099198229 ], [ -74.006692640975771, 40.732901557141254 ], [ -74.006892323565339, 40.733173848231836 ], [ -74.002445337608833, 40.738856680086073 ], [ -74.002279775981251, 40.746814526449811 ], [ -74.002165296739875, 40.754648232148796 ] ], [ [ -73.983611240247484, 40.777721492863563 ], [ -73.983611240247484, 40.777721492863563 ] ], [ [ -74.018313451901818, 40.715227238483514 ], [ -74.01600402497418, 40.717747678521519 ], [ -74.015573365224043, 40.717637839229582 ], [ -74.01576101833912, 40.713719401375023 ], [ -74.011523548067785, 40.71580615595343 ], [ -74.00706435041154, 40.717627359559501 ], [ -74.006715615551727, 40.717467275383285 ], [ -74.006795844996731, 40.709798557534405 ], [ -74.007153258733624, 40.709645083856316 ], [ -74.01144968188629, 40.711581421039845 ], [ -74.015444242591201, 40.709887227212043 ], [ -74.011390544436694, 40.708006427235844 ], [ -74.01127706829017, 40.707849968525586 ], [ -74.011351982102099, 40.703947268837894 ], [ -74.011619290637114, 40.700540850314887 ], [ -74.011899870495682, 40.700374610721639 ], [ -74.01522846205431, 40.700856809361277 ], [ -74.017024392860876, 40.702350164218089 ], [ -74.016277129689385, 40.702395760450756 ], [ -74.01626354632711, 40.705893307508298 ], [ -74.018979644859172, 40.707903025252982 ], [ -74.019047533067507, 40.708064454381834 ], [ -74.018132654260171, 40.711916466055861 ], [ -74.018313451901818, 40.715227238483514 ] ], [ [ -74.037363352511306, 40.774207936756504 ], [ -74.037080601886714, 40.774493634103308 ], [ -74.023801422506295, 40.76867224438773 ], [ -74.024037761064648, 40.768359911152501 ], [ -74.037363352511306, 40.774207936756504 ] ], [ [ -74.087938406420307, 40.736373815178709 ], [ -74.087745201297437, 40.736521141782227 ], [ -74.077768016273097, 40.737831065371253 ], [ -74.073333722734489, 40.739643605939889 ], [ -74.069454944491454, 40.741060241465028 ], [ -74.064053609950165, 40.747903534756503 ], [ -74.063955265127632, 40.747972392693185 ], [ -74.055336381368718, 40.751203876472886 ], [ -74.04646738208433, 40.755101556456765 ], [ -74.046144323113438, 40.754854145877992 ], [ -74.05065000026292, 40.749055030970133 ], [ -74.050739004456119, 40.745097896663829 ], [ -74.046371184723128, 40.739445385547754 ], [ -74.046390143790902, 40.735527852908881 ], [ -74.037799395781093, 40.731714780543243 ], [ -74.033338135144973, 40.733501523849931 ], [ -74.033091658646427, 40.733489529398419 ], [ -74.028812454059789, 40.731202824353794 ], [ -74.026489679326886, 40.728192240561199 ], [ -74.029127256573432, 40.719299243864164 ], [ -74.029822258004984, 40.716673074094437 ], [ -74.031829325801596, 40.713466014890088 ], [ -74.038087947660074, 40.711804237921385 ], [ -74.046943747054272, 40.71185933146716 ], [ -74.064541632865229, 40.711881690841359 ], [ -74.069248145806938, 40.70651311711795 ], [ -74.074558548090494, 40.704777575029418 ], [ -74.074835449713461, 40.704831124979755 ], [ -74.082511157480113, 40.712139812900531 ], [ -74.082647500409337, 40.71625017277016 ], [ -74.086656816839735, 40.725856970883846 ], [ -74.087235733807205, 40.733312485043363 ], [ -74.087938406420307, 40.736373815178709 ] ], [ [ -74.086856931820321, 40.772279370432081 ], [ -74.086555248891045, 40.772490546302727 ], [ -74.08134451868888, 40.771258941276201 ], [ -74.078360550260598, 40.772735846404537 ], [ -74.072879367660093, 40.771373244781351 ], [ -74.06929547554094, 40.77279737307375 ], [ -74.069082425523703, 40.772799860373304 ], [ -74.063800615870633, 40.770855555592462 ], [ -74.063785097135607, 40.770537507872724 ], [ -74.068179399174923, 40.76860177448318 ], [ -74.068912536877534, 40.76463876058714 ], [ -74.064356176455149, 40.761708558176075 ], [ -74.063709967349226, 40.75831749100405 ], [ -74.064123420195102, 40.758175638426906 ], [ -74.067852681763327, 40.761424922021973 ], [ -74.072763579481034, 40.762798647976112 ], [ -74.074933603081178, 40.760920877235783 ], [ -74.076004181465507, 40.761184814980915 ], [ -74.082099535733633, 40.7616593275105 ], [ -74.086021045143667, 40.761005192263433 ], [ -74.086287868417216, 40.756062610978667 ], [ -74.08661973655947, 40.755904994250955 ], [ -74.089542657056555, 40.756927182216728 ], [ -74.090911562529854, 40.75910417976732 ], [ -74.090898104962221, 40.759278141263998 ], [ -74.088955645810074, 40.761615556246845 ], [ -74.086609160281043, 40.766495764220245 ], [ -74.084332955235652, 40.769194704992152 ], [ -74.086856931820321, 40.772279370432081 ] ], [ [ -74.078516773650691, 40.698971763213613 ], [ -74.078516773650691, 40.698971763213613 ] ], [ [ -74.081470195131203, 40.778829862542771 ], [ -74.081470195131203, 40.778829862542771 ] ], [ [ -74.281595083774022, 40.770070662639775 ], [ -74.2816803730489, 40.770394372868019 ], [ -74.277638376334934, 40.77253484622873 ], [ -74.251227117672002, 40.779861464111185 ], [ -74.244290784474785, 40.781471025755337 ], [ -74.237018327306771, 40.781845517995116 ], [ -74.228388948264708, 40.781685395372968 ], [ -74.206019456790671, 40.787414415959766 ], [ -74.201950508110855, 40.797128557769945 ], [ -74.201839370201938, 40.797231551424453 ], [ -74.192419235463049, 40.80117615055952 ], [ -74.181179272792832, 40.802154118912149 ], [ -74.170157177267342, 40.799000671684098 ], [ -74.148218752252603, 40.800967730052797 ], [ -74.148118148879121, 40.800960252519303 ], [ -74.130188907951592, 40.796559340909418 ], [ -74.125557094214912, 40.794844158106407 ], [ -74.121465150429813, 40.789086470058791 ], [ -74.121469215627286, 40.770428603711196 ], [ -74.119853515975564, 40.749634054116868 ], [ -74.117478226634674, 40.732289964492786 ], [ -74.117489949724629, 40.732212436321916 ], [ -74.123657218632317, 40.718637929986983 ], [ -74.122267386274913, 40.70683067230339 ], [ -74.122289080003483, 40.70673771813837 ], [ -74.128557007612088, 40.696634929094394 ], [ -74.139502921399284, 40.685390147067622 ], [ -74.140053491721687, 40.685465892212306 ], [ -74.158535599784628, 40.691486152754884 ], [ -74.175953039398934, 40.688081082942084 ], [ -74.176716065266518, 40.68724277718357 ], [ -74.179639092681995, 40.687360085087342 ], [ -74.188585714082834, 40.685609555539749 ], [ -74.184884949373469, 40.675969036970635 ], [ -74.184923649487317, 40.675809518670214 ], [ -74.19802749032381, 40.66267173481063 ], [ -74.202828336277051, 40.656679562208133 ], [ -74.207351857846618, 40.654585646221982 ], [ -74.216323105684694, 40.650750455724214 ], [ -74.229038874632735, 40.648224061941349 ], [ -74.229304205641455, 40.648309300262433 ], [ -74.238683383773136, 40.660869176486081 ], [ -74.247294741625595, 40.680215960474037 ], [ -74.251670970316496, 40.690129001088835 ], [ -74.251490102627315, 40.690363505598704 ], [ -74.237740205963803, 40.692319492107067 ], [ -74.238002416795013, 40.715529595791949 ], [ -74.24197749710217, 40.717583007220469 ], [ -74.246783371609382, 40.719124270462721 ], [ -74.246928032064304, 40.719297205066709 ], [ -74.246175744501144, 40.734217909721934 ], [ -74.246673632439126, 40.738862132894205 ], [ -74.242071072866423, 40.748804201874115 ], [ -74.246252073298194, 40.770189868504708 ], [ -74.259399519879565, 40.771941061541121 ], [ -74.2727209503701, 40.770281102018728 ], [ -74.281595083774022, 40.770070662639775 ] ], [ [ -74.261127221644784, 40.635652667999643 ], [ -74.25668099702709, 40.637857602893696 ], [ -74.256431616161194, 40.637859972485415 ], [ -74.25210004694793, 40.635868985816927 ], [ -74.243245814270651, 40.639547808546226 ], [ -74.242894685249198, 40.639391732448253 ], [ -74.24284929959947, 40.635326232484495 ], [ -74.242989232304438, 40.63516022702828 ], [ -74.247494957170971, 40.633624771183506 ], [ -74.247606806196998, 40.630084504043197 ], [ -74.242849369167317, 40.627985109769888 ], [ -74.238683243687063, 40.625782306217971 ], [ -74.238719682361477, 40.625470469473875 ], [ -74.243502444916757, 40.623802373333483 ], [ -74.247636479548717, 40.62172195684699 ], [ -74.24789768985184, 40.621722244309183 ], [ -74.251548520082537, 40.623571070530417 ], [ -74.257409792094023, 40.62225186841313 ], [ -74.260032748905473, 40.619767074707319 ], [ -74.26045029488013, 40.619850641545781 ], [ -74.261302308236552, 40.623781539960596 ], [ -74.261282161698304, 40.627660157506135 ], [ -74.261118013028479, 40.631571880340914 ], [ -74.261127221644784, 40.635652667999643 ] ], [ [ -74.269197255775978, 40.674568064457475 ], [ -74.268870576783954, 40.674657695076242 ], [ -74.265046615154532, 40.673149904938199 ], [ -74.260615586468447, 40.674823998713791 ], [ -74.260388521013908, 40.674817042275357 ], [ -74.255943114600697, 40.672783337579247 ], [ -74.25582838395502, 40.672626276772547 ], [ -74.255903243811375, 40.668711900031596 ], [ -74.255821519134926, 40.665003022868795 ], [ -74.255934512276042, 40.664846355199806 ], [ -74.260589894558592, 40.662674870192141 ], [ -74.2604296519618, 40.659200023563557 ], [ -74.260552543620747, 40.659035633900196 ], [ -74.265014336110156, 40.657176538173793 ], [ -74.265247338431706, 40.657179069686215 ], [ -74.26965870502255, 40.65914370706146 ], [ -74.27396225049111, 40.660977972524364 ], [ -74.274083286182005, 40.661133179930708 ], [ -74.274149526769165, 40.668550030945582 ], [ -74.274040301516777, 40.668702231645781 ], [ -74.26945901933864, 40.670930818445186 ], [ -74.269197255775978, 40.674568064457475 ] ], [ [ -74.287753912822893, 40.60816700888175 ], [ -74.287679844908027, 40.608453438890628 ], [ -74.283420736617984, 40.609949142428036 ], [ -74.283219086515601, 40.609947785231654 ], [ -74.279161494147644, 40.608456089445404 ], [ -74.279105315599509, 40.612431640626845 ], [ -74.278743075829723, 40.612582243529012 ], [ -74.274470229191593, 40.610535251829369 ], [ -74.269720108196211, 40.612285514480028 ], [ -74.269381893101752, 40.612105775072393 ], [ -74.269843964802774, 40.608502393215971 ], [ -74.269880904784898, 40.604448748986954 ], [ -74.269993790868682, 40.604296368627047 ], [ -74.274330407648023, 40.602270992350071 ], [ -74.275615755243351, 40.599333004418 ], [ -74.27591512333737, 40.59921916302585 ], [ -74.279273227168886, 40.600084996735703 ], [ -74.283582522550489, 40.602398491674933 ], [ -74.283682778699017, 40.602547891027264 ], [ -74.283622475879838, 40.606508183148101 ], [ -74.287753912822893, 40.60816700888175 ] ], [ [ -74.309707871711723, 40.653391683690849 ], [ -74.309083309678272, 40.657051253275952 ], [ -74.305124006806551, 40.659517958331399 ], [ -74.30025731838343, 40.660719178158907 ], [ -74.295883245398869, 40.659004372751063 ], [ -74.295758613715805, 40.658832498546708 ], [ -74.296060324918955, 40.655631799249313 ], [ -74.296175939990206, 40.655489582777861 ], [ -74.300771890906063, 40.653421041857818 ], [ -74.305214056274039, 40.651221640278024 ], [ -74.305474117462452, 40.651222729611334 ], [ -74.309707871711723, 40.653391683690849 ] ], [ [ -74.294939119057432, 40.768481633774215 ], [ -74.294939119057432, 40.768481633774215 ] ], [ [ -74.299287606821323, 40.770475941329295 ], [ -74.299287606821323, 40.770475941329295 ] ], [ [ -74.322626129783259, 40.651612911668927 ], [ -74.322626129783259, 40.651612911668927 ] ], [ [ -74.327115118747784, 40.653405819889763 ], [ -74.327115118747784, 40.653405819889763 ] ] ] } },
{ "type": "Feature", "properties": { "site_id": "NWMW84L5lz", "site_label": "current", "site_name": "Red Bull Arena", "travel_time_minutes": 90.0 }, "geometry": { "type": "MultiLineString", "coordinates": [ [ [ -73.735893236239392, 40.716912436378834 ], [ -73.735893236239392, 40.716912436378834 ] ], [ [ -73.76734385469608, 40.707259965755803 ], [ -73.767507252616753, 40.707298570755455 ], [ -73.771954449420406, 40.709983665099287 ], [ -73.771887360035748, 40.710294345800428 ], [ -73.766963797866609, 40.711640458805611 ], [ -73.762934661579393, 40.713428233759068 ], [ -73.762578656679139, 40.71327018170043 ], [ -73.762647770547659, 40.709352682042145 ], [ -73.762768452974043, 40.709198068447066 ], [ -73.76734385469608, 40.707259965755803 ] ], [ [ -73.820865360246188, 40.711880487338341 ], [ -73.820517443789058, 40.711991058808245 ], [ -73.811678839680994, 40.708091052036032 ], [ -73.802861486186345, 40.708006278907817 ], [ -73.793958962248169, 40.707802278026222 ], [ -73.789529800350181, 40.706212016797963 ], [ -73.789501231292022, 40.705899068193681 ], [ -73.793879604074348, 40.70369831661742 ], [ -73.798147555040828, 40.697678426374395 ], [ -73.798437144291768, 40.694115543817489 ], [ -73.798598045027575, 40.690431215064038 ], [ -73.798840412700201, 40.690257093695202 ], [ -73.807515889371146, 40.690418992935562 ], [ -73.812202876819072, 40.692107008779047 ], [ -73.820901763507806, 40.695883399850324 ], [ -73.821021196882455, 40.6960415284072 ], [ -73.820865360246188, 40.711880487338341 ] ], [ [ -73.933712864022482, 40.861376025729989 ], [ -73.915559696641267, 40.872642194676196 ], [ -73.911257366568307, 40.87483029318571 ], [ -73.906766822406183, 40.876730180042614 ], [ -73.906415869432323, 40.876549919259759 ], [ -73.911324229554282, 40.847439173612187 ], [ -73.889610248574755, 40.833867694267134 ], [ -73.889523804640717, 40.833729591442996 ], [ -73.889465733214749, 40.825713391694492 ], [ -73.893968608911322, 40.819613101825595 ], [ -73.903060832071375, 40.812309066683852 ], [ -73.907938127031869, 40.779035609085078 ], [ -73.877163834098297, 40.75758947051461 ], [ -73.85993626429358, 40.757157162979595 ], [ -73.8509736560395, 40.757161658415363 ], [ -73.841936240138978, 40.757427326084574 ], [ -73.84169029645237, 40.757253058193406 ], [ -73.841497905019708, 40.752677700133049 ], [ -73.829584730114689, 40.715714087522834 ], [ -73.828954273944163, 40.712089485832315 ], [ -73.829256882158319, 40.711893302443784 ], [ -73.847267240299061, 40.715993091396562 ], [ -73.847380288278046, 40.716049447035111 ], [ -73.856023158782492, 40.723834015502291 ], [ -73.864704826227182, 40.72746454857193 ], [ -73.90036033255862, 40.704795981398348 ], [ -73.900506796029987, 40.69698529692679 ], [ -73.900535403637534, 40.693198364470334 ], [ -73.900823182954611, 40.689412383153723 ], [ -73.900777643279113, 40.681536993431997 ], [ -73.900814030291272, 40.67751514036253 ], [ -73.909957568539483, 40.662222957727344 ], [ -73.914536366905338, 40.660024380128448 ], [ -73.945621699877748, 40.65056634242206 ], [ -73.963635551731656, 40.635174720733218 ], [ -73.963913465070306, 40.63513181977136 ], [ -74.007987983632262, 40.651048180542915 ], [ -74.008107322582177, 40.65114599476837 ], [ -74.018841382606752, 40.672271675176368 ], [ -74.019909643320432, 40.678391432258216 ], [ -74.019579941279289, 40.706079634056032 ], [ -74.018327181941387, 40.715188731435454 ], [ -74.011492195929321, 40.748680546461117 ], [ -74.010917832480445, 40.7510654635199 ], [ -74.01012370348181, 40.753026996649133 ], [ -74.007085630898402, 40.759289365048488 ], [ -74.00139213569895, 40.767003523319879 ], [ -73.991606901378233, 40.779838783611801 ], [ -73.972465281887992, 40.80415402546668 ], [ -73.962695140377505, 40.819262257668179 ], [ -73.957467598074246, 40.827146284491846 ], [ -73.938363163161355, 40.855529119896183 ], [ -73.933712864022482, 40.861376025729989 ] ], [ [ -73.828394190310277, 40.758694703964956 ], [ -73.828394190310277, 40.758694703964956 ] ], [ [ -73.832804578499079, 40.760713511966962 ], [ -73.832804578499079, 40.760713511966962 ] ], [ [ -73.865390602251466, 40.677143173971182 ], [ -73.865390602251466, 40.677143173971182 ] ], [ [ -73.869773602771858, 40.675273782028249 ], [ -73.869773602771858, 40.675273782028249 ] ], [ [ -73.976868216239211, 40.62949327885255 ], [ -73.976868216239211, 40.62949327885255 ] ], [ [ -73.994359517643815, 40.645274067020722 ], [ -73.994359517643815, 40.645274067020722 ] ], [ [ -74.355776203920357, 40.795711340916888 ], [ -74.352608221415707, 40.803955876747409 ], [ -74.352396911951928, 40.804084656868135 ], [ -74.325171345731221, 40.805490444834831 ], [ -74.31249732843257, 40.807784371684747 ], [ -74.312272442178795, 40.807734739089184 ], [ -74.299044569583913, 40.797401447858924 ], [ -74.254899019555793, 40.789757632621374 ], [ -74.241990718832298, 40.807008717788484 ], [ -74.236879227744808, 40.824593799914695 ], [ -74.237082412619543, 40.828989693459796 ], [ -74.231835133129621, 40.845956129451395 ], [ -74.23632989624015, 40.86745164553902 ], [ -74.236079346714192, 40.867659650959368 ], [ -74.196108539309961, 40.865582644426802 ], [ -74.195912046423771, 40.865482733940169 ], [ -74.191785939831433, 40.859144809336335 ], [ -74.162445321590823, 40.843408282520549 ], [ -74.165469141442316, 40.84713172505068 ], [ -74.165164310769683, 40.847388644904413 ], [ -74.160788623780221, 40.845789380360976 ], [ -74.156336443645429, 40.847602871216246 ], [ -74.156119465675971, 40.847605725591684 ], [ -74.151602457503571, 40.84591612145131 ], [ -74.151584907892556, 40.845600157026126 ], [ -74.155785354446564, 40.843679175136849 ], [ -74.159507107550425, 40.841831584569661 ], [ -74.151946695461504, 40.837773847938877 ], [ -74.142541846276899, 40.841063690230484 ], [ -74.138747781388943, 40.843337767618472 ], [ -74.12482492196753, 40.861037698137757 ], [ -74.124655083013678, 40.861123620123323 ], [ -74.076043278298187, 40.866437096259716 ], [ -74.061846405854453, 40.876063275870813 ], [ -74.057993399527234, 40.877921995627332 ], [ -74.053468348211169, 40.879974317651545 ], [ -74.044305623398657, 40.879817116955948 ], [ -74.04420954511194, 40.879474122391557 ], [ -74.049081974014143, 40.877725572971698 ], [ -74.071200310752062, 40.856364050714404 ], [ -74.058585863226639, 40.823419029648271 ], [ -74.005535866164649, 40.83121005137297 ], [ -74.000899908374194, 40.840493893694273 ], [ -74.00044466533781, 40.840462088678294 ], [ -73.992053585475887, 40.805236373293098 ], [ -73.991990321816303, 40.801761177234823 ], [ -73.992166537317686, 40.797394777775175 ], [ -73.994278423079876, 40.79358871270302 ], [ -74.002647433959481, 40.782760450001895 ], [ -74.022719338465066, 40.744327073130108 ], [ -74.024727009671352, 40.737054091928734 ], [ -74.026489390296192, 40.728193227832122 ], [ -74.029806327873047, 40.71670933483459 ], [ -74.034244403437796, 40.708463815128539 ], [ -74.047273706718244, 40.700370511789032 ], [ -74.082916072929507, 40.676594427205728 ], [ -74.092071065204195, 40.664199889216164 ], [ -74.10082412063862, 40.657222473650648 ], [ -74.110070136549311, 40.651306047217666 ], [ -74.119873571233711, 40.646423991112435 ], [ -74.124729010590841, 40.645360639294573 ], [ -74.127988566267149, 40.644716274928328 ], [ -74.132249596910555, 40.644951697772647 ], [ -74.141539109584912, 40.647408455178002 ], [ -74.17411060416002, 40.649653081745903 ], [ -74.195671081921716, 40.634853833420919 ], [ -74.22032692478173, 40.609498954434265 ], [ -74.22041153824469, 40.609444905710653 ], [ -74.235422713245015, 40.603753502366288 ], [ -74.278650405899342, 40.596000921457666 ], [ -74.312209199155447, 40.592831091811185 ], [ -74.312295653704652, 40.592835105927321 ], [ -74.338080191095443, 40.597748292776004 ], [ -74.341288399393719, 40.600844289192935 ], [ -74.361258006651425, 40.639276452431247 ], [ -74.361274046673017, 40.639330191046575 ], [ -74.363619036039651, 40.664784386980344 ], [ -74.363393622731266, 40.664976996202334 ], [ -74.351335490348291, 40.665388997052297 ], [ -74.344694584266421, 40.665295273863101 ], [ -74.335882823648589, 40.665680262901802 ], [ -74.31010688330322, 40.669191734517952 ], [ -74.313564212116006, 40.709872302478274 ], [ -74.317880245206467, 40.711773588399254 ], [ -74.322748658091371, 40.713633921472571 ], [ -74.348831797055055, 40.713443832464584 ], [ -74.353410146184572, 40.714821081257476 ], [ -74.353389924881029, 40.715161072373988 ], [ -74.340028125837918, 40.718189867386329 ], [ -74.335640027899075, 40.720111234952853 ], [ -74.317892720833314, 40.754522271660029 ], [ -74.321800506210238, 40.760541729298836 ], [ -74.339596731979398, 40.775861918213394 ], [ -74.355776203920357, 40.795711340916888 ] ], [ [ -74.022606382099795, 40.877421737659795 ], [ -74.017815244703968, 40.883932856713564 ], [ -74.017370832573093, 40.883837317210634 ], [ -74.017604621348326, 40.879680077198444 ], [ -74.013328274453855, 40.873765173776242 ], [ -74.008924239469735, 40.872073653183179 ], [ -74.008794063810669, 40.871913973186366 ], [ -74.008852197808324, 40.868783029723616 ], [ -74.013496195993767, 40.865718235567577 ], [ -74.009059070905749, 40.86008870577578 ], [ -74.008037974592995, 40.855849935479895 ], [ -74.010428966153441, 40.852467659964979 ], [ -74.013409856084934, 40.846497135906773 ], [ -74.013544051832554, 40.846393582036249 ], [ -74.020031252387213, 40.844434861785011 ], [ -74.02291203250212, 40.84225459030548 ], [ -74.024842626010269, 40.842596042655657 ], [ -74.027416643393266, 40.848349037894671 ], [ -74.026940135451511, 40.85201888951331 ], [ -74.027296970413914, 40.856296785214077 ], [ -74.02282097569406, 40.862002765521176 ], [ -74.023103390215795, 40.866064803859246 ], [ -74.022967013523981, 40.86623747044014 ], [ -74.018374868594805, 40.867869229588109 ], [ -74.022633584659374, 40.873528027360116 ], [ -74.022606382099795, 40.877421737659795 ] ], [ [ -74.038737820781449, 40.639479234974026 ], [ -74.038715569418756, 40.639824545442501 ], [ -74.030413548822438, 40.641349949151532 ], [ -74.025870315278809, 40.639808645487342 ], [ -74.017012334316235, 40.643689842058421 ], [ -74.016659170382454, 40.643533276673956 ], [ -74.01665438352309, 40.63981117681665 ], [ -74.016770691468921, 40.639655835690114 ], [ -74.021319484415471, 40.637610740292175 ], [ -74.025779926306853, 40.635663971178317 ], [ -74.026018018272751, 40.63566527798173 ], [ -74.030413275101267, 40.637648203434203 ], [ -74.034771988394283, 40.639482817433723 ], [ -74.038737820781449, 40.639479234974026 ] ], [ [ -74.045005422351721, 40.840473158592502 ], [ -74.045005422351721, 40.840473158592502 ] ], [ [ -74.049366865392358, 40.838802906746125 ], [ -74.049366865392358, 40.838802906746125 ] ], [ [ -74.053944279229384, 40.832702715285293 ], [ -74.053944279229384, 40.832702715285293 ] ], [ [ -74.054013590677982, 40.82907901549158 ], [ -74.054013590677982, 40.82907901549158 ] ], [ [ -74.070416979979711, 40.604981150378968 ], [ -74.070416979979711, 40.604981150378968 ] ], [ [ -74.074858468569929, 40.606900758458387 ], [ -74.074858468569929, 40.606900758458387 ] ], [ [ -74.218144388395729, 40.875206372962445 ], [ -74.22278056251497, 40.880986612419029 ], [ -74.222462606304163, 40.881237832606864 ], [ -74.213602751839204, 40.877471684914724 ], [ -74.209321806972213, 40.87506035823754 ], [ -74.204760599459661, 40.873358691411745 ], [ -74.204628525420347, 40.873184437959573 ], [ -74.205006239938953, 40.869082138860442 ], [ -74.205374088215166, 40.868944507232413 ], [ -74.209482501536343, 40.871010756305374 ], [ -74.218144388395729, 40.875206372962445 ] ], [ [ -74.231252575203783, 40.877088581589369 ], [ -74.231657306797729, 40.877030700243267 ], [ -74.24044361296275, 40.884839086699756 ], [ -74.240182374841496, 40.885125531943608 ], [ -74.235385164309164, 40.883808928529902 ], [ -74.231367697946595, 40.881341562737518 ], [ -74.23128012518184, 40.881203172541078 ], [ -74.231252575203783, 40.877088581589369 ] ], [ [ -74.344473072974694, 40.595188000234423 ], [ -74.344010746660757, 40.595145227279318 ], [ -74.34369366303379, 40.59048192676579 ], [ -74.344165722563147, 40.590463064145077 ], [ -74.344473072974694, 40.595188000234423 ] ] ] } },
{ "type": "Feature", "properties": { "site_id": "ETIHAD_PARK", "site_label": "future", "site_name": "Etihad Park", "travel_time_minutes": 30.0 }, "geometry": { "type": "MultiLineString", "coordinates": [ [ [ -73.770553184335057, 40.764239780829087 ], [ -73.770553184335057, 40.764239780829087 ] ], [ [ -73.931116029937371, 40.742062540691791 ], [ -73.931248776281819, 40.74222961138733 ], [ -73.931100990035105, 40.746113811859558 ], [ -73.930907473568297, 40.746285732153154 ], [ -73.917742810349566, 40.748145205080235 ], [ -73.90428306039432, 40.753876665723539 ], [ -73.886458817335949, 40.757707575012986 ], [ -73.873250657925269, 40.759624874774367 ], [ -73.868640903893336, 40.769014906161367 ], [ -73.86826365686322, 40.769088015375345 ], [ -73.864369763060694, 40.766520815296964 ], [ -73.861038400409342, 40.764740167628403 ], [ -73.841873257490363, 40.768704282976444 ], [ -73.837413199457473, 40.77447260101296 ], [ -73.835180077089689, 40.775773979042263 ], [ -73.834866219557512, 40.775755130200189 ], [ -73.828429051116387, 40.770662166234764 ], [ -73.815366742218146, 40.768528234538898 ], [ -73.802100592983919, 40.766580759067139 ], [ -73.788466158783848, 40.764416552923763 ], [ -73.788277949531476, 40.764231193089209 ], [ -73.788537463454844, 40.760289193813172 ], [ -73.788732529909552, 40.760120836470101 ], [ -73.801877463094598, 40.758338751816119 ], [ -73.81959743827754, 40.750595409769318 ], [ -73.824256770791777, 40.741131331021151 ], [ -73.824437998968634, 40.741017006323467 ], [ -73.838081263567119, 40.739210710589504 ], [ -73.851220607675813, 40.737749037097039 ], [ -73.860075606780825, 40.737509042181983 ], [ -73.868961856736661, 40.737551942349569 ], [ -73.877851691703157, 40.73794499901615 ], [ -73.895813589181188, 40.73784194254344 ], [ -73.899961763515662, 40.739786791751399 ], [ -73.917529433435845, 40.739902843229686 ], [ -73.931116029937371, 40.742062540691791 ] ], [ [ -73.84235524210483, 40.721918617735739 ], [ -73.84235524210483, 40.721918617735739 ] ], [ [ -73.845879193596758, 40.77448292923885 ], [ -73.845879193596758, 40.77448292923885 ] ], [ [ -73.912849383926797, 40.757595958713985 ], [ -73.912849383926797, 40.757595958713985 ] ], [ [ -73.93957890832128, 40.750067215338653 ], [ -73.93957890832128, 40.750067215338653 ] ] ] } },
{ "type": "Feature", "properties": { "site_id": "ETIHAD_PARK", "site_label": "future", "site_name": "Etihad Park", "travel_time_minutes": 45.0 }, "geometry": { "type": "MultiLineString", "coordinates": [ [ [ -73.699002868137043, 40.794302851585812 ], [ -73.703614303376, 40.796310956922596 ], [ -73.70361175791146, 40.79662315759473 ], [ -73.699123150520421, 40.798560061989612 ], [ -73.698871786900312, 40.798551848928689 ], [ -73.69442128194531, 40.796226243725599 ], [ -73.694454838195412, 40.795914731275467 ], [ -73.699002868137043, 40.794302851585812 ] ], [ [ -73.698879734504686, 40.810356658763418 ], [ -73.698772121617424, 40.810621086629091 ], [ -73.694346612301104, 40.812022489950479 ], [ -73.694018875243898, 40.811843537459822 ], [ -73.694364788389365, 40.808113438361879 ], [ -73.694743715605242, 40.807982067202246 ], [ -73.698879734504686, 40.810356658763418 ] ], [ [ -73.730404572128094, 40.792503046453078 ], [ -73.730062980925737, 40.792644131745639 ], [ -73.725701857223441, 40.790986466109089 ], [ -73.721288504905644, 40.789161593268808 ], [ -73.716913199468749, 40.786992388327711 ], [ -73.716921560284874, 40.786686652123208 ], [ -73.721359553378576, 40.784680756631175 ], [ -73.721610569694505, 40.784684896898817 ], [ -73.725694620088248, 40.786718110664189 ], [ -73.726049579037038, 40.782898307540812 ], [ -73.726424775561441, 40.782764956840126 ], [ -73.730363271677135, 40.784927152094681 ], [ -73.730461319438618, 40.785065830483106 ], [ -73.730680133872241, 40.789127930252725 ], [ -73.730404572128094, 40.792503046453078 ] ], [ [ -73.993198749481422, 40.758525706528822 ], [ -73.988671978194787, 40.764276879864006 ], [ -73.984079261699094, 40.766382894330278 ], [ -73.979409837869724, 40.768333335777584 ], [ -73.961730994882871, 40.772021944764383 ], [ -73.961547763309838, 40.772003318259536 ], [ -73.957255609346603, 40.770075332133572 ], [ -73.948081428916637, 40.765568831932001 ], [ -73.917336449116348, 40.771489754447451 ], [ -73.886186852484386, 40.773196562840113 ], [ -73.87466839444906, 40.775695880672927 ], [ -73.8538715699016, 40.793994490319477 ], [ -73.846258072450809, 40.796029788132373 ], [ -73.841036848291992, 40.796300781429466 ], [ -73.814766636167434, 40.791864747642492 ], [ -73.783693869939839, 40.781918640293789 ], [ -73.74830243396174, 40.77767030365689 ], [ -73.744166019513528, 40.778323146215229 ], [ -73.738273806357682, 40.776806942181786 ], [ -73.738136282678326, 40.776714469520485 ], [ -73.734860995705091, 40.771544063715503 ], [ -73.734871398926217, 40.771373085805493 ], [ -73.739510364125252, 40.765529750462321 ], [ -73.762024283856604, 40.752422171923342 ], [ -73.793247602089096, 40.738603454250331 ], [ -73.802128564655192, 40.731144591538893 ], [ -73.802630882828993, 40.707869681169207 ], [ -73.798447622193308, 40.701874692476551 ], [ -73.798540772883072, 40.701633120991197 ], [ -73.803038865429016, 40.699710225356021 ], [ -73.807501859948786, 40.697942646916921 ], [ -73.816252553784906, 40.698534729180501 ], [ -73.829755649181919, 40.700126738761448 ], [ -73.851602517966967, 40.710105715522502 ], [ -73.856123753154307, 40.712425726220943 ], [ -73.873678205303889, 40.720138711044342 ], [ -73.895131641766753, 40.722661656695145 ], [ -73.90472086149461, 40.722355595234305 ], [ -73.904850986791473, 40.722380365698342 ], [ -73.918019375069832, 40.728280522738238 ], [ -73.949106493198826, 40.722691072505434 ], [ -73.949284271053656, 40.722712569976835 ], [ -73.953739314257732, 40.724806268544953 ], [ -73.958024074281198, 40.730661394873728 ], [ -73.98446832827554, 40.74256754506915 ], [ -73.993194828594341, 40.750906960668459 ], [ -73.99324620811511, 40.751019564889752 ], [ -73.993198749481422, 40.758525706528822 ] ], [ [ -73.838493152743311, 40.700155317528065 ], [ -73.838493152743311, 40.700155317528065 ] ], [ [ -73.992915397838303, 40.742619261481913 ], [ -73.992915397838303, 40.742619261481913 ] ] ] } },
{ "type": "Feature", "properties": { "site_id": "ETIHAD_PARK", "site_label": "future", "site_name": "Etihad Park", "travel_time_minutes": 60.0 }, "geometry": { "type": "MultiLineString", "coordinates": [ [ [ -73.965710597095381, 40.808984804669429 ], [ -73.961135097571272, 40.811081719460084 ], [ -73.925357521967541, 40.822254946187769 ], [ -73.925060737482625, 40.822176679579727 ], [ -73.912092483160521, 40.804671559774761 ], [ -73.853707817915449, 40.794064792556227 ], [ -73.848733226510163, 40.795492148562808 ], [ -73.846225271770834, 40.79603648770491 ], [ -73.821263107505629, 40.799698896449875 ], [ -73.812090153691031, 40.798116726207873 ], [ -73.776439734005848, 40.796198908899939 ], [ -73.734672986558039, 40.798937241917777 ], [ -73.69867935595579, 40.829668653278539 ], [ -73.694039819199787, 40.835545054816535 ], [ -73.689441179990411, 40.83740271725793 ], [ -73.689217455167878, 40.837401188003398 ], [ -73.6848341989228, 40.835581414189377 ], [ -73.68043329323929, 40.83344580928015 ], [ -73.680323826447065, 40.833292092899278 ], [ -73.680704316364626, 40.809437365282498 ], [ -73.680949205983055, 40.802400038344736 ], [ -73.681434172209407, 40.798373367583444 ], [ -73.689888201645871, 40.785613883388294 ], [ -73.689954485475937, 40.78555263628467 ], [ -73.73059540734566, 40.761537193129833 ], [ -73.740087415732376, 40.726711541983285 ], [ -73.740142448569131, 40.726628287465196 ], [ -73.75842003362115, 40.711008734577582 ], [ -73.785541790306681, 40.672460870564386 ], [ -73.785753503712542, 40.672365754808609 ], [ -73.794782816370173, 40.672458654489091 ], [ -73.821240430902151, 40.676498053404771 ], [ -73.847481678417452, 40.684938631971356 ], [ -73.852164675361465, 40.686708841687768 ], [ -73.856786097271268, 40.688552751465728 ], [ -73.896488973265605, 40.699238608874417 ], [ -73.945086338352965, 40.689551818985862 ], [ -73.949563225559203, 40.687670497005264 ], [ -73.958609497170585, 40.683696357908261 ], [ -73.976361949403156, 40.683917556738947 ], [ -73.989758451603834, 40.686178492460229 ], [ -74.015326929334265, 40.700890060928216 ], [ -74.017041644762756, 40.702366967625444 ], [ -74.019158389195908, 40.704783299571872 ], [ -74.011492930056761, 40.748676674316656 ], [ -74.010917832480445, 40.7510654635199 ], [ -74.01012370348181, 40.753026996649133 ], [ -74.007085630898402, 40.759289365048488 ], [ -74.00139213569895, 40.767003523319879 ], [ -73.991603557393447, 40.779842906447527 ], [ -73.978935483617633, 40.794997328486154 ], [ -73.965710597095381, 40.808984804669429 ] ], [ [ -73.713694146658355, 40.722312795700837 ], [ -73.713694146658355, 40.722312795700837 ] ], [ [ -73.722489847590396, 40.718565711872898 ], [ -73.722489847590396, 40.718565711872898 ] ], [ [ -73.735754319565473, 40.712894545303143 ], [ -73.736183800328021, 40.7128602417894 ], [ -73.740719312732324, 40.718786234016946 ], [ -73.740629764453146, 40.719034355479032 ], [ -73.736128456893596, 40.720938459807634 ], [ -73.735776650889832, 40.720777657592798 ], [ -73.73586897119884, 40.716992275841882 ], [ -73.735754319565473, 40.712894545303143 ] ], [ [ -73.867524425177791, 40.834890170887832 ], [ -73.867338018971907, 40.835180355507035 ], [ -73.858322706562575, 40.835217413888351 ], [ -73.845062772916435, 40.8332485082625 ], [ -73.840641315157271, 40.831437535509657 ], [ -73.835638081910119, 40.828757664041838 ], [ -73.826826379058488, 40.825232699915986 ], [ -73.826766114732706, 40.82494829623888 ], [ -73.836519715467801, 40.817257510535661 ], [ -73.836873836522344, 40.817268233279066 ], [ -73.845384404293398, 40.825148206239191 ], [ -73.849899335876884, 40.827054836154105 ], [ -73.854176374288969, 40.82908739811176 ], [ -73.862954270259152, 40.8331096231638 ], [ -73.867524425177791, 40.834890170887832 ] ], [ [ -73.843107924025574, 40.678901733238291 ], [ -73.843107924025574, 40.678901733238291 ] ], [ [ -73.924764170153765, 40.82961148981444 ], [ -73.924764170153765, 40.82961148981444 ] ], [ [ -73.942816336066315, 40.82611181154428 ], [ -73.942816336066315, 40.82611181154428 ] ], [ [ -73.947508662060045, 40.816118120404802 ], [ -73.947508662060045, 40.816118120404802 ] ], [ [ -73.95634984990474, 40.81653473660181 ], [ -73.95634984990474, 40.81653473660181 ] ], [ [ -74.022108651108823, 40.759324158527598 ], [ -74.022108651108823, 40.759324158527598 ] ], [ [ -74.023707020266656, 40.768437461247679 ], [ -74.023707020266656, 40.768437461247679 ] ], [ [ -74.028321758207639, 40.754697070020782 ], [ -74.028321758207639, 40.754697070020782 ] ], [ [ -74.028137208758679, 40.770363969325153 ], [ -74.028137208758679, 40.770363969325153 ] ], [ [ -74.028317045792676, 40.758615669922769 ], [ -74.028317045792676, 40.758615669922769 ] ] ] } },
{ "type": "Feature", "properties": { "site_id": "ETIHAD_PARK", "site_label": "future", "site_name": "Etihad Park", "travel_time_minutes": 90.0 }, "geometry": { "type": "MultiLineString", "coordinates": [ [ [ -73.931301901819324, 40.872380832423524 ], [ -73.897584769561703, 40.89613067799867 ], [ -73.897486116011379, 40.896172337988048 ], [ -73.879516392214711, 40.899908095227516 ], [ -73.856915131195976, 40.901136297715709 ], [ -73.852522029717264, 40.899366715503362 ], [ -73.834345340081356, 40.888176331889575 ], [ -73.830680364726035, 40.88943770134086 ], [ -73.826215755238351, 40.888137697954384 ], [ -73.826174471307553, 40.887816972175834 ], [ -73.830450033425805, 40.885777349221684 ], [ -73.808616282729787, 40.872325104064906 ], [ -73.795493794865195, 40.866007934848191 ], [ -73.791787659631467, 40.861350508494226 ], [ -73.791771048790281, 40.861190671827217 ], [ -73.794245325323587, 40.856520029917966 ], [ -73.797914721307194, 40.809420824792149 ], [ -73.734657449988106, 40.79896465161228 ], [ -73.704443727574002, 40.829776426586058 ], [ -73.701999586218804, 40.835834386526436 ], [ -73.698465485834674, 40.837926602991878 ], [ -73.694131687895251, 40.839480742266296 ], [ -73.689628458372113, 40.841164973730159 ], [ -73.68033293331672, 40.84085057250482 ], [ -73.680141830186813, 40.840765453400437 ], [ -73.675918340260836, 40.83558584624749 ], [ -73.675844855015853, 40.831345919462265 ], [ -73.676022183054144, 40.823469420255535 ], [ -73.676229037304296, 40.816074630010192 ], [ -73.676619758254674, 40.808061638594303 ], [ -73.676453739589277, 40.803837806959685 ], [ -73.681047388211738, 40.794398649507492 ], [ -73.639111039275704, 40.74532521387794 ], [ -73.639076803601967, 40.745194235308141 ], [ -73.644618405458374, 40.722470425013626 ], [ -73.652513149616397, 40.663299559527609 ], [ -73.649347647913331, 40.658698200595538 ], [ -73.649272418657674, 40.657339076679136 ], [ -73.706901941772202, 40.628449539704512 ], [ -73.710493107320602, 40.626821941662939 ], [ -73.742068391299952, 40.634285507441568 ], [ -73.798452389306675, 40.643268369911979 ], [ -73.846830803191978, 40.645109749388709 ], [ -73.897100887036558, 40.636571552460261 ], [ -73.955168216976929, 40.607754561256371 ], [ -73.959619366793959, 40.605846942504286 ], [ -73.972800875003102, 40.60001876165105 ], [ -73.973053598775834, 40.600026230125664 ], [ -74.026193539432555, 40.627906168407321 ], [ -74.0349049259314, 40.635749194755753 ], [ -74.038845473246639, 40.639537503540723 ], [ -74.03888169509176, 40.639712382440912 ], [ -74.019909266203967, 40.678423126423354 ], [ -74.019579941279289, 40.706079634056032 ], [ -74.018327181941387, 40.715188731435454 ], [ -74.011492195929321, 40.748680546461117 ], [ -74.010917832480445, 40.7510654635199 ], [ -74.01012370348181, 40.753026996649133 ], [ -74.007085630898402, 40.759289365048488 ], [ -74.00139213569895, 40.767003523319879 ], [ -73.991605217428614, 40.779840890776413 ], [ -73.976392294463366, 40.798580494412739 ], [ -73.952177105274714, 40.851728449353814 ], [ -73.952141096722002, 40.851779213721301 ], [ -73.931301901819324, 40.872380832423524 ] ], [ [ -73.67110480951969, 40.840470450861126 ], [ -73.67110480951969, 40.840470450861126 ] ], [ [ -73.745920377838175, 40.630726150532496 ], [ -73.745741604632826, 40.631024759822907 ], [ -73.738054883970648, 40.631009759476193 ], [ -73.733094652289893, 40.628987021087028 ], [ -73.728886368916719, 40.623269070669508 ], [ -73.724971526828256, 40.625117150568599 ], [ -73.724610864257897, 40.624973292497529 ], [ -73.724348777869977, 40.621106592172218 ], [ -73.724478994596211, 40.620936224118822 ], [ -73.72906415249723, 40.61918572087599 ], [ -73.733397423163524, 40.617122711310003 ], [ -73.737919138048838, 40.615446670047142 ], [ -73.738258882156217, 40.615611845113058 ], [ -73.738176041971059, 40.619227391155853 ], [ -73.738203735958635, 40.623172689075069 ], [ -73.742291873277466, 40.629159954759842 ], [ -73.745920377838175, 40.630726150532496 ] ], [ [ -73.751653788028833, 40.605826886085239 ], [ -73.747163683026486, 40.611749045961972 ], [ -73.746722991645484, 40.61166932839771 ], [ -73.746473605479636, 40.607812971254361 ], [ -73.751379715763505, 40.601868279817431 ], [ -73.751816081624597, 40.601969148459062 ], [ -73.751653788028833, 40.605826886085239 ] ], [ [ -73.828568169247106, 40.626729334769131 ], [ -73.828201255315221, 40.626903944497656 ], [ -73.826048819387239, 40.62576994179517 ], [ -73.822172529293567, 40.620836135195077 ], [ -73.822483026120153, 40.619136642057335 ], [ -73.821615884000408, 40.614468024651636 ], [ -73.819017415292379, 40.612226793292145 ], [ -73.815553226041558, 40.607402487287736 ], [ -73.81608308982257, 40.605795655065641 ], [ -73.818800203753227, 40.600630060367457 ], [ -73.820437421426476, 40.598777955465366 ], [ -73.820756799845313, 40.598725331647984 ], [ -73.824439694776771, 40.600447427677963 ], [ -73.824542408682561, 40.600653004240456 ], [ -73.822938099239991, 40.604708817058999 ], [ -73.822852123529486, 40.606165288109175 ], [ -73.820187258231314, 40.610982591263003 ], [ -73.824070145863061, 40.615229734883464 ], [ -73.82669747464368, 40.616226458648896 ], [ -73.831274035369148, 40.615375934547792 ], [ -73.834304986600586, 40.614433586381828 ], [ -73.834620681030174, 40.614548458535538 ], [ -73.835453314471749, 40.616877623947168 ], [ -73.831645421741399, 40.621332630510615 ], [ -73.826854607261524, 40.624237486279242 ], [ -73.828568169247106, 40.626729334769131 ] ], [ [ -73.835946162830112, 40.643741137404781 ], [ -73.835001073110504, 40.643692746344605 ], [ -73.833585882952704, 40.640437943757398 ], [ -73.832905848592929, 40.638071657012809 ], [ -73.833366583469214, 40.637990250553663 ], [ -73.834076884216088, 40.640194506200267 ], [ -73.835946162830112, 40.643741137404781 ] ], [ [ -73.954779447495369, 40.596288139357441 ], [ -73.954779447495369, 40.596288139357441 ] ], [ [ -74.066839544248083, 40.889599722335916 ], [ -74.062491223943795, 40.895165087561139 ], [ -74.05773672086741, 40.897533101983647 ], [ -74.026910669052654, 40.899538183294702 ], [ -74.002129051067939, 40.907448074573409 ], [ -74.001871146040656, 40.907410937319746 ], [ -73.990329945650046, 40.898864220895895 ], [ -73.990258509165869, 40.898729012332822 ], [ -73.99044632371718, 40.894648012885469 ], [ -73.991112004077294, 40.887752564671047 ], [ -73.964571722537897, 40.859693552966263 ], [ -73.960527771198244, 40.853764702018829 ], [ -73.960510667599749, 40.853631585527388 ], [ -73.9681543295479, 40.833670301206261 ], [ -73.970966082583587, 40.826860845402372 ], [ -73.979500218625304, 40.812596361631307 ], [ -73.981896610476795, 40.808641065606032 ], [ -73.984011154729245, 40.805644102950922 ], [ -73.994281005763924, 40.79358537298333 ], [ -74.002649799599681, 40.78275740584413 ], [ -74.020422846327165, 40.752259280457309 ], [ -74.022715406064009, 40.744341316973276 ], [ -74.024727009671352, 40.737054091928734 ], [ -74.026489390296192, 40.728193227832122 ], [ -74.029806327873047, 40.71670933483459 ], [ -74.031825548408406, 40.713467052027006 ], [ -74.05296260173175, 40.707506466403039 ], [ -74.056024010371345, 40.708102714653783 ], [ -74.060473270202252, 40.710071257682685 ], [ -74.073654270171161, 40.71995113891537 ], [ -74.078498539022689, 40.726007575796608 ], [ -74.090925643755668, 40.759132452662314 ], [ -74.090928424730123, 40.759223226651521 ], [ -74.086873206953967, 40.772305200049956 ], [ -74.103455529335662, 40.804545647629787 ], [ -74.107835240961663, 40.805721797256304 ], [ -74.11247495537539, 40.808056942655384 ], [ -74.116867942476787, 40.810158979287365 ], [ -74.124648668020541, 40.821269065585781 ], [ -74.124673352088664, 40.821382793173591 ], [ -74.120794013443486, 40.839388501585752 ], [ -74.116300257670588, 40.849400868845969 ], [ -74.111808078800109, 40.851243560058684 ], [ -74.085097746734704, 40.866219061020047 ], [ -74.066839544248083, 40.889599722335916 ] ], [ [ -73.978004914582741, 40.877453205879064 ], [ -73.977626116061359, 40.877609774037076 ], [ -73.973347212162523, 40.875185268779823 ], [ -73.973251978069271, 40.875046819755248 ], [ -73.973092591206822, 40.871366519587667 ], [ -73.973537598418972, 40.87127355667387 ], [ -73.978004914582741, 40.877453205879064 ] ], [ [ -74.03064848300022, 40.622338072790633 ], [ -74.030347057011014, 40.622611391456864 ], [ -74.02136377261192, 40.618293540861153 ], [ -74.017170043296062, 40.616401534249711 ], [ -74.017410947533918, 40.616091461730292 ], [ -74.026242534635372, 40.620075152471465 ], [ -74.03064848300022, 40.622338072790633 ] ], [ [ -74.08865762598991, 40.613193655531418 ], [ -74.088297396940732, 40.613282508956182 ], [ -74.083877050918645, 40.61088926999517 ], [ -74.079109672328102, 40.605985844015372 ], [ -74.075305374778566, 40.60710376127679 ], [ -74.075240313211992, 40.610865695226259 ], [ -74.075219644654808, 40.618853893515805 ], [ -74.074855924209373, 40.619005441971971 ], [ -74.070360318369993, 40.616817237007957 ], [ -74.070251561219905, 40.616675853727003 ], [ -74.069962846498655, 40.612890062976078 ], [ -74.066002402918542, 40.610895707722896 ], [ -74.061608521745356, 40.608934569125992 ], [ -74.061635487513968, 40.60861329615296 ], [ -74.066047500554774, 40.607183329799255 ], [ -74.065567170383886, 40.603278917552352 ], [ -74.061963595810838, 40.600998417268912 ], [ -74.061891143012858, 40.600801040835449 ], [ -74.062753556323585, 40.599075168325626 ], [ -74.066526048655447, 40.597829671275562 ], [ -74.066789189919291, 40.597869181123578 ], [ -74.070774205811873, 40.60098245951221 ], [ -74.078289942043398, 40.598373717431983 ], [ -74.078617115861448, 40.598489158888469 ], [ -74.079539701840076, 40.601030954436887 ], [ -74.084012738144281, 40.606775562367034 ], [ -74.088351797519181, 40.605093018289665 ], [ -74.088574931623967, 40.605096580746043 ], [ -74.092982924736859, 40.606986976296312 ], [ -74.092980392143176, 40.607302094338337 ], [ -74.088554728282404, 40.609145753232802 ], [ -74.08865762598991, 40.613193655531418 ] ], [ [ -74.062418548461579, 40.903075227371893 ], [ -74.062418548461579, 40.903075227371893 ] ], [ [ -74.068952118579261, 40.710328441971313 ], [ -74.068952118579261, 40.710328441971313 ] ], [ [ -74.075339258556227, 40.893521050006086 ], [ -74.075339258556227, 40.893521050006086 ] ], [ [ -74.087325480736965, 40.598249981433419 ], [ -74.087325480736965, 40.598249981433419 ] ], [ [ -74.124005083021686, 40.609415029540976 ], [ -74.123997076551376, 40.609741994568594 ], [ -74.119415867337267, 40.611279298210164 ], [ -74.119216009915206, 40.61127598368649 ], [ -74.114825102054638, 40.609625179671937 ], [ -74.114933635725592, 40.609283451377166 ], [ -74.124005083021686, 40.609415029540976 ] ], [ [ -74.175773324491388, 40.73063039992693 ], [ -74.180071046085118, 40.736395831079491 ], [ -74.179979544766724, 40.73664240341315 ], [ -74.171047804258038, 40.740426032300256 ], [ -74.16644426077805, 40.742423265448117 ], [ -74.157377436316651, 40.742369365064036 ], [ -74.157168178320802, 40.742270911909792 ], [ -74.153265607604396, 40.736437308915882 ], [ -74.14357387490918, 40.736169505201936 ], [ -74.13475588602293, 40.736641643212792 ], [ -74.126000264503659, 40.735050938865349 ], [ -74.126225826778949, 40.734320188482727 ], [ -74.13231342403121, 40.730179396689437 ], [ -74.132471210561448, 40.73013352967304 ], [ -74.139906870399543, 40.730131153981546 ], [ -74.144221636412269, 40.728016639198181 ], [ -74.148800976208122, 40.726368015460679 ], [ -74.149018374991599, 40.726373896270999 ], [ -74.153367471676034, 40.728236297134018 ], [ -74.162061037200203, 40.728598484600589 ], [ -74.166563398688197, 40.726281469159872 ], [ -74.166825777671122, 40.72627993858665 ], [ -74.171195352454717, 40.728455079457333 ], [ -74.175773324491388, 40.73063039992693 ] ], [ [ -74.132110791788307, 40.609344763128618 ], [ -74.132110791788307, 40.609344763128618 ] ], [ [ -74.147239129455158, 40.835524575955596 ], [ -74.147239129455158, 40.835524575955596 ] ], [ [ -74.159466147760639, 40.617478343278442 ], [ -74.159123709713072, 40.617567542089191 ], [ -74.154616003265801, 40.61549853731637 ], [ -74.15450598465344, 40.615309523946046 ], [ -74.155502297461979, 40.611438126053145 ], [ -74.159062419866814, 40.60944742463758 ], [ -74.163565893479856, 40.603651595299176 ], [ -74.164005257531898, 40.603754356057614 ], [ -74.163665862066154, 40.607733550567325 ], [ -74.159589575294206, 40.613579003426743 ], [ -74.159466147760639, 40.617478343278442 ] ], [ [ -74.151769517035973, 40.837472583809287 ], [ -74.151769517035973, 40.837472583809287 ] ], [ [ -74.180290808781137, 40.704970255015979 ], [ -74.180331066691579, 40.705294949802671 ], [ -74.175894059828366, 40.707288354311352 ], [ -74.175655942429557, 40.707289506417936 ], [ -74.171378150645452, 40.705423049480864 ], [ -74.167025660662404, 40.707993736095901 ], [ -74.162449374806769, 40.707888910254397 ], [ -74.158071153891825, 40.707021466586895 ], [ -74.153889446832778, 40.705343062560225 ], [ -74.153973991995684, 40.705004610332637 ], [ -74.158887878953479, 40.704592811294269 ], [ -74.162438530545899, 40.70498611174289 ], [ -74.164910668666181, 40.703218592835846 ], [ -74.171782225078204, 40.703761780768708 ], [ -74.172683322322385, 40.703790148210039 ], [ -74.180290808781137, 40.704970255015979 ] ], [ [ -74.157112378094993, 40.699385134235712 ], [ -74.15675162517428, 40.699165520329721 ], [ -74.158862233029225, 40.695871724254346 ], [ -74.159287767478432, 40.696029675357352 ], [ -74.157112378094993, 40.699385134235712 ] ], [ [ -74.160401122016751, 40.841418410749171 ], [ -74.160401122016751, 40.841418410749171 ] ], [ [ -74.174576808582216, 40.745951238478064 ], [ -74.174576808582216, 40.745951238478064 ] ], [ [ -74.175850529643213, 40.695548056833239 ], [ -74.175484411277196, 40.69538654114946 ], [ -74.175779224339706, 40.691670041872726 ], [ -74.175889443974469, 40.691528401338509 ], [ -74.180247937812737, 40.68944090598518 ], [ -74.180576051628194, 40.689687250432293 ], [ -74.175850529643213, 40.695548056833239 ] ], [ [ -74.229312036038991, 40.719312540099509 ], [ -74.22430541912918, 40.721077852549762 ], [ -74.224089787634952, 40.721069906784628 ], [ -74.211128083365281, 40.715400250769171 ], [ -74.202050780546912, 40.715122333548358 ], [ -74.193551290944683, 40.715408853748279 ], [ -74.188803993853156, 40.721041800154261 ], [ -74.180238881300639, 40.725046209132167 ], [ -74.17987879785035, 40.724878646568875 ], [ -74.180295587749697, 40.721066891629803 ], [ -74.185055096467508, 40.715014176519908 ], [ -74.187124205707178, 40.710974900552699 ], [ -74.189061836883027, 40.701768807416556 ], [ -74.189116423477614, 40.701679539711442 ], [ -74.198160028451682, 40.693708353638534 ], [ -74.198457948356989, 40.693670237783259 ], [ -74.202636606017364, 40.69551451528821 ], [ -74.215817679188163, 40.697417334746277 ], [ -74.224662210173634, 40.697539692507462 ], [ -74.233483932774689, 40.693881267349781 ], [ -74.238719030203484, 40.688777721630885 ], [ -74.242609094345639, 40.686348668131416 ], [ -74.242979014253038, 40.686554531191305 ], [ -74.23825032721362, 40.695628208251762 ], [ -74.242584803927784, 40.701328953627247 ], [ -74.242516070256897, 40.701566586948914 ], [ -74.238085365156735, 40.703937392071154 ], [ -74.233719390697345, 40.705771254217382 ], [ -74.229484028430974, 40.71513419203481 ], [ -74.229312036038991, 40.719312540099509 ] ], [ [ -74.183340186922351, 40.699306440508195 ], [ -74.183340186922351, 40.699306440508195 ] ], [ [ -74.21175311219902, 40.676078191101659 ], [ -74.211835161369066, 40.680213808211747 ], [ -74.211699146813359, 40.68037806959903 ], [ -74.206780660874543, 40.682137330608377 ], [ -74.20302635819462, 40.684446259901556 ], [ -74.198368048149405, 40.685822863224594 ], [ -74.198177592246935, 40.685816445936368 ], [ -74.193816194527045, 40.684176636471548 ], [ -74.188981912599417, 40.685900855427441 ], [ -74.188645735668203, 40.685721821205533 ], [ -74.189091149038163, 40.681889322232522 ], [ -74.189208533476318, 40.681749178830849 ], [ -74.193479363484499, 40.679871257643867 ], [ -74.193669629318521, 40.67620078643094 ], [ -74.184878056747081, 40.672697426829828 ], [ -74.184858890624469, 40.672386707095896 ], [ -74.189444484472517, 40.670118512099968 ], [ -74.189721556028928, 40.67012911190789 ], [ -74.193912206786194, 40.672691078132253 ], [ -74.198363224572589, 40.67401184312547 ], [ -74.202695315846753, 40.672186557116554 ], [ -74.202933384358644, 40.672190502421302 ], [ -74.207749614969629, 40.67443352055772 ], [ -74.21175311219902, 40.676078191101659 ] ], [ [ -74.257920164307336, 40.885143289594289 ], [ -74.257920164307336, 40.885143289594289 ] ], [ [ -74.262375252710115, 40.8870854977785 ], [ -74.262375252710115, 40.8870854977785 ] ], [ [ -74.267362782917573, 40.892845784552463 ], [ -74.267362782917573, 40.892845784552463 ] ] ] } }
]
}
