{
"type": "FeatureCollection",
"name": "orlando_isochrones",
"crs": { "type": "name", "properties": { "name": "urn:ogc:def:crs:OGC:1.3:CRS84" } },
"features": [
{ "type": "Feature", "properties": { "site_label": "vzqoJrj5ap", "site_name": "Inter&Co Stadium", "travel_time_minutes": 30.0 }, "geometry": { "type": "MultiLineString", "coordinates": [ [ [ -81.354127431986626, 28.537873385112643 ], [ -81.354033324406529, 28.538027295150556 ], [ -81.349907120992853, 28.540362698481086 ], [ -81.349677380591729, 28.5403572386939 ], [ -81.346142178163944, 28.538110635654132 ], [ -81.346171005532938, 28.537802254919601 ], [ -81.349915372008695, 28.536167728831259 ], [ -81.350052030548255, 28.532732943404852 ], [ -81.349858921198006, 28.528224924975888 ], [ -81.349968670997967, 28.528058023130949 ], [ -81.353668366986909, 28.526353925701322 ], [ -81.353967321327687, 28.526513724875322 ], [ -81.353973925087985, 28.530338127103896 ], [ -81.354127431986626, 28.537873385112643 ] ], [ [ -81.427012486739443, 28.559559016954303 ], [ -81.426855701425694, 28.55984506128819 ], [ -81.41919248840172, 28.560142961925951 ], [ -81.419003897995964, 28.560048911698889 ], [ -81.415188207069718, 28.553859466863699 ], [ -81.403854364212648, 28.552028205568565 ], [ -81.400056531950199, 28.554128406059942 ], [ -81.396242949973086, 28.555827081084438 ], [ -81.392526539687097, 28.55784405719718 ], [ -81.388494493316799, 28.559836321298548 ], [ -81.380840280263669, 28.559925121573226 ], [ -81.376906014941667, 28.557873572914154 ], [ -81.36537150387646, 28.552043274546886 ], [ -81.361444493170509, 28.545986327229262 ], [ -81.361099940797146, 28.542053977665756 ], [ -81.361377156513043, 28.533906977934347 ], [ -81.361497966599373, 28.533747620857216 ], [ -81.365201386570064, 28.532283400132602 ], [ -81.369062490269002, 28.529996704913991 ], [ -81.372838864127431, 28.520281084640853 ], [ -81.376642425051514, 28.511047176163345 ], [ -81.377038890736387, 28.51110842373668 ], [ -81.377049586564098, 28.514688215402117 ], [ -81.377242256062459, 28.518578606385319 ], [ -81.380883252056591, 28.524233196592569 ], [ -81.391983550979759, 28.518182760424153 ], [ -81.391971602875145, 28.514681144215892 ], [ -81.392074307611011, 28.514523991950654 ], [ -81.395898103893018, 28.512586794805287 ], [ -81.396098896869731, 28.51258550011169 ], [ -81.399974413097127, 28.514520360420534 ], [ -81.403262820848994, 28.520475455964146 ], [ -81.403087692870542, 28.524406373372319 ], [ -81.403891895448197, 28.527717287240478 ], [ -81.415197218136328, 28.529910343113631 ], [ -81.418953559113163, 28.528150366998457 ], [ -81.422778225249772, 28.526011178512292 ], [ -81.42309194204077, 28.526168672645156 ], [ -81.422958704792137, 28.530439225584487 ], [ -81.422906424872025, 28.533902738614103 ], [ -81.419310015088897, 28.540373892688855 ], [ -81.41923319866109, 28.547820218405793 ], [ -81.419383821724935, 28.551150172790329 ], [ -81.427012486739443, 28.559559016954303 ] ], [ [ -81.39576323588922, 28.504505135545532 ], [ -81.39576323588922, 28.504505135545532 ] ] ] } },
{ "type": "Feature", "properties": { "site_label": "vzqoJrj5ap", "site_name": "Inter&Co Stadium", "travel_time_minutes": 45.0 }, "geometry": { "type": "MultiLineString", "coordinates": [ [ [ -81.284709564179408, 28.526604981224231 ], [ -81.284709564179408, 28.526604981224231 ] ], [ [ -81.288525173122565, 28.520533486516953 ], [ -81.288525173122565, 28.520533486516953 ] ], [ [ -81.288517179713395, 28.516919886425985 ], [ -81.288517179713395, 28.516919886425985 ] ], [ [ -81.434945877456755, 28.583014758753052 ], [ -81.431114998006237, 28.588951505230963 ], [ -81.430930461234254, 28.58904253450541 ], [ -81.423190277779341, 28.588794932775869 ], [ -81.415272050265258, 28.585028801509495 ], [ -81.38853051478786, 28.579321875812212 ], [ -81.372957504775599, 28.575492511666749 ], [ -81.365438215746806, 28.571529633145364 ], [ -81.360852784053392, 28.569038612407716 ], [ -81.342327785266406, 28.552073592614494 ], [ -81.33077854138827, 28.5377446244464 ], [ -81.315461555267163, 28.526834887168516 ], [ -81.29782248195643, 28.520952896538724 ], [ -81.29769679246165, 28.520829179226599 ], [ -81.296643598703554, 28.517230177669688 ], [ -81.296837372330373, 28.517004497382814 ], [ -81.318657020056023, 28.516613490203472 ], [ -81.330858537153915, 28.51466588875288 ], [ -81.343353714125783, 28.512635841464135 ], [ -81.349926680346314, 28.512791932313029 ], [ -81.368826774780942, 28.494220511729008 ], [ -81.365007208178127, 28.489275865671157 ], [ -81.363889329060314, 28.487675389584172 ], [ -81.365003855154285, 28.473266475311096 ], [ -81.364936119044259, 28.454143477779571 ], [ -81.365336780863771, 28.454093174783161 ], [ -81.367843355173079, 28.461824529586949 ], [ -81.369145272375718, 28.463931075722687 ], [ -81.395923061140692, 28.473237480878606 ], [ -81.399796378795841, 28.475332427715486 ], [ -81.403679078286203, 28.477794193931359 ], [ -81.411442079539029, 28.485196185492978 ], [ -81.415267412391813, 28.494372429726251 ], [ -81.426832198871381, 28.516332274697525 ], [ -81.430618820858371, 28.518437550286905 ], [ -81.43423969814117, 28.520246502845904 ], [ -81.453570297333613, 28.523337248199638 ], [ -81.458530365509134, 28.524145056068647 ], [ -81.461342852945407, 28.526272279560921 ], [ -81.461375729291419, 28.526512580774433 ], [ -81.450312540652263, 28.540358394043697 ], [ -81.44583363646197, 28.545873590404458 ], [ -81.434751517421489, 28.56711748732242 ], [ -81.434945877456755, 28.583014758753052 ] ], [ [ -81.360362097423277, 28.451325357106953 ], [ -81.360362097423277, 28.451325357106953 ] ], [ [ -81.464799776368736, 28.520261637447398 ], [ -81.464799776368736, 28.520261637447398 ] ] ] } },
{ "type": "Feature", "properties": { "site_label": "vzqoJrj5ap", "site_name": "Inter&Co Stadium", "travel_time_minutes": 60.0 }, "geometry": { "type": "MultiLineString", "coordinates": [ [ [ -81.514992981216722, 28.541678680115673 ], [ -81.515060603757647, 28.541973801061342 ], [ -81.506787703999848, 28.549261909723604 ], [ -81.506590779494516, 28.549308577237422 ], [ -81.491885286297432, 28.545856494730721 ], [ -81.468923349184521, 28.548728992195148 ], [ -81.461489102413083, 28.549796659100608 ], [ -81.450127128007566, 28.555085575540911 ], [ -81.44629612206532, 28.577445321170398 ], [ -81.446405292011903, 28.581124756393862 ], [ -81.446277148917915, 28.585070550711695 ], [ -81.436737952794189, 28.594797261379036 ], [ -81.43661295093095, 28.594857728401134 ], [ -81.423190128803171, 28.596592631527006 ], [ -81.415895405749424, 28.596551453012861 ], [ -81.396887603606189, 28.593009506747617 ], [ -81.377107923451689, 28.585257355321819 ], [ -81.354226006391002, 28.596893936922452 ], [ -81.353977359957938, 28.596863462915632 ], [ -81.334752745232876, 28.579438252169783 ], [ -81.331687699672671, 28.57700770307018 ], [ -81.326905412867333, 28.567566996483649 ], [ -81.326968447634343, 28.563706438774151 ], [ -81.326835908547366, 28.559841899896966 ], [ -81.32697065119838, 28.555938827721523 ], [ -81.31548170590429, 28.538289045370146 ], [ -81.292667558843533, 28.538994875490893 ], [ -81.28107199206471, 28.552195956602201 ], [ -81.277526368435659, 28.55805735565983 ], [ -81.277307961696181, 28.558149687411348 ], [ -81.254268924353738, 28.554296481300657 ], [ -81.254159707387899, 28.553993874571944 ], [ -81.273372593441991, 28.536372374766078 ], [ -81.280782095325023, 28.516853517476893 ], [ -81.284665397497065, 28.507149435417752 ], [ -81.284879249950862, 28.507030029392364 ], [ -81.289559971351011, 28.507460110941032 ], [ -81.31147676004025, 28.50901634332595 ], [ -81.330768696811461, 28.5068518287956 ], [ -81.33800468002228, 28.503271141176892 ], [ -81.355576164987383, 28.480174337378511 ], [ -81.338174050075693, 28.45607027348067 ], [ -81.330294197150891, 28.448686975129039 ], [ -81.330265834254135, 28.448472923351741 ], [ -81.334239141133779, 28.442381628381064 ], [ -81.334414831085056, 28.442291262577172 ], [ -81.365158452859433, 28.442121271702064 ], [ -81.396200601826393, 28.446351765200117 ], [ -81.399665173325516, 28.448044581499104 ], [ -81.403565596689418, 28.450066964876111 ], [ -81.426569908248098, 28.468991132083559 ], [ -81.434027269853686, 28.469459214798103 ], [ -81.438326075464559, 28.4713715127738 ], [ -81.442151225331912, 28.473380668990078 ], [ -81.457861025006594, 28.492867440028384 ], [ -81.463905351542209, 28.495925650685326 ], [ -81.472825163720671, 28.508519939344538 ], [ -81.472856281790939, 28.508616659179825 ], [ -81.472808566114196, 28.516551090568306 ], [ -81.49585349960681, 28.535920357844635 ], [ -81.503064697011652, 28.537988718721621 ], [ -81.514992981216722, 28.541678680115673 ] ], [ [ -81.308226717859839, 28.558023383178213 ], [ -81.308226717859839, 28.558023383178213 ] ], [ [ -81.311658220321121, 28.555991588163838 ], [ -81.311658220321121, 28.555991588163838 ] ], [ [ -81.317706109065341, 28.443955178030787 ], [ -81.317570444805924, 28.444211587483171 ], [ -81.315706041910801, 28.444601588140749 ], [ -81.315458771174235, 28.444461609194544 ], [ -81.314765776637444, 28.441425908147426 ], [ -81.31512129783043, 28.441272925799662 ], [ -81.317706109065341, 28.443955178030787 ] ], [ [ -81.327568924060131, 28.579054957698151 ], [ -81.327638911121539, 28.579199330639909 ], [ -81.327438718595928, 28.583071430875666 ], [ -81.327138990249324, 28.583222890979638 ], [ -81.323293942687627, 28.58143275131496 ], [ -81.319431238831299, 28.579459148473852 ], [ -81.319452039673564, 28.579137377226033 ], [ -81.323410834700383, 28.577615479611897 ], [ -81.32356931322866, 28.577613679416771 ], [ -81.327568924060131, 28.579054957698151 ] ], [ [ -81.424360388175842, 28.608178443480107 ], [ -81.423993481988873, 28.608267490907281 ], [ -81.419168185644935, 28.602603385138931 ], [ -81.419432390594736, 28.602337748589996 ], [ -81.423244386659704, 28.604239945844068 ], [ -81.423342725321504, 28.604355349600969 ], [ -81.424360388175842, 28.608178443480107 ] ], [ [ -81.453136509040263, 28.479286493481943 ], [ -81.453136509040263, 28.479286493481943 ] ], [ [ -81.456950003960657, 28.481211499116824 ], [ -81.456950003960657, 28.481211499116824 ] ], [ [ -81.530458128031285, 28.549255853453769 ], [ -81.530523161372201, 28.549387470425238 ], [ -81.530533268613411, 28.553136170314215 ], [ -81.530241602316025, 28.553299894614771 ], [ -81.526485761252985, 28.551736298318936 ], [ -81.522436811328916, 28.553366454939734 ], [ -81.518688346446041, 28.555534616306257 ], [ -81.518472833068202, 28.555539315497011 ], [ -81.514707229339535, 28.553588712718426 ], [ -81.514706973599601, 28.553277420058226 ], [ -81.518582966574257, 28.55126276449008 ], [ -81.518502479279789, 28.547578682020873 ], [ -81.518609063915022, 28.547416675943033 ], [ -81.522888659512972, 28.545357279037631 ], [ -81.523096877333316, 28.545363834320604 ], [ -81.526566173847399, 28.547328486699016 ], [ -81.530458128031285, 28.549255853453769 ] ] ] } }
]
}
