{
"type": "FeatureCollection",
"name": "portland_isochrones",
"crs": { "type": "name", "properties": { "name": "urn:ogc:def:crs:OGC:1.3:CRS84" } },
"features": [
{ "type": "Feature", "properties": { "site_label": "p6qbX06M0G", "site_name": "Providence Park", "travel_time_minutes": 30.0 }, "geometry": { "type": "MultiLineString", "coordinates": [ [ [ -122.790486885601851, 45.509921862222953 ], [ -122.79058042348025, 45.510063671316061 ], [ -122.790497441302648, 45.513995471531885 ], [ -122.790238372810236, 45.514172818094224 ], [ -122.761656575164167, 45.513931672806301 ], [ -122.74732991031604, 45.519228647651822 ], [ -122.742525674634408, 45.521617154088055 ], [ -122.733834546058745, 45.520915040356698 ], [ -122.708979995238423, 45.535184413138943 ], [ -122.699053263190407, 45.542665385981451 ], [ -122.69893008960652, 45.542716887043014 ], [ -122.665733293672957, 45.548748505241235 ], [ -122.665448095365946, 45.548665172622187 ], [ -122.65084526541564, 45.531137576293283 ], [ -122.636599116337052, 45.52915823981013 ], [ -122.622092387754208, 45.523640224392729 ], [ -122.622080180979879, 45.523328530192735 ], [ -122.641130257408776, 45.515071014906589 ], [ -122.650997225518068, 45.511353397096606 ], [ -122.670241361912076, 45.50006258339458 ], [ -122.670482431313445, 45.500029112979306 ], [ -122.694578394256382, 45.505372534710808 ], [ -122.713482796677965, 45.50569072062531 ], [ -122.718461548738375, 45.507639917432414 ], [ -122.747379768756929, 45.512232798718863 ], [ -122.766151598161642, 45.507735995243031 ], [ -122.780701970107359, 45.505961214476123 ], [ -122.785379292900913, 45.507739217427691 ], [ -122.790486885601851, 45.509921862222953 ] ], [ [ -122.809746736211963, 45.490428035214222 ], [ -122.809736021257038, 45.490738013660106 ], [ -122.805138412414308, 45.49254221861554 ], [ -122.804894314303766, 45.492544250990534 ], [ -122.799799803974565, 45.490654845701336 ], [ -122.799663304761523, 45.49049145594708 ], [ -122.799792822664699, 45.486534956264755 ], [ -122.800176840631721, 45.486383256438813 ], [ -122.804979544049814, 45.488337040823389 ], [ -122.809746736211963, 45.490428035214222 ] ], [ [ -122.823804665101051, 45.496077193414081 ], [ -122.823804665101051, 45.496077193414081 ] ], [ [ -122.833381841257278, 45.500372014623878 ], [ -122.833381841257278, 45.500372014623878 ] ] ] } },
{ "type": "Feature", "properties": { "site_label": "p6qbX06M0G", "site_name": "Providence Park", "travel_time_minutes": 45.0 }, "geometry": { "type": "MultiLineString", "coordinates": [ [ [ -122.848140709350503, 45.533429507749915 ], [ -122.84797315307938, 45.533515615664449 ], [ -122.833692210621351, 45.535698122344648 ], [ -122.82382697185605, 45.535279457995749 ], [ -122.804652883548002, 45.531624398581819 ], [ -122.762029039633148, 45.529440938280004 ], [ -122.751796896034776, 45.529777503499723 ], [ -122.708898171418454, 45.549846740770427 ], [ -122.689433854752465, 45.57013971514187 ], [ -122.684315416570755, 45.572201834393908 ], [ -122.669814572573358, 45.574113640218286 ], [ -122.669636057370482, 45.574091342980616 ], [ -122.660259873555489, 45.570165908160199 ], [ -122.621956711059795, 45.558454665800731 ], [ -122.57857866041094, 45.556264460862167 ], [ -122.578375569258796, 45.556175393194422 ], [ -122.559070630487966, 45.532839756352537 ], [ -122.554818358552197, 45.522926481671718 ], [ -122.554804310717373, 45.519018504760886 ], [ -122.554899444753957, 45.518878374030521 ], [ -122.579008323528441, 45.505177107591336 ], [ -122.579092564433807, 45.505145347085914 ], [ -122.622333166897135, 45.495583448238349 ], [ -122.641373450738456, 45.487954033999102 ], [ -122.67520657526039, 45.466773533103201 ], [ -122.684885411352411, 45.462718446873012 ], [ -122.704143957999449, 45.458598059156586 ], [ -122.713479461290362, 45.458892961717552 ], [ -122.713653754209531, 45.458949312562403 ], [ -122.747566146736304, 45.484251478616407 ], [ -122.781389996024402, 45.482856695859283 ], [ -122.804937127243818, 45.468872645999426 ], [ -122.805262311704041, 45.468869772807054 ], [ -122.829417994974378, 45.482499314714723 ], [ -122.852823751893339, 45.488149809315239 ], [ -122.872274934357662, 45.496132312478345 ], [ -122.872349848598745, 45.496396605341957 ], [ -122.85758582835723, 45.510079915531421 ], [ -122.848140709350503, 45.533429507749915 ] ], [ [ -122.564150536355626, 45.558009745342218 ], [ -122.564150536355626, 45.558009745342218 ] ], [ [ -122.6418993678151, 45.472340236564236 ], [ -122.646940734437592, 45.474255644801076 ], [ -122.646940938699643, 45.474571276438382 ], [ -122.64209322919244, 45.476445381587936 ], [ -122.637660690221267, 45.477717883874043 ], [ -122.632341775664358, 45.476552080319593 ], [ -122.632162003265066, 45.476379813354043 ], [ -122.632173920922355, 45.472478213435615 ], [ -122.632560015464108, 45.472323624270871 ], [ -122.636979109174547, 45.474161518958525 ], [ -122.6418993678151, 45.472340236564236 ] ], [ [ -122.63684851171945, 45.462653083804888 ], [ -122.63684851171945, 45.462653083804888 ] ], [ [ -122.641598411186621, 45.464246501563075 ], [ -122.641598411186621, 45.464246501563075 ] ], [ [ -122.698601300258247, 45.569978616871502 ], [ -122.698601300258247, 45.569978616871502 ] ], [ [ -122.876927287385811, 45.517620130245596 ], [ -122.8768634518227, 45.517924541272599 ], [ -122.872056740203448, 45.519351845411592 ], [ -122.867161244651157, 45.517929130234208 ], [ -122.867006524502273, 45.517762086504618 ], [ -122.867058541923399, 45.513920486639662 ], [ -122.867438259493483, 45.513764552631983 ], [ -122.872101313260387, 45.515572520231558 ], [ -122.876927287385811, 45.517620130245596 ] ], [ [ -122.881317202381553, 45.496210298459332 ], [ -122.881317202381553, 45.496210298459332 ] ], [ [ -122.891427700925306, 45.527647550288144 ], [ -122.891007972767582, 45.527715018740871 ], [ -122.887318872395738, 45.52518331301944 ], [ -122.886500200419562, 45.521905564893892 ], [ -122.886626381119768, 45.521719771138031 ], [ -122.891400772135455, 45.519812676365234 ], [ -122.891782945653063, 45.519979886622743 ], [ -122.891482760993142, 45.523528467273962 ], [ -122.891427700925306, 45.527647550288144 ] ], [ [ -122.914926568542214, 45.529349554243552 ], [ -122.914926568542214, 45.529349554243552 ] ] ] } },
{ "type": "Feature", "properties": { "site_label": "p6qbX06M0G", "site_name": "Providence Park", "travel_time_minutes": 60.0 }, "geometry": { "type": "MultiLineString", "coordinates": [ [ [ -122.954048933780683, 45.527831787488701 ], [ -122.951294752944023, 45.532480341282998 ], [ -122.951157090295652, 45.532576791091032 ], [ -122.934419669274405, 45.5374725837463 ], [ -122.900788171535226, 45.543359301727264 ], [ -122.89150308953694, 45.543529630169878 ], [ -122.881598189551127, 45.543531159665129 ], [ -122.838445952311503, 45.541326424349073 ], [ -122.823848260400936, 45.543202096620995 ], [ -122.809501522258643, 45.541358045587259 ], [ -122.790630004690883, 45.537380130908701 ], [ -122.738437857764779, 45.557835336804693 ], [ -122.751859349833609, 45.587756592467052 ], [ -122.751615227816188, 45.587990727850546 ], [ -122.703591982092817, 45.588036893170795 ], [ -122.689073351283895, 45.591819320394173 ], [ -122.683300117571562, 45.593512368220047 ], [ -122.684521992554878, 45.594901616239511 ], [ -122.684196414503702, 45.595159682310609 ], [ -122.681100429127568, 45.594157340959825 ], [ -122.669757290106958, 45.597488644453364 ], [ -122.664801334329781, 45.596295888704169 ], [ -122.655042123773924, 45.588903874305529 ], [ -122.612722630596366, 45.573867515623888 ], [ -122.573800804136937, 45.582006152765913 ], [ -122.573588736244744, 45.581984886792085 ], [ -122.554577606789195, 45.573371463781875 ], [ -122.554466824142054, 45.573260666535582 ], [ -122.549947002857564, 45.559496729395114 ], [ -122.52078343190081, 45.52482578326768 ], [ -122.507099124936587, 45.522859362391408 ], [ -122.497411721007381, 45.522834533043763 ], [ -122.487502559332057, 45.522948103700649 ], [ -122.487242722355418, 45.522757703333774 ], [ -122.487585741159094, 45.518589204175576 ], [ -122.487796882265513, 45.518422313503258 ], [ -122.502197838355158, 45.516634218875545 ], [ -122.511729064982987, 45.516557390156251 ], [ -122.560549024407521, 45.49755638642791 ], [ -122.569472704998802, 45.489944039467638 ], [ -122.579130398632131, 45.478053997602011 ], [ -122.579227348865714, 45.477986307726198 ], [ -122.603237676318699, 45.468501562087603 ], [ -122.627401018095512, 45.435376146598813 ], [ -122.627458926220427, 45.427749837913936 ], [ -122.632297675005788, 45.421922864885353 ], [ -122.632643137324067, 45.421857349174289 ], [ -122.641655727879851, 45.425423152640164 ], [ -122.675489887790391, 45.439298759695554 ], [ -122.733080222124514, 45.439444434333986 ], [ -122.757037437514825, 45.437524425491432 ], [ -122.757162518157415, 45.437536468304053 ], [ -122.790446236390196, 45.447034340428871 ], [ -122.810188906254169, 45.459105998493996 ], [ -122.867329004646422, 45.466984014248638 ], [ -122.877038469121217, 45.470991048839039 ], [ -122.920145518221716, 45.496314878615379 ], [ -122.944079767281451, 45.502208073671682 ], [ -122.944242335752833, 45.502330991252315 ], [ -122.954048933780683, 45.527831787488701 ] ], [ [ -122.587262620726335, 45.58433085897434 ], [ -122.587262620726335, 45.58433085897434 ] ], [ [ -122.58880493773195, 45.466296563204907 ], [ -122.58880493773195, 45.466296563204907 ] ], [ [ -122.594225767807828, 45.59120734885839 ], [ -122.59384961594651, 45.591129733634318 ], [ -122.592678522255696, 45.589261931273747 ], [ -122.592876513491404, 45.589011225568029 ], [ -122.597008700672319, 45.588591726838494 ], [ -122.597235145095752, 45.588890984349874 ], [ -122.594225767807828, 45.59120734885839 ] ], [ [ -122.593588023815556, 45.468596773554104 ], [ -122.593588023815556, 45.468596773554104 ] ], [ [ -122.670922117032205, 45.421790260515259 ], [ -122.671341669839236, 45.431092010141242 ], [ -122.671128992698854, 45.431275081277271 ], [ -122.665810197348307, 45.431867188269472 ], [ -122.661098389412558, 45.429838182798115 ], [ -122.661052298688446, 45.429556391682539 ], [ -122.663911953981369, 45.427571329646049 ], [ -122.665576820553156, 45.423728005167938 ], [ -122.665799133515705, 45.419964794758648 ], [ -122.664712894335494, 45.415588096899874 ], [ -122.665180004739511, 45.415460053780052 ], [ -122.670922117032205, 45.421790260515259 ] ], [ [ -122.689293448776837, 45.608754270988712 ], [ -122.688921042795187, 45.608953671015612 ], [ -122.684103531502302, 45.607110162302071 ], [ -122.679054423253334, 45.604889856320703 ], [ -122.678934325922413, 45.604730072163953 ], [ -122.679129641427011, 45.601318072639657 ], [ -122.679278095766378, 45.601161949953685 ], [ -122.688902657256548, 45.598079773079085 ], [ -122.691786079135142, 45.599276794233042 ], [ -122.691795323576073, 45.599575858616369 ], [ -122.685010591209306, 45.602917996951071 ], [ -122.689293448776837, 45.608754270988712 ] ], [ [ -122.952215296228658, 45.503152748006812 ], [ -122.952215296228658, 45.503152748006812 ] ] ] } }
]
}
