{
"type": "FeatureCollection",
"name": "raleigh_cary_isochrones",
"crs": { "type": "name", "properties": { "name": "urn:ogc:def:crs:OGC:1.3:CRS84" } },
"features": [
{ "type": "Feature", "properties": { "site_label": "gpMOrLOQzy", "site_name": "WakeMed Soccer Park", "travel_time_minutes": 30.0 }, "geometry": { "type": "MultiLineString", "coordinates": [ [ [ -78.769088122504328, 35.792065068620374 ], [ -78.764933514130519, 35.797501766717488 ], [ -78.76024606554094, 35.799395115409105 ], [ -78.752183156608766, 35.799509625111135 ], [ -78.748395415799266, 35.801490382553673 ], [ -78.748086325358614, 35.801431633479567 ], [ -78.74431002379778, 35.7963178873242 ], [ -78.740098726804575, 35.789421274427035 ], [ -78.735737348990369, 35.78765530689715 ], [ -78.735614638150111, 35.787497745040923 ], [ -78.735505649707875, 35.783335745262164 ], [ -78.735736489004495, 35.783151831625965 ], [ -78.744197641011198, 35.783453812003017 ], [ -78.75242660127104, 35.779108445531058 ], [ -78.76097376170982, 35.775826834976151 ], [ -78.761185035846196, 35.775836956676322 ], [ -78.768977427536228, 35.779796348850937 ], [ -78.773427390702381, 35.785910602848141 ], [ -78.773276367092535, 35.789949259970037 ], [ -78.773167983802324, 35.790097608987708 ], [ -78.769088122504328, 35.792065068620374 ] ] ] } },
{ "type": "Feature", "properties": { "site_label": "gpMOrLOQzy", "site_name": "WakeMed Soccer Park", "travel_time_minutes": 45.0 }, "geometry": { "type": "MultiLineString", "coordinates": [ [ [ -78.77709138040818, 35.803606973333849 ], [ -78.772371985002536, 35.809667721470163 ], [ -78.77205332495727, 35.809715254882178 ], [ -78.768329920691215, 35.807456203918512 ], [ -78.760210192580089, 35.806399590521536 ], [ -78.75197246744645, 35.807171031721275 ], [ -78.746711823851044, 35.809624729838816 ], [ -78.743573320788897, 35.814392574086511 ], [ -78.743169441499404, 35.814366955557816 ], [ -78.74047933460534, 35.808107610399063 ], [ -78.735414858366653, 35.807164002087291 ], [ -78.735243076061309, 35.806994763570238 ], [ -78.735052488088542, 35.802668063659112 ], [ -78.735325520829576, 35.798954708594145 ], [ -78.727172056156576, 35.795048867423439 ], [ -78.723198333452061, 35.789135023511598 ], [ -78.718766645313465, 35.78700860823843 ], [ -78.718659126508342, 35.786832802011794 ], [ -78.719215837172811, 35.782869903412553 ], [ -78.719554341697943, 35.782738331240211 ], [ -78.723642594023332, 35.784857752559866 ], [ -78.731084727831274, 35.78145297512247 ], [ -78.731829606806173, 35.777433258671955 ], [ -78.731798231664428, 35.773546986163545 ], [ -78.731915690406538, 35.773386602322333 ], [ -78.735746584555088, 35.771729105388864 ], [ -78.73596203298959, 35.771732750314406 ], [ -78.744562300192356, 35.775835105497109 ], [ -78.748052969922398, 35.773639139017327 ], [ -78.753016264702211, 35.771980041992641 ], [ -78.757090228355906, 35.766212083762944 ], [ -78.757280284164025, 35.766121761212972 ], [ -78.765611465338807, 35.766071860647159 ], [ -78.770264073004626, 35.768181270074614 ], [ -78.774012267059334, 35.770118693200907 ], [ -78.774114846041201, 35.770276891563242 ], [ -78.773955208645717, 35.77418833004706 ], [ -78.781856544972499, 35.778185054858128 ], [ -78.785996292664748, 35.784392934316287 ], [ -78.785691713825514, 35.792055135624459 ], [ -78.785570252928963, 35.792210223233511 ], [ -78.781547300610285, 35.7938638144945 ], [ -78.777173897161177, 35.800295688587028 ], [ -78.77709138040818, 35.803606973333849 ] ] ] } },
{ "type": "Feature", "properties": { "site_label": "gpMOrLOQzy", "site_name": "WakeMed Soccer Park", "travel_time_minutes": 60.0 }, "geometry": { "type": "MultiLineString", "coordinates": [ [ [ -78.793725597530369, 35.799919419997508 ], [ -78.785390634127822, 35.811733444760321 ], [ -78.776692740509588, 35.815827533318419 ], [ -78.772613457002848, 35.817580520123649 ], [ -78.77242831683246, 35.817588551045141 ], [ -78.768203612040594, 35.816218006782712 ], [ -78.751642969999068, 35.81890809329964 ], [ -78.748607598173464, 35.82077170616428 ], [ -78.743230089362967, 35.822907210153673 ], [ -78.742989506871382, 35.822882351348632 ], [ -78.738836201849921, 35.819983990339914 ], [ -78.730905740524605, 35.80868999979571 ], [ -78.725899533627057, 35.806508308683711 ], [ -78.718778549440501, 35.798667907442329 ], [ -78.706582451028808, 35.788767069278791 ], [ -78.706517494445094, 35.788633798709654 ], [ -78.706712816949064, 35.784310790490373 ], [ -78.715238431180936, 35.773255704195769 ], [ -78.715367372445286, 35.773177740759444 ], [ -78.732176229844825, 35.769431290389804 ], [ -78.744696769838299, 35.763813031741257 ], [ -78.75303710929164, 35.75996286896963 ], [ -78.761327375482068, 35.756400672074449 ], [ -78.765701378024417, 35.754464702724931 ], [ -78.765963711163536, 35.754496018080147 ], [ -78.777830213050308, 35.764223302793063 ], [ -78.786207074108731, 35.772092539563374 ], [ -78.794313979139659, 35.776363627803811 ], [ -78.798376493585636, 35.782468789600699 ], [ -78.798345050315405, 35.786272258823558 ], [ -78.798208877400995, 35.790424611644418 ], [ -78.793725597530369, 35.799919419997508 ] ] ] } }
]
}
