{
"type": "FeatureCollection",
"name": "relocation_isochrones",
"crs": { "type": "name", "properties": { "name": "urn:ogc:def:crs:OGC:1.3:CRS84" } },
"features": [
{ "type": "Feature", "properties": { "site_label": "current", "site_name": "Sports Illustrated Stadium", "travel_time_minutes": 30.0 }, "geometry": { "type": "MultiLineString", "coordinates": [ [ [ -74.16225620898993, 40.7286303585132 ], [ -74.171153524696379, 40.736263649741176 ], [ -74.170856794782125, 40.736538703159113 ], [ -74.166436088145403, 40.734575798571683 ], [ -74.162161945852034, 40.732414853311809 ], [ -74.157697477515669, 40.733425418823124 ], [ -74.157905058126829, 40.738531331097917 ], [ -74.15761587639706, 40.742198507735878 ], [ -74.157392076661935, 40.74613159056333 ], [ -74.157276964896624, 40.746278439963199 ], [ -74.153066458476673, 40.74819284428537 ], [ -74.152725282328674, 40.748105762216923 ], [ -74.149916979196945, 40.742825400469762 ], [ -74.14616526968301, 40.73907407685045 ], [ -74.146146031218152, 40.738878473997119 ], [ -74.14899407980181, 40.734921630117739 ], [ -74.144495011653362, 40.732198074585554 ], [ -74.14453835918259, 40.731895280319911 ], [ -74.148715597291002, 40.730339528733317 ], [ -74.153175645785282, 40.728260282861235 ], [ -74.15760962325929, 40.726697793282355 ], [ -74.157826585554233, 40.726704861198137 ], [ -74.16225620898993, 40.7286303585132 ] ], [ [ -74.148313084384014, 40.753749613376321 ], [ -74.148313084384014, 40.753749613376321 ] ] ] } },
{ "type": "Feature", "properties": { "site_label": "current", "site_name": "Sports Illustrated Stadium", "travel_time_minutes": 45.0 }, "geometry": { "type": "MultiLineString", "coordinates": [ [ [ -74.059764762951133, 40.733460189680741 ], [ -74.059764762951133, 40.733460189680741 ] ], [ [ -74.06422736463773, 40.731638598271331 ], [ -74.06422736463773, 40.731638598271331 ] ], [ [ -74.197603286437811, 40.75614529264098 ], [ -74.19724473716883, 40.756315593088047 ], [ -74.192925625855707, 40.754330276853956 ], [ -74.175300605018535, 40.758149079092874 ], [ -74.175113741639493, 40.758130270786502 ], [ -74.170671323255576, 40.756102106625072 ], [ -74.153222133773383, 40.763939428041077 ], [ -74.148514868946663, 40.76960010203041 ], [ -74.144101052066361, 40.7751104169377 ], [ -74.139476471337687, 40.785011287927077 ], [ -74.13912965478815, 40.78510480769409 ], [ -74.130184442167916, 40.780956398102035 ], [ -74.130071405187294, 40.780790608139924 ], [ -74.130399133724438, 40.777103620188505 ], [ -74.135016067455538, 40.763615616287737 ], [ -74.137787262412786, 40.752886025298857 ], [ -74.133903859285141, 40.740801145184641 ], [ -74.123149285746734, 40.736565993050675 ], [ -74.122104467860879, 40.734567942302185 ], [ -74.12221336958082, 40.734346668854933 ], [ -74.132344305059817, 40.730161141682593 ], [ -74.135283746896775, 40.728525797537934 ], [ -74.131195054897105, 40.713687665223574 ], [ -74.131403337966645, 40.713471415837233 ], [ -74.136290424951284, 40.713101016687489 ], [ -74.140418568112764, 40.714626244888308 ], [ -74.1490352310486, 40.718321289425567 ], [ -74.162142174895848, 40.71272259874867 ], [ -74.162326059088088, 40.712707108756263 ], [ -74.179891072164011, 40.716710139800895 ], [ -74.193426995301394, 40.706865263643763 ], [ -74.193749889033285, 40.706862201475381 ], [ -74.211325083739695, 40.71902107744404 ], [ -74.211045269106393, 40.719309487870689 ], [ -74.20668496039481, 40.717347634750645 ], [ -74.19359298093903, 40.719147852875956 ], [ -74.193210922638613, 40.734471830729817 ], [ -74.192971831090944, 40.745991279010127 ], [ -74.197603286437811, 40.75614529264098 ] ], [ [ -74.122562724613928, 40.726628310102839 ], [ -74.122562724613928, 40.726628310102839 ] ], [ [ -74.162237249066933, 40.707646586527041 ], [ -74.162237249066933, 40.707646586527041 ] ], [ [ -74.215979533561551, 40.666431390313122 ], [ -74.215979533561551, 40.666431390313122 ] ], [ [ -74.22326039086559, 40.767817902267353 ], [ -74.22326039086559, 40.767817902267353 ] ], [ [ -74.238264153116489, 40.684306132648544 ], [ -74.238264153116489, 40.684306132648544 ] ] ] } },
{ "type": "Feature", "properties": { "site_label": "current", "site_name": "Sports Illustrated Stadium", "travel_time_minutes": 60.0 }, "geometry": { "type": "MultiLineString", "coordinates": [ [ [ -74.016097942858536, 40.709780669078953 ], [ -74.016117401590193, 40.709986542383852 ], [ -74.0115982125523, 40.715747250383743 ], [ -74.011158127425631, 40.715653083981557 ], [ -74.011207964860716, 40.71189127674355 ], [ -74.006911940701997, 40.709955116006888 ], [ -74.006915188040637, 40.709643646832539 ], [ -74.011396380789293, 40.707696151256727 ], [ -74.011637054991525, 40.707698772621889 ], [ -74.016097942858536, 40.709780669078953 ] ], [ [ -74.006466716349976, 40.733019087683502 ], [ -74.006466716349976, 40.733019087683502 ] ], [ [ -74.037393342980067, 40.774234844950549 ], [ -74.037080601886714, 40.774493634103308 ], [ -74.028230619315593, 40.770598302239286 ], [ -74.028469048187944, 40.770286885220244 ], [ -74.037393342980067, 40.774234844950549 ] ], [ [ -74.051479111907994, 40.718010109290326 ], [ -74.051503305737569, 40.721828805064348 ], [ -74.051386691008872, 40.721983237480693 ], [ -74.046899985632479, 40.723993344947189 ], [ -74.042223295334608, 40.725761277927106 ], [ -74.037974385084581, 40.72772126023262 ], [ -74.03351567723854, 40.729510164365152 ], [ -74.033168376246024, 40.729349120295922 ], [ -74.033214048473567, 40.725622714211028 ], [ -74.031255407155783, 40.721945912789174 ], [ -74.029207929012202, 40.719072671172533 ], [ -74.029822258004984, 40.716673074094437 ], [ -74.031692465799324, 40.713561077633955 ], [ -74.031978352117648, 40.713464016003442 ], [ -74.033732802563478, 40.713886044005704 ], [ -74.038007464274813, 40.715839242551439 ], [ -74.042379818627012, 40.713637457376315 ], [ -74.042635770054517, 40.71363481191451 ], [ -74.047160763915585, 40.715781306988752 ], [ -74.051479111907994, 40.718010109290326 ] ], [ [ -74.086155843797243, 40.729430742252937 ], [ -74.086194221186091, 40.729625533351481 ], [ -74.082345337202185, 40.736016740625175 ], [ -74.07768620242058, 40.737838647773962 ], [ -74.068875112862813, 40.737736507127181 ], [ -74.06451020662702, 40.739650781738405 ], [ -74.060023468650769, 40.74538403259902 ], [ -74.055427379357738, 40.751138340692286 ], [ -74.050958983090283, 40.753115638014371 ], [ -74.050639074856491, 40.7528651624663 ], [ -74.055026900501773, 40.747427498058961 ], [ -74.050740841567006, 40.741705650058364 ], [ -74.046443054076605, 40.739503522236802 ], [ -74.046371727487738, 40.739262115943845 ], [ -74.050896038627101, 40.733465823964458 ], [ -74.055479091007243, 40.727847926203303 ], [ -74.056689653690199, 40.72389264337486 ], [ -74.060024447351026, 40.721748784316205 ], [ -74.064424043857571, 40.719830221199956 ], [ -74.068819560459247, 40.714441314491097 ], [ -74.06891717198549, 40.71041937370763 ], [ -74.06920874463006, 40.706602637798021 ], [ -74.06961079936481, 40.706484411839909 ], [ -74.082576999059881, 40.716150793428405 ], [ -74.082616342043764, 40.716369616224391 ], [ -74.078105998032001, 40.722310354619239 ], [ -74.082005986912137, 40.72772736863336 ], [ -74.086155843797243, 40.729430742252937 ] ], [ [ -74.272890179036196, 40.770308695130694 ], [ -74.272879748122861, 40.770614067008331 ], [ -74.268464201507143, 40.772594986089643 ], [ -74.255365480054081, 40.778202298956835 ], [ -74.251144312048453, 40.779872367791775 ], [ -74.241602073129087, 40.779823375946783 ], [ -74.197027186487986, 40.791415882716265 ], [ -74.196828440473496, 40.791399852158513 ], [ -74.183597272523713, 40.785353202927389 ], [ -74.143189104936397, 40.791217179669374 ], [ -74.130324658119633, 40.792872642262054 ], [ -74.130076981404798, 40.792781271002163 ], [ -74.125722460741756, 40.786666385357137 ], [ -74.12576660010933, 40.775089456130594 ], [ -74.125881812818378, 40.771841143237182 ], [ -74.130360381494427, 40.753303851341826 ], [ -74.119728161737328, 40.734585743682644 ], [ -74.1201019269526, 40.729851668630715 ], [ -74.1257382905317, 40.710419080451906 ], [ -74.12591270460625, 40.71028298955175 ], [ -74.153943035264049, 40.705008802498192 ], [ -74.164804230735314, 40.703226938167347 ], [ -74.179127398749387, 40.697442940537407 ], [ -74.175485520037256, 40.6954179124699 ], [ -74.174658739151312, 40.689926010989765 ], [ -74.176496630810831, 40.687335288461433 ], [ -74.176848819738495, 40.687280424387183 ], [ -74.180519216797961, 40.689451119793219 ], [ -74.180500062758583, 40.68974589387868 ], [ -74.176320335466286, 40.691747778313172 ], [ -74.179755753706729, 40.69718913344515 ], [ -74.198075897194016, 40.689786835411219 ], [ -74.206778355284968, 40.670078446760812 ], [ -74.207128827439789, 40.666259517536766 ], [ -74.207159658672083, 40.66263190771167 ], [ -74.216151561548131, 40.655120621201959 ], [ -74.220703373492839, 40.652777896370303 ], [ -74.225150080717754, 40.650843242765482 ], [ -74.225503950063626, 40.650997763393818 ], [ -74.225665290446599, 40.662427363435626 ], [ -74.221152332528391, 40.672244925677667 ], [ -74.211685526233197, 40.684464491783977 ], [ -74.223841628180509, 40.716960269124655 ], [ -74.233421410052017, 40.725016415274467 ], [ -74.233504401342543, 40.729063430170527 ], [ -74.228696026303709, 40.762079517804501 ], [ -74.27281554571654, 40.770283875311961 ], [ -74.272890179036196, 40.770308695130694 ] ], [ [ -74.154473337686568, 40.697811249573462 ], [ -74.15333237096516, 40.700740815848135 ], [ -74.153008477487404, 40.700853979879113 ], [ -74.149556895399328, 40.699675122655322 ], [ -74.140371663416957, 40.703434679823893 ], [ -74.135500199235523, 40.70470695430263 ], [ -74.135223954987168, 40.704633458725056 ], [ -74.131187763738794, 40.699822251914611 ], [ -74.131163382007628, 40.699666825340095 ], [ -74.13286949307205, 40.69588232872556 ], [ -74.133201079903642, 40.695780348262851 ], [ -74.135811594177937, 40.696795198213088 ], [ -74.14450524370298, 40.69300774282997 ], [ -74.140732066074506, 40.69081039195634 ], [ -74.140789274948048, 40.690499627223808 ], [ -74.144829266281349, 40.689290230134446 ], [ -74.145112484055815, 40.689357549236355 ], [ -74.149522018942591, 40.69436215335417 ], [ -74.153675867062162, 40.693164905668745 ], [ -74.153995599166876, 40.693318491072738 ], [ -74.154473337686568, 40.697811249573462 ] ], [ [ -74.189096473026837, 40.685813083772203 ], [ -74.188644830382799, 40.685739775752324 ], [ -74.188527957704906, 40.678016675776206 ], [ -74.188999838343847, 40.67799489483145 ], [ -74.189562151894648, 40.681885493827757 ], [ -74.189096473026837, 40.685813083772203 ] ], [ [ -74.24241888461313, 40.69013175916205 ], [ -74.242097284054466, 40.690230050717233 ], [ -74.238804877891766, 40.689051647821977 ], [ -74.238669489756901, 40.688901290759851 ], [ -74.238272625093856, 40.684622708222676 ], [ -74.233546237645939, 40.685987463858979 ], [ -74.233225978284082, 40.685808993059318 ], [ -74.233495091235739, 40.682126093720775 ], [ -74.233619725889852, 40.681977243832648 ], [ -74.23811481813965, 40.680145748062436 ], [ -74.23835063049205, 40.680151196703399 ], [ -74.243051823959007, 40.682355791647204 ], [ -74.24316425252124, 40.682515011804782 ], [ -74.242995566565327, 40.686493912271629 ], [ -74.24241888461313, 40.69013175916205 ] ], [ [ -74.256523921989256, 40.625638675069162 ], [ -74.25682016535103, 40.62581469582868 ], [ -74.256771979107199, 40.62971549604697 ], [ -74.256649799075689, 40.629871535004156 ], [ -74.252222391699036, 40.631733639271893 ], [ -74.252003889185275, 40.631737641097132 ], [ -74.247742381497588, 40.63014383722652 ], [ -74.247610144504137, 40.629985189095549 ], [ -74.247516559174088, 40.625826589036393 ], [ -74.247869264804066, 40.625666604289691 ], [ -74.252103701089112, 40.627488096391424 ], [ -74.256523921989256, 40.625638675069162 ] ], [ [ -74.269547338893645, 40.666767971567729 ], [ -74.269465546945057, 40.670833820060217 ], [ -74.26936014643131, 40.670978873682543 ], [ -74.265180041075311, 40.673097878330985 ], [ -74.264921288739899, 40.673099633214832 ], [ -74.260408982854784, 40.670899528232354 ], [ -74.260409249432229, 40.670595942108434 ], [ -74.264687706166626, 40.668515687989718 ], [ -74.260804682647873, 40.666820096401963 ], [ -74.260804739794665, 40.66650747876605 ], [ -74.264628133683118, 40.664838782565511 ], [ -74.264857815517601, 40.664836393628391 ], [ -74.269547338893645, 40.666767971567729 ] ], [ [ -74.279150945296109, 40.608232872965566 ], [ -74.278815382843405, 40.608328564863832 ], [ -74.274430775754283, 40.606495060534684 ], [ -74.274434058618155, 40.606177792238505 ], [ -74.278861150916242, 40.604394896358315 ], [ -74.279207992082462, 40.604555813409505 ], [ -74.279150945296109, 40.608232872965566 ] ], [ [ -74.300537682787805, 40.657306452446761 ], [ -74.300537682787805, 40.657306452446761 ] ], [ [ -74.304636385113696, 40.655419160331427 ], [ -74.304636385113696, 40.655419160331427 ] ], [ [ -74.32261708050045, 40.651629194846691 ], [ -74.32261708050045, 40.651629194846691 ] ] ] } },
{ "type": "Feature", "properties": { "site_label": "future", "site_name": "Etihad Park", "travel_time_minutes": 30.0 }, "geometry": { "type": "MultiLineString", "coordinates": [ [ [ -73.801670767620152, 40.762381242366146 ], [ -73.801670767620152, 40.762381242366146 ] ], [ [ -73.895531756252666, 40.741739606783455 ], [ -73.895715267622066, 40.741758874158066 ], [ -73.904479154989787, 40.745744264863042 ], [ -73.904483380246731, 40.746051568200734 ], [ -73.900174514294079, 40.748104312372121 ], [ -73.891309898823579, 40.751704920653111 ], [ -73.881938272288323, 40.751758149676611 ], [ -73.872998601312375, 40.755597819028154 ], [ -73.864313119518982, 40.75518974127732 ], [ -73.859999766245835, 40.760935123364071 ], [ -73.859787978492307, 40.761025902548205 ], [ -73.856202855361261, 40.760956545924742 ], [ -73.849921543738887, 40.761342742200497 ], [ -73.841791294515332, 40.763951312700847 ], [ -73.837495379190571, 40.766712684098657 ], [ -73.833391071219594, 40.768535630458246 ], [ -73.83317602051045, 40.768544820670826 ], [ -73.828376025138908, 40.76693148650552 ], [ -73.82399456138576, 40.764762799438373 ], [ -73.815211189697592, 40.764867137137884 ], [ -73.814970550353024, 40.764686874281786 ], [ -73.814974264712561, 40.760644174488441 ], [ -73.815087657862804, 40.760490569946754 ], [ -73.819605746862848, 40.758391161164404 ], [ -73.824080666696034, 40.752844987206771 ], [ -73.82879731743796, 40.750609145783997 ], [ -73.837595195165193, 40.750928807278115 ], [ -73.841974312783904, 40.745156074445418 ], [ -73.842186226295993, 40.745066012063475 ], [ -73.850915815953655, 40.745254281386195 ], [ -73.85988744052753, 40.745367114917599 ], [ -73.864432391574766, 40.743294683875988 ], [ -73.864679711825616, 40.743296407985618 ], [ -73.868874063721549, 40.745289371419716 ], [ -73.87765125731211, 40.745396948305753 ], [ -73.882102497296785, 40.743438051172234 ], [ -73.890871637841087, 40.743674300594819 ], [ -73.895531756252666, 40.741739606783455 ] ], [ [ -73.824179210150746, 40.745058087513215 ], [ -73.824179210150746, 40.745058087513215 ] ], [ [ -73.864286807907305, 40.766332665930143 ], [ -73.864286807907305, 40.766332665930143 ] ], [ [ -73.86818979623763, 40.768905873547077 ], [ -73.86818979623763, 40.768905873547077 ] ], [ [ -73.868325022778819, 40.761113374107538 ], [ -73.868325022778819, 40.761113374107538 ] ], [ [ -73.917799100865736, 40.74390779841449 ], [ -73.917768350628933, 40.74420301302851 ], [ -73.913345143604232, 40.746160717456718 ], [ -73.912989182577974, 40.746009397766478 ], [ -73.912860196835354, 40.741991397686206 ], [ -73.9132181365013, 40.741832177784609 ], [ -73.917799100865736, 40.74390779841449 ] ] ] } },
{ "type": "Feature", "properties": { "site_label": "future", "site_name": "Etihad Park", "travel_time_minutes": 45.0 }, "geometry": { "type": "MultiLineString", "coordinates": [ [ [ -73.725680615004961, 40.786973849078592 ], [ -73.725680615004961, 40.786973849078592 ] ], [ [ -73.752220527623507, 40.768113610065249 ], [ -73.75297803147842, 40.7717530818529 ], [ -73.752621999660931, 40.771934937854688 ], [ -73.748526966597652, 40.770069395413365 ], [ -73.744094479757962, 40.775550457565181 ], [ -73.743771935255324, 40.775611154376136 ], [ -73.739357828818498, 40.773625849713412 ], [ -73.73937596594304, 40.773308380599993 ], [ -73.743503805240437, 40.771802227271763 ], [ -73.743798493669757, 40.767687605620395 ], [ -73.74391244373389, 40.767543257790102 ], [ -73.747774837866473, 40.765766561766831 ], [ -73.748037350249817, 40.765775268677721 ], [ -73.752220527623507, 40.768113610065249 ] ], [ [ -73.775439761732287, 40.762012585846556 ], [ -73.77541832644458, 40.766032570992159 ], [ -73.775297300826864, 40.766187035210436 ], [ -73.770825093380211, 40.768093739548227 ], [ -73.770588591059493, 40.768091674772805 ], [ -73.766165084601397, 40.766102870104589 ], [ -73.766048768678502, 40.765945436077203 ], [ -73.766135811161092, 40.758172591140216 ], [ -73.766223924931381, 40.754290391518055 ], [ -73.766666297156036, 40.754203853239154 ], [ -73.770995438744464, 40.759941927281069 ], [ -73.775439761732287, 40.762012585846556 ] ], [ [ -73.779651975677396, 40.752365653472033 ], [ -73.779651975677396, 40.752365653472033 ] ], [ [ -73.957873116277526, 40.742515408507629 ], [ -73.95791661780315, 40.742660808807656 ], [ -73.953219475204747, 40.760019418852501 ], [ -73.953102604327285, 40.760140534059744 ], [ -73.948466104384792, 40.762075258602813 ], [ -73.913106040375908, 40.761866085976315 ], [ -73.874668004514163, 40.77568898721519 ], [ -73.861446314859492, 40.784732674969462 ], [ -73.859076700428517, 40.785433796732598 ], [ -73.858087116076717, 40.787029738852766 ], [ -73.850400824989009, 40.79228474743492 ], [ -73.850241063328852, 40.792330956979015 ], [ -73.841601973670464, 40.792272368900285 ], [ -73.823470434030554, 40.784242010128025 ], [ -73.7841291292997, 40.769976188081948 ], [ -73.783994372069685, 40.769819757637229 ], [ -73.783832060601355, 40.76620583104593 ], [ -73.783970204150521, 40.758383036810365 ], [ -73.788682197491468, 40.752368720536438 ], [ -73.802005832516798, 40.746469052584267 ], [ -73.810988805434874, 40.739068176379121 ], [ -73.80263661121154, 40.707862140199836 ], [ -73.802645971811344, 40.707764913998837 ], [ -73.807258299468614, 40.698060823188221 ], [ -73.807575438778727, 40.697956931369276 ], [ -73.838406863778019, 40.708173671399635 ], [ -73.873694595530466, 40.72014704131653 ], [ -73.891427460691744, 40.728017655591451 ], [ -73.923414947978344, 40.734665329841341 ], [ -73.953294429327087, 40.740286197438266 ], [ -73.957873116277526, 40.742515408507629 ] ], [ [ -73.885923302499776, 40.772955355867147 ], [ -73.885923302499776, 40.772955355867147 ] ], [ [ -73.899318307832303, 40.767355681669009 ], [ -73.899318307832303, 40.767355681669009 ] ], [ [ -73.979713702396353, 40.76433811571907 ], [ -73.979337966061934, 40.764450583151266 ], [ -73.975217566817989, 40.762094049412092 ], [ -73.966284931010108, 40.766367129369975 ], [ -73.96602429045106, 40.766363334148636 ], [ -73.961633385495745, 40.764071429040712 ], [ -73.96165230386228, 40.763765459487679 ], [ -73.966015877047042, 40.76191956930117 ], [ -73.96609189433255, 40.75814564130269 ], [ -73.966206433675268, 40.757994123029725 ], [ -73.970596727022638, 40.755980527554378 ], [ -73.975046744824056, 40.754228498544215 ], [ -73.975127123340656, 40.750357455883453 ], [ -73.975487696066565, 40.750206643571133 ], [ -73.984305369586735, 40.754285818707295 ], [ -73.984297128937555, 40.754597799919765 ], [ -73.979934617347766, 40.756425427516795 ], [ -73.979713702396353, 40.76433811571907 ] ] ] } },
{ "type": "Feature", "properties": { "site_label": "future", "site_name": "Etihad Park", "travel_time_minutes": 60.0 }, "geometry": { "type": "MultiLineString", "coordinates": [ [ [ -73.702713916838405, 40.812329566242532 ], [ -73.702619570171265, 40.812617707138187 ], [ -73.698306860613286, 40.813844910070195 ], [ -73.698101163962306, 40.813830433043222 ], [ -73.694136962228967, 40.812012311093874 ], [ -73.689874574791205, 40.810231657227881 ], [ -73.68546629083886, 40.811641641642765 ], [ -73.685180347436997, 40.811371970064982 ], [ -73.689873054484025, 40.806301377980709 ], [ -73.690172958945553, 40.806243839296592 ], [ -73.694743715605242, 40.807982067202246 ], [ -73.69881889762371, 40.810308242520868 ], [ -73.702713916838405, 40.812329566242532 ] ], [ [ -73.689970201604211, 40.82920830833676 ], [ -73.689917489133833, 40.829489533888797 ], [ -73.68524978153313, 40.831524938501602 ], [ -73.684894524997731, 40.831369896789504 ], [ -73.684861238567009, 40.827563496929606 ], [ -73.685203782721416, 40.827400909488034 ], [ -73.689970201604211, 40.82920830833676 ] ], [ [ -73.703745474669248, 40.804027076611405 ], [ -73.703414517302306, 40.804134940875194 ], [ -73.698806314944505, 40.802411099937004 ], [ -73.694260308189712, 40.800395195174644 ], [ -73.689977599011272, 40.798380167525423 ], [ -73.689975317300821, 40.798074919949414 ], [ -73.694321694311398, 40.795977280124703 ], [ -73.694434828016483, 40.792444816830105 ], [ -73.694548799275722, 40.792295198438154 ], [ -73.699028492486192, 40.79022840306132 ], [ -73.699278666367988, 40.79023036692822 ], [ -73.703786905108302, 40.792408434184821 ], [ -73.70812818923369, 40.794371168813775 ], [ -73.708243905910138, 40.794532286813187 ], [ -73.708062719896105, 40.798475587392367 ], [ -73.707967582272261, 40.79861368251099 ], [ -73.703988424669234, 40.800870122404675 ], [ -73.703745474669248, 40.804027076611405 ] ], [ [ -73.979446149650698, 40.783796324764708 ], [ -73.970365771750934, 40.787601210928727 ], [ -73.948179712712687, 40.789515815297392 ], [ -73.943590256274291, 40.78723230098452 ], [ -73.916951791392293, 40.779061999205958 ], [ -73.908126850024672, 40.779138863180236 ], [ -73.891887407494309, 40.775898565078172 ], [ -73.859076700428517, 40.785433796732598 ], [ -73.853907459885647, 40.79395215920956 ], [ -73.853775937617712, 40.79404524509107 ], [ -73.848733226510163, 40.795492148562808 ], [ -73.846196520933418, 40.796039336926817 ], [ -73.841091156605614, 40.79630504496312 ], [ -73.806684663550101, 40.796626044543885 ], [ -73.799411154137744, 40.795990572362854 ], [ -73.795437485913183, 40.794662361853895 ], [ -73.78352116584017, 40.789900150295537 ], [ -73.775221095083992, 40.785791946605926 ], [ -73.75275348839746, 40.779597040683278 ], [ -73.735196654944303, 40.790708457855033 ], [ -73.725788198548102, 40.794946508584928 ], [ -73.725547400220805, 40.794946866502386 ], [ -73.716851987400972, 40.791067357360475 ], [ -73.716734998886253, 40.790915173683494 ], [ -73.716544128178626, 40.782680673734632 ], [ -73.716596133419287, 40.78256485778487 ], [ -73.730471363712994, 40.769397141441928 ], [ -73.735071112995286, 40.763862999427637 ], [ -73.748802615342299, 40.738370323443974 ], [ -73.748949467391611, 40.738267049373484 ], [ -73.770989754461596, 40.732887925957549 ], [ -73.775653169116509, 40.718963566434027 ], [ -73.77588521739608, 40.715275657542513 ], [ -73.78495957377767, 40.695699675716455 ], [ -73.794202711035183, 40.688068599931924 ], [ -73.79434579671306, 40.688012261847469 ], [ -73.829943602816485, 40.684461369917756 ], [ -73.834306391507724, 40.686729894433221 ], [ -73.843201138083572, 40.694424524811794 ], [ -73.874021852098423, 40.704391201360011 ], [ -73.904979796729791, 40.710599876573042 ], [ -73.905102127107099, 40.710659442017494 ], [ -73.913818256832656, 40.718697002338693 ], [ -73.940142551526833, 40.718662454975266 ], [ -73.949137323407768, 40.703201911153968 ], [ -73.949252408177045, 40.699436806657388 ], [ -73.949131359509565, 40.695667602650964 ], [ -73.949591366870365, 40.695603562979258 ], [ -73.954010695325209, 40.705190954870297 ], [ -73.954010302000086, 40.709164458794042 ], [ -73.989216917275513, 40.713344025665741 ], [ -74.006941045882243, 40.709632410024504 ], [ -74.011396380789293, 40.707696151256727 ], [ -74.011750536718907, 40.707854957191508 ], [ -74.011679523836435, 40.711819387239359 ], [ -74.006925569749058, 40.733097248545022 ], [ -74.006887435058317, 40.740673629883219 ], [ -74.006696179410653, 40.748785969397836 ], [ -74.006639496512307, 40.752693816107303 ], [ -74.005844490663151, 40.756656447884026 ], [ -74.001875233661437, 40.762337664837396 ], [ -73.979446149650698, 40.783796324764708 ] ], [ [ -73.785213633029628, 40.688120412903203 ], [ -73.785213633029628, 40.688120412903203 ] ], [ [ -73.836286420947658, 40.821149180773574 ], [ -73.836609561923893, 40.82117649104417 ], [ -73.845335168417719, 40.828970177611467 ], [ -73.845042421636336, 40.829245674578218 ], [ -73.840553914210886, 40.827417470163269 ], [ -73.836303770218365, 40.825289126912978 ], [ -73.831883088831276, 40.826779175892803 ], [ -73.831589201736577, 40.826514978283242 ], [ -73.836286420947658, 40.821149180773574 ] ], [ [ -73.851714194460016, 40.694754593108485 ], [ -73.851714194460016, 40.694754593108485 ] ], [ [ -73.925192014480146, 40.81801842958707 ], [ -73.925192014480146, 40.81801842958707 ] ], [ [ -73.929689228928339, 40.812329438376175 ], [ -73.929689228928339, 40.812329438376175 ] ], [ [ -73.934241155567221, 40.80294754738209 ], [ -73.934241155567221, 40.80294754738209 ] ], [ [ -73.938818545375426, 40.804663456094367 ], [ -73.938818545375426, 40.804663456094367 ] ], [ [ -73.94319396062761, 40.798766864652457 ], [ -73.94319396062761, 40.798766864652457 ] ], [ [ -73.9432827726515, 40.795113764933646 ], [ -73.9432827726515, 40.795113764933646 ] ], [ [ -73.96109103836227, 40.795144256337409 ], [ -73.96109103836227, 40.795144256337409 ] ] ] } }
]
}
