{
"type": "FeatureCollection",
"name": "salt_lake_isochrones",
"crs": { "type": "name", "properties": { "name": "urn:ogc:def:crs:OGC:1.3:CRS84" } },
"features": [
{ "type": "Feature", "properties": { "site_label": "e7MzlRjqr0", "site_name": "America First Field", "travel_time_minutes": 30.0 }, "geometry": { "type": "MultiLineString", "coordinates": [ [ [ -111.901473461249196, 40.61089766245982 ], [ -111.90148012263397, 40.61120960342393 ], [ -111.892667109974809, 40.615238212735967 ], [ -111.892417352087364, 40.615235113126417 ], [ -111.887958746029668, 40.613043608297538 ], [ -111.887850480974052, 40.612893517476422 ], [ -111.887812622497734, 40.608946895454181 ], [ -111.887627217556854, 40.605343183781265 ], [ -111.887687060121266, 40.601460626160758 ], [ -111.883266238615036, 40.59571070818486 ], [ -111.878846898736853, 40.593866504562044 ], [ -111.874390291805113, 40.591873300070283 ], [ -111.874273561198379, 40.591719748670101 ], [ -111.874220876813652, 40.583948037159203 ], [ -111.874069830784549, 40.576552405295736 ], [ -111.874170584289033, 40.576401999199057 ], [ -111.878466330068051, 40.574108813976224 ], [ -111.88285090484024, 40.568192755451001 ], [ -111.883053924990293, 40.568101236626795 ], [ -111.891920601220122, 40.568024337080793 ], [ -111.896487898209145, 40.569821742106136 ], [ -111.896614658269769, 40.569979326325104 ], [ -111.896674749601289, 40.57395967515874 ], [ -111.897662375146027, 40.578221219529176 ], [ -111.905603047549278, 40.585494275201398 ], [ -111.910144076123473, 40.587450841434432 ], [ -111.910231300438568, 40.587699317169289 ], [ -111.905757512132496, 40.593474224838893 ], [ -111.901269815604678, 40.595509114054607 ], [ -111.897044227019606, 40.597492270971628 ], [ -111.892555172455928, 40.599511332642727 ], [ -111.892614768401288, 40.607237261229976 ], [ -111.896929768776573, 40.608970566852754 ], [ -111.901473461249196, 40.61089766245982 ] ], [ [ -111.892955520861221, 40.661783198714389 ], [ -111.892955520861221, 40.661783198714389 ] ], [ [ -111.89323546691034, 40.677376599950492 ], [ -111.89323546691034, 40.677376599950492 ] ], [ [ -111.896825923908381, 40.620702681239401 ], [ -111.896936511499604, 40.620587348718445 ], [ -111.901343405002734, 40.61860965331568 ], [ -111.90169983465141, 40.618763170957664 ], [ -111.901749948674748, 40.622741270706847 ], [ -111.901634542685755, 40.622897776975364 ], [ -111.897263036344185, 40.624882481573898 ], [ -111.896905564842271, 40.624730644953267 ], [ -111.896825923908381, 40.620702681239401 ] ], [ [ -111.897328018930622, 40.632569706184704 ], [ -111.897328018930622, 40.632569706184704 ] ], [ [ -111.89990972057582, 40.633168987528769 ], [ -111.89990972057582, 40.633168987528769 ] ] ] } },
{ "type": "Feature", "properties": { "site_label": "e7MzlRjqr0", "site_name": "America First Field", "travel_time_minutes": 45.0 }, "geometry": { "type": "MultiLineString", "coordinates": [ [ [ -111.910459012439972, 40.634491398377044 ], [ -111.901804318101682, 40.642341978864941 ], [ -111.897291857106637, 40.64446089058346 ], [ -111.897047813444544, 40.644462390820493 ], [ -111.88832348034633, 40.640522579631295 ], [ -111.879262444097648, 40.632717291269358 ], [ -111.870084466745936, 40.609605281267079 ], [ -111.861075397689561, 40.593891274881678 ], [ -111.834691300965702, 40.586374270846285 ], [ -111.825964208588388, 40.586515635441771 ], [ -111.821127717920149, 40.584465342629755 ], [ -111.821124666099536, 40.584152792462319 ], [ -111.825521038885356, 40.58219620734021 ], [ -111.829936731262706, 40.58014934700747 ], [ -111.834343485449324, 40.578236046744244 ], [ -111.838797924101115, 40.576229083450521 ], [ -111.851860926951673, 40.574023193908786 ], [ -111.856742774969575, 40.572233293271395 ], [ -111.873704418389707, 40.552634667548176 ], [ -111.864677553617156, 40.545077182988713 ], [ -111.84689598082042, 40.525736253289331 ], [ -111.846955491063511, 40.525484347583834 ], [ -111.851527377452655, 40.523085435728433 ], [ -111.860175464121738, 40.519336044495894 ], [ -111.860406076177597, 40.519334908487338 ], [ -111.86936100832537, 40.523108755506257 ], [ -111.882761706179465, 40.533039236661047 ], [ -111.891721742786444, 40.540781950763602 ], [ -111.891857964052136, 40.544751385337683 ], [ -111.905311621774004, 40.56606157630344 ], [ -111.923023787949319, 40.585414374832872 ], [ -111.923037197755519, 40.585604157275341 ], [ -111.914640061126519, 40.597271644279104 ], [ -111.914865300688618, 40.608952162408791 ], [ -111.915005133514455, 40.620671351441302 ], [ -111.915078101209374, 40.624620459739184 ], [ -111.910459012439972, 40.634491398377044 ] ], [ [ -111.861716422546166, 40.617118277719513 ], [ -111.861265963628355, 40.617042820549408 ], [ -111.861204989970346, 40.609568720157768 ], [ -111.861677803839115, 40.609565882130248 ], [ -111.861716422546166, 40.617118277719513 ] ], [ [ -111.902177120726208, 40.704744801380357 ], [ -111.901940714624132, 40.704922170002746 ], [ -111.893742392529205, 40.7049301702571 ], [ -111.893538770398138, 40.704842292023827 ], [ -111.889037618098357, 40.699098573677794 ], [ -111.875615757512563, 40.688862867347851 ], [ -111.875554466317453, 40.688781645247794 ], [ -111.871007107662152, 40.675684235910083 ], [ -111.871107226509551, 40.675486989505266 ], [ -111.875404122154706, 40.673367344340356 ], [ -111.88354262164124, 40.661460600218099 ], [ -111.884057913611187, 40.658333914943427 ], [ -111.888401628244594, 40.652016522587573 ], [ -111.888676278610063, 40.651926879665751 ], [ -111.906266936471056, 40.655758870309754 ], [ -111.906438096317615, 40.655942311124257 ], [ -111.906124025183971, 40.659888014119126 ], [ -111.902237585619346, 40.665712418832257 ], [ -111.899041172226859, 40.675170401619269 ], [ -111.897946111855262, 40.683225374771339 ], [ -111.901634965705057, 40.692809272607136 ], [ -111.902177120726208, 40.704744801380357 ] ], [ [ -111.880434742249037, 40.722288805808645 ], [ -111.880434742249037, 40.722288805808645 ] ], [ [ -111.898371286699998, 40.721613204087809 ], [ -111.898572410830624, 40.72165412327827 ], [ -111.902147908896055, 40.724022718534599 ], [ -111.902133041065952, 40.724303556438429 ], [ -111.898586431682602, 40.726294009272344 ], [ -111.89419412525595, 40.728278413891026 ], [ -111.893953634155466, 40.728279023370042 ], [ -111.889469427118769, 40.726283718849565 ], [ -111.889352187206057, 40.72613007425241 ], [ -111.889300400628116, 40.72234217400726 ], [ -111.889652353770529, 40.722182865609405 ], [ -111.893967864959009, 40.724009859760187 ], [ -111.898371286699998, 40.721613204087809 ] ], [ [ -111.890301295315112, 40.757408023792408 ], [ -111.890301295315112, 40.757408023792408 ] ], [ [ -111.8990018044274, 40.749670058802757 ], [ -111.894306733251156, 40.751676583992001 ], [ -111.89395569026685, 40.751517442093572 ], [ -111.894027203599634, 40.743729700963421 ], [ -111.893975638239581, 40.739929959686705 ], [ -111.894320825049434, 40.739767874183059 ], [ -111.898786917012913, 40.741514570122057 ], [ -111.902981724113772, 40.74362689854977 ], [ -111.902983809784985, 40.743926238625342 ], [ -111.899261268525564, 40.745845147698283 ], [ -111.8990018044274, 40.749670058802757 ] ], [ [ -111.903456012841318, 40.685828845112027 ], [ -111.903456012841318, 40.685828845112027 ] ], [ [ -111.906251368097742, 40.698713550959546 ], [ -111.906251368097742, 40.698713550959546 ] ], [ [ -111.906596338907562, 40.686952155154927 ], [ -111.906596338907562, 40.686952155154927 ] ], [ [ -111.923313086751264, 40.608840984075364 ], [ -111.923313086751264, 40.608840984075364 ] ], [ [ -111.928076054130429, 40.63378648876558 ], [ -111.928076054130429, 40.63378648876558 ] ] ] } },
{ "type": "Feature", "properties": { "site_label": "e7MzlRjqr0", "site_name": "America First Field", "travel_time_minutes": 60.0 }, "geometry": { "type": "MultiLineString", "coordinates": [ [ [ -111.930095565860242, 40.75132737844703 ], [ -111.930052538267191, 40.751372334092295 ], [ -111.90368403991927, 40.771467671980787 ], [ -111.903556555420749, 40.771517949759918 ], [ -111.890132520912104, 40.773276254751288 ], [ -111.885930757706873, 40.771286721690004 ], [ -111.876573205911683, 40.763439408121734 ], [ -111.853864592335938, 40.726545190130587 ], [ -111.826941312315668, 40.69947650850829 ], [ -111.826949316109321, 40.699251477810606 ], [ -111.84442348321069, 40.683515614814347 ], [ -111.848613647220375, 40.650301602375457 ], [ -111.843680536702664, 40.625204179798033 ], [ -111.816900316743357, 40.590101164351097 ], [ -111.807660842470554, 40.582470203374555 ], [ -111.807527602249934, 40.578573379250372 ], [ -111.807617729126719, 40.570935179175422 ], [ -111.807718328128928, 40.570789286378542 ], [ -111.812131221586753, 40.568451355651106 ], [ -111.825408923952324, 40.566841638259945 ], [ -111.838622042989556, 40.564515256684196 ], [ -111.842426699175761, 40.52784514249575 ], [ -111.837961480430081, 40.525716301589149 ], [ -111.837863884139679, 40.525503656926553 ], [ -111.842314812403856, 40.515856765126898 ], [ -111.846814005099603, 40.513660292647529 ], [ -111.851341480920112, 40.511663022585566 ], [ -111.860307430302711, 40.511693474885362 ], [ -111.8692692950452, 40.515511705904494 ], [ -111.878405998007594, 40.523181492213638 ], [ -111.886877741126071, 40.53107282086701 ], [ -111.900655655522286, 40.544671698679302 ], [ -111.914212780842561, 40.558280881141464 ], [ -111.922183623154652, 40.570080714438227 ], [ -111.958523814152528, 40.596279922052013 ], [ -111.972624447924971, 40.602618115851541 ], [ -111.990095579000979, 40.609376731870569 ], [ -111.990214285714146, 40.609591048883438 ], [ -111.977794378879238, 40.639922871812871 ], [ -111.977759022462578, 40.639976063279697 ], [ -111.951259742464401, 40.667362743804773 ], [ -111.960020442764531, 40.690513614080267 ], [ -111.960404968074755, 40.694480734921704 ], [ -111.956132697703538, 40.70428034281246 ], [ -111.952815238960099, 40.710375657496158 ], [ -111.947047798792696, 40.715034940907245 ], [ -111.930095565860242, 40.75132737844703 ] ], [ [ -111.818083372290815, 40.699377283426422 ], [ -111.818083372290815, 40.699377283426422 ] ], [ [ -111.831430824696, 40.685503120910965 ], [ -111.835726813048936, 40.687449792249716 ], [ -111.835730754782972, 40.687757376945498 ], [ -111.831532249073319, 40.689750481505961 ], [ -111.831282803235339, 40.689750978120372 ], [ -111.827224343499651, 40.687846731210378 ], [ -111.818277925051859, 40.688066579446399 ], [ -111.81814355727208, 40.687734334654124 ], [ -111.822725435881267, 40.685554934612476 ], [ -111.831430824696, 40.685503120910965 ] ], [ [ -111.976324009153061, 40.592866262227545 ], [ -111.976324009153061, 40.592866262227545 ] ], [ [ -111.985772642526598, 40.639673583309026 ], [ -111.985772642526598, 40.639673583309026 ] ], [ [ -111.990252547721994, 40.637406692160553 ], [ -111.990252547721994, 40.637406692160553 ] ], [ [ -111.997435015299729, 40.611596428365338 ], [ -111.997435015299729, 40.611596428365338 ] ], [ [ -111.99864921881391, 40.610244030660922 ], [ -111.99864921881391, 40.610244030660922 ] ], [ [ -112.007505131661503, 40.610111125352752 ], [ -112.007505131661503, 40.610111125352752 ] ], [ [ -112.024622362924234, 40.569040057569445 ], [ -112.024622362924234, 40.569040057569445 ] ] ] } }
]
}
