{
"type": "FeatureCollection",
"name": "san_diego_isochrones",
"crs": { "type": "name", "properties": { "name": "urn:ogc:def:crs:OGC:1.3:CRS84" } },
"features": [
{ "type": "Feature", "properties": { "site_label": "old", "site_name": "Torero Stadium", "travel_time_minutes": 30.0 }, "geometry": { "type": "MultiLineString", "coordinates": [ [ [ -117.177451835020705, 32.809516686700832 ], [ -117.177357033203464, 32.809742608285902 ], [ -117.17372762876046, 32.811431911247738 ], [ -117.173519985991319, 32.81143126084968 ], [ -117.169048726247738, 32.809313420939546 ], [ -117.161442750534107, 32.805910533599537 ], [ -117.153421142119271, 32.801669826467531 ], [ -117.150268993854027, 32.796357708340686 ], [ -117.150264279366553, 32.796206087735712 ], [ -117.153812191808512, 32.789264493175281 ], [ -117.157179043180435, 32.787713475079428 ], [ -117.161640673786835, 32.785908560357072 ], [ -117.165252929278964, 32.779954811840497 ], [ -117.169228677862861, 32.774263497945185 ], [ -117.17321060882594, 32.772149641327452 ], [ -117.173427020075025, 32.772145185315225 ], [ -117.177561115001538, 32.774085581958836 ], [ -117.177670946086124, 32.774240949371816 ], [ -117.177728268042429, 32.778033593767979 ], [ -117.177287612173473, 32.782063818533338 ], [ -117.181726051557447, 32.788052898834813 ], [ -117.18567908824528, 32.789732621724283 ], [ -117.185677675733899, 32.790055573000181 ], [ -117.18162269049256, 32.791746821076799 ], [ -117.177698536041191, 32.797178570457632 ], [ -117.173472994651789, 32.803858686712729 ], [ -117.177451835020705, 32.809516686700832 ] ], [ [ -117.169661047393902, 32.766472463023767 ], [ -117.169280009582522, 32.766356504078246 ], [ -117.169386419028413, 32.762397304225971 ], [ -117.169492700960987, 32.762245360073287 ], [ -117.17337869649792, 32.760339363365141 ], [ -117.173671003446316, 32.760585347931659 ], [ -117.169661047393902, 32.766472463023767 ] ], [ [ -117.197874220486639, 32.834550409650717 ], [ -117.198095072527721, 32.83833276635206 ], [ -117.197790553493761, 32.838504629479011 ], [ -117.193560047436392, 32.836822826468087 ], [ -117.193437386970189, 32.836659271260345 ], [ -117.193445399084567, 32.832949133234756 ], [ -117.189573365946586, 32.826754412174481 ], [ -117.185358591852733, 32.825072431788215 ], [ -117.181730581261874, 32.826719213983559 ], [ -117.181447488079584, 32.826654965701138 ], [ -117.177401395028923, 32.821111959881392 ], [ -117.177388335457167, 32.816844916919827 ], [ -117.17750977140966, 32.816682852472127 ], [ -117.182026265094052, 32.814857755773815 ], [ -117.182252973701893, 32.81488029464267 ], [ -117.185326207148918, 32.816982005472148 ], [ -117.189756740382435, 32.818966920388732 ], [ -117.189870264220389, 32.819127782300789 ], [ -117.189833467811269, 32.822909790278175 ], [ -117.193974369282856, 32.825045020637688 ], [ -117.194076264344147, 32.825210327923024 ], [ -117.19381587740574, 32.828704943137957 ], [ -117.197874220486639, 32.834550409650717 ] ], [ [ -117.189676568263138, 32.771980549361523 ], [ -117.189657125096517, 32.772274671599128 ], [ -117.185822521151849, 32.774305275035502 ], [ -117.185495722189003, 32.774159931011766 ], [ -117.185297831718046, 32.77015793064534 ], [ -117.185618161936205, 32.769994239748129 ], [ -117.189676568263138, 32.771980549361523 ] ], [ [ -117.19308076024852, 32.76631088003964 ], [ -117.19308076024852, 32.76631088003964 ] ], [ [ -117.197309162789651, 32.764344387009984 ], [ -117.197309162789651, 32.764344387009984 ] ] ] } },
{ "type": "Feature", "properties": { "site_label": "old", "site_name": "Torero Stadium", "travel_time_minutes": 45.0 }, "geometry": { "type": "MultiLineString", "coordinates": [ [ [ -117.218017593056331, 32.871780545971568 ], [ -117.217909676746501, 32.871936142540029 ], [ -117.213897872020368, 32.873865845906941 ], [ -117.213685391819354, 32.873865490195094 ], [ -117.209605656911947, 32.871867525754098 ], [ -117.197480649656583, 32.858018599362879 ], [ -117.173657753129518, 32.834837612466707 ], [ -117.16143330023867, 32.821763906879148 ], [ -117.140922462099766, 32.807551965399099 ], [ -117.140845527124526, 32.807393636689469 ], [ -117.141333538006819, 32.803502544185889 ], [ -117.15316726990784, 32.769902364177547 ], [ -117.153251197521442, 32.766375373665596 ], [ -117.153354980338676, 32.766224213417154 ], [ -117.165105967389721, 32.760277223600276 ], [ -117.169282440452676, 32.75851843148854 ], [ -117.198274597387353, 32.747785151180373 ], [ -117.205465562158651, 32.74849297479669 ], [ -117.205652794487548, 32.748657414394515 ], [ -117.206422808088675, 32.75663889070281 ], [ -117.20582302269311, 32.772139351961819 ], [ -117.201934820637845, 32.805351574928423 ], [ -117.205631731382198, 32.815217220224199 ], [ -117.209903985677997, 32.836768542449718 ], [ -117.218097430462905, 32.859931073600556 ], [ -117.218017593056331, 32.871780545971568 ] ], [ [ -117.16566929265629, 32.748621545857283 ], [ -117.165675201630435, 32.752689850172963 ], [ -117.165351962726788, 32.752842769513308 ], [ -117.161512112625189, 32.750898565870401 ], [ -117.157316941537914, 32.748957044278754 ], [ -117.153334943040406, 32.747006901031078 ], [ -117.153338413716639, 32.746693035593815 ], [ -117.157336408867906, 32.744818238865442 ], [ -117.157543741594765, 32.744818309494207 ], [ -117.16566929265629, 32.748621545857283 ] ], [ [ -117.161181589965139, 32.738969175185595 ], [ -117.161181589965139, 32.738969175185595 ] ], [ [ -117.169048719773613, 32.723371587558695 ], [ -117.169048719773613, 32.723371587558695 ] ], [ [ -117.169092380293137, 32.719443739642209 ], [ -117.169092380293137, 32.719443739642209 ] ], [ [ -117.185568777189346, 32.738861695644182 ], [ -117.187864133422295, 32.739147532182834 ], [ -117.188019540935827, 32.739412099080077 ], [ -117.185691046308904, 32.743030502494761 ], [ -117.181578521739581, 32.744984987076194 ], [ -117.181261707452265, 32.744827760316788 ], [ -117.181244916700834, 32.740949260256087 ], [ -117.181356285667889, 32.740790154927517 ], [ -117.185568777189346, 32.738861695644182 ] ], [ [ -117.21745243380235, 32.804738418500328 ], [ -117.217632606771474, 32.805058720177136 ], [ -117.213757403848291, 32.807443124027209 ], [ -117.209738436906122, 32.809593810481225 ], [ -117.209503938040925, 32.809292219603456 ], [ -117.21745243380235, 32.804738418500328 ] ] ] } },
{ "type": "Feature", "properties": { "site_label": "old", "site_name": "Torero Stadium", "travel_time_minutes": 60.0 }, "geometry": { "type": "MultiLineString", "coordinates": [ [ [ -117.069180176926736, 32.772254327891005 ], [ -117.069180176926736, 32.772254327891005 ] ], [ [ -117.069435767965999, 32.776159128351225 ], [ -117.069435767965999, 32.776159128351225 ] ], [ [ -117.093407874923784, 32.780661815230118 ], [ -117.093407874923784, 32.780661815230118 ] ], [ [ -117.101256372519387, 32.780059928213532 ], [ -117.101256372519387, 32.780059928213532 ] ], [ [ -117.237979103526371, 32.881316867668083 ], [ -117.23788836194548, 32.881437319266169 ], [ -117.234035737833565, 32.883649931786067 ], [ -117.225988827606258, 32.887266738207913 ], [ -117.225821510997832, 32.887278892569412 ], [ -117.205725476375093, 32.881702082130872 ], [ -117.20561282935445, 32.881628774342111 ], [ -117.195205374189541, 32.868066622230245 ], [ -117.190472086757254, 32.862217250384084 ], [ -117.178331990160771, 32.845969135874441 ], [ -117.163821864558457, 32.840790721524179 ], [ -117.137699149848913, 32.837084121485354 ], [ -117.129443662200018, 32.833039513779816 ], [ -117.129339714034572, 32.832857668593732 ], [ -117.133289645164879, 32.809890857853524 ], [ -117.129336491089305, 32.80571636224149 ], [ -117.113327895538575, 32.786059831982072 ], [ -117.109362486500004, 32.784409238748694 ], [ -117.106562936551313, 32.781864356864887 ], [ -117.106586521629467, 32.78160108281314 ], [ -117.109397002342234, 32.779716494003452 ], [ -117.12923556682604, 32.774012254421315 ], [ -117.129225282120728, 32.754699481295788 ], [ -117.129289286932377, 32.754570593918764 ], [ -117.141054179812826, 32.744818001084347 ], [ -117.145221269902024, 32.731284431596499 ], [ -117.145175575638021, 32.715780449584884 ], [ -117.149244985990805, 32.705787110256303 ], [ -117.15250154384924, 32.704318171691142 ], [ -117.158228935461537, 32.702154275635209 ], [ -117.163595091356299, 32.702702102973994 ], [ -117.164406848741862, 32.703103679880236 ], [ -117.168002673819601, 32.705552047715024 ], [ -117.173434695695988, 32.708961124573882 ], [ -117.175794165049339, 32.711285808647695 ], [ -117.176757129341667, 32.714171398692315 ], [ -117.176428031192629, 32.715874431660183 ], [ -117.177618961069726, 32.727424269799769 ], [ -117.182383364274088, 32.733679831519822 ], [ -117.187905060964994, 32.739120765924497 ], [ -117.213379385244295, 32.732995702158341 ], [ -117.221163599832053, 32.725282017046609 ], [ -117.229305996435855, 32.721167530668296 ], [ -117.229522109715603, 32.721166293039076 ], [ -117.233548904997136, 32.723133689678988 ], [ -117.233626782847907, 32.72338035080287 ], [ -117.229754347433669, 32.729029622386626 ], [ -117.241665172193294, 32.750663274850396 ], [ -117.241572010294561, 32.750898625243003 ], [ -117.237355847439744, 32.752797137709479 ], [ -117.233631298630542, 32.754770242653166 ], [ -117.225671324850424, 32.758554249908201 ], [ -117.209294000815362, 32.769573683727074 ], [ -117.205753246593588, 32.776140190518966 ], [ -117.20967721867909, 32.789568378844862 ], [ -117.231665415384768, 32.792156651120649 ], [ -117.237842233807996, 32.791352339865128 ], [ -117.255133499192667, 32.790304642110009 ], [ -117.255354634132999, 32.790436386193477 ], [ -117.257119045520398, 32.795810183278519 ], [ -117.257083173126418, 32.795967680026131 ], [ -117.253775648656031, 32.799612208420207 ], [ -117.241749595087256, 32.805253924117764 ], [ -117.237819559540313, 32.807595524952568 ], [ -117.233841716527323, 32.809351766781774 ], [ -117.222213309452357, 32.818790951296705 ], [ -117.217938985282146, 32.840422429044821 ], [ -117.221583319333703, 32.846625851662942 ], [ -117.234185088818819, 32.860122516315549 ], [ -117.237404422091004, 32.866052373097006 ], [ -117.237952900529763, 32.869664620327292 ], [ -117.238090910061416, 32.873642520051249 ], [ -117.237979103526371, 32.881316867668083 ] ], [ [ -117.193228841828585, 32.731078679734352 ], [ -117.193228841828585, 32.731078679734352 ] ], [ [ -117.201217737934456, 32.731114792950656 ], [ -117.201217737934456, 32.731114792950656 ] ], [ [ -117.233879432711362, 32.774097896274625 ], [ -117.233462738115307, 32.774042834043762 ], [ -117.2334302567685, 32.766230933904858 ], [ -117.233856717861769, 32.766216487862337 ], [ -117.234202987591317, 32.770050613371936 ], [ -117.233879432711362, 32.774097896274625 ] ], [ [ -117.237399007735007, 32.779837153671821 ], [ -117.237399007735007, 32.779837153671821 ] ], [ [ -117.237726538152657, 32.783694199100395 ], [ -117.237726538152657, 32.783694199100395 ] ] ] } },
{ "type": "Feature", "properties": { "site_label": "new", "site_name": "Snapdragon Stadium", "travel_time_minutes": 30.0 }, "geometry": { "type": "MultiLineString", "coordinates": [ [ [ -117.093407874923784, 32.780661815230118 ], [ -117.093407874923784, 32.780661815230118 ] ], [ [ -117.101252303154226, 32.780077297051243 ], [ -117.101252303154226, 32.780077297051243 ] ], [ [ -117.13007248532513, 32.797835578592284 ], [ -117.129957840510485, 32.797977385725162 ], [ -117.12529413438493, 32.800006689331695 ], [ -117.125005719526897, 32.799927813482945 ], [ -117.121407324774793, 32.793926264392049 ], [ -117.112754690127744, 32.795504757078525 ], [ -117.10622379302049, 32.794111579179479 ], [ -117.106066255345041, 32.793967264477452 ], [ -117.105307263896563, 32.79022496320232 ], [ -117.105026570554486, 32.786605181114481 ], [ -117.106512981186839, 32.781697283513047 ], [ -117.109332420085394, 32.779746385698232 ], [ -117.109561866339547, 32.779726158749519 ], [ -117.11351103500516, 32.78140618219782 ], [ -117.121333711275128, 32.781842212717663 ], [ -117.125470269472004, 32.78006955669418 ], [ -117.133528336731118, 32.776228202498672 ], [ -117.137423445809645, 32.774414143817836 ], [ -117.141490881421348, 32.772033591997044 ], [ -117.141727741586095, 32.772030000858948 ], [ -117.145525337757888, 32.774086297426351 ], [ -117.145516998218838, 32.774394394062874 ], [ -117.14153549361491, 32.776339097424376 ], [ -117.137632878217545, 32.777976849088219 ], [ -117.133825679020433, 32.785446651658773 ], [ -117.129712950244453, 32.789913915597623 ], [ -117.13007248532513, 32.797835578592284 ] ], [ [ -117.160870490349538, 32.769837890956147 ], [ -117.160971016472942, 32.770156062479728 ], [ -117.157653214733358, 32.772432065999006 ], [ -117.157399067128466, 32.772441513486548 ], [ -117.153260663332972, 32.770079909605968 ], [ -117.153383109137536, 32.769749993964382 ], [ -117.160870490349538, 32.769837890956147 ] ], [ [ -117.169282216095738, 32.766334411690657 ], [ -117.169282216095738, 32.766334411690657 ] ] ] } },
{ "type": "Feature", "properties": { "site_label": "new", "site_name": "Snapdragon Stadium", "travel_time_minutes": 45.0 }, "geometry": { "type": "MultiLineString", "coordinates": [ [ [ -117.001233913188869, 32.78595686115051 ], [ -117.001233913188869, 32.78595686115051 ] ], [ [ -117.013254296973216, 32.780178938174018 ], [ -117.013254296973216, 32.780178938174018 ] ], [ [ -117.037279097021269, 32.772914276668729 ], [ -117.037279097021269, 32.772914276668729 ] ], [ [ -117.081540965515714, 32.774329537106077 ], [ -117.077682674652962, 32.778734944416335 ], [ -117.077486101417719, 32.778806682683246 ], [ -117.073401905547968, 32.778399977867664 ], [ -117.065437491626298, 32.778434620550804 ], [ -117.061507930486457, 32.776553584848493 ], [ -117.053422880085861, 32.776419987110742 ], [ -117.0455074262007, 32.776662304900796 ], [ -117.04528613047448, 32.776481532474769 ], [ -117.045297931358263, 32.77263564025219 ], [ -117.045162529190009, 32.768464846772687 ], [ -117.045376481199, 32.768279477219437 ], [ -117.053331384456101, 32.768294369045762 ], [ -117.061161690261898, 32.764372945468139 ], [ -117.061202526713998, 32.760513213675061 ], [ -117.065224234824726, 32.754633519513163 ], [ -117.065517652875243, 32.754568433596518 ], [ -117.069460772383806, 32.756535495898987 ], [ -117.077134173557255, 32.756815880968709 ], [ -117.081396734851097, 32.754655597554915 ], [ -117.089555118408484, 32.754549897792195 ], [ -117.089771811193046, 32.754736010920681 ], [ -117.089623120647559, 32.758703411153853 ], [ -117.089397254097264, 32.758877816655129 ], [ -117.081464215671005, 32.758486192750539 ], [ -117.073611073663216, 32.758825053767431 ], [ -117.073608675273704, 32.766449601622533 ], [ -117.077505855371896, 32.768851243410104 ], [ -117.081314287134518, 32.769727110673138 ], [ -117.08147172445787, 32.769898177928141 ], [ -117.081540965515714, 32.774329537106077 ] ], [ [ -117.209550957821008, 32.746637810196034 ], [ -117.209708619372464, 32.746863456597843 ], [ -117.201763368769932, 32.77026006922879 ], [ -117.201665569630194, 32.770366211232215 ], [ -117.173665437593669, 32.784137235022612 ], [ -117.169544643089139, 32.786019677013037 ], [ -117.153482842836723, 32.782200653946532 ], [ -117.137870448106412, 32.801563467046257 ], [ -117.137736341116295, 32.8053085540746 ], [ -117.13763339175118, 32.805457466773468 ], [ -117.129755983168394, 32.809482073653342 ], [ -117.129585191499771, 32.809500809269984 ], [ -117.11403525951404, 32.805638342607544 ], [ -117.093286133770093, 32.79601212586104 ], [ -117.089683394160502, 32.793862200758014 ], [ -117.085116212587863, 32.784046693581608 ], [ -117.0851300488834, 32.783890457269372 ], [ -117.093655866135435, 32.771420069646062 ], [ -117.097000958750698, 32.770207347442835 ], [ -117.125328556596017, 32.776060006796904 ], [ -117.12931955687047, 32.773996898710813 ], [ -117.138181838163888, 32.767049150551671 ], [ -117.138275451674076, 32.767006333552573 ], [ -117.149112272756753, 32.764723625932788 ], [ -117.16928865177232, 32.7585161329702 ], [ -117.198274597387353, 32.747785151180373 ], [ -117.209550957821008, 32.746637810196034 ] ], [ [ -117.165670058503167, 32.748622279161665 ], [ -117.165620577481917, 32.748895434338245 ], [ -117.161729273291741, 32.750896137747937 ], [ -117.161515746764877, 32.750900247649334 ], [ -117.1574245465563, 32.749006846608602 ], [ -117.15367714188406, 32.750913863071872 ], [ -117.153462769470494, 32.750916763217852 ], [ -117.149349464470177, 32.74897235986051 ], [ -117.149346205373448, 32.748659012864714 ], [ -117.153334500814452, 32.746694916249901 ], [ -117.157336408867906, 32.744818238865442 ], [ -117.157543741594765, 32.744818309494207 ], [ -117.165670058503167, 32.748622279161665 ] ], [ [ -117.165335659991271, 32.791667614538873 ], [ -117.165335659991271, 32.791667614538873 ] ], [ [ -117.169449644693643, 32.723495469903412 ], [ -117.169036369031303, 32.723430178368048 ], [ -117.1691837229708, 32.71556570107721 ], [ -117.169610497596096, 32.715572356713004 ], [ -117.169449644693643, 32.723495469903412 ] ], [ [ -117.173243295148879, 32.733078694462115 ], [ -117.173243295148879, 32.733078694462115 ] ], [ [ -117.188021359027246, 32.7392425886678 ], [ -117.189670164606454, 32.744816593563677 ], [ -117.189356922637984, 32.74501677652718 ], [ -117.18550168592256, 32.743151328520526 ], [ -117.181578521739581, 32.744984987076194 ], [ -117.181261707452265, 32.744827760316788 ], [ -117.181244916700834, 32.740949260256087 ], [ -117.181356285667889, 32.740790154927517 ], [ -117.185321180111742, 32.738964930449612 ], [ -117.18365430458806, 32.736200828293981 ], [ -117.183991662584674, 32.735988200027066 ], [ -117.188021359027246, 32.7392425886678 ] ] ] } },
{ "type": "Feature", "properties": { "site_label": "new", "site_name": "Snapdragon Stadium", "travel_time_minutes": 60.0 }, "geometry": { "type": "MultiLineString", "coordinates": [ [ [ -116.981519208448219, 32.79571836825896 ], [ -116.981482869047625, 32.796009705822733 ], [ -116.977603764455012, 32.797879109053106 ], [ -116.977370275176568, 32.797867083846555 ], [ -116.973498209900541, 32.795430547992098 ], [ -116.969199479013184, 32.793961550502488 ], [ -116.969065992718612, 32.793795452728503 ], [ -116.969037301786742, 32.790001852685677 ], [ -116.969136173792521, 32.789848510348484 ], [ -116.972845629100419, 32.787853344100448 ], [ -116.973089321775745, 32.784037681037987 ], [ -116.973414326268241, 32.783893629928777 ], [ -116.977614721768745, 32.786071226233801 ], [ -116.977713339045849, 32.786256375953236 ], [ -116.976944487747986, 32.789933900869784 ], [ -116.976964725090468, 32.793682349533768 ], [ -116.981519208448219, 32.79571836825896 ] ], [ [ -116.973089480708452, 32.803507616322236 ], [ -116.973089480708452, 32.803507616322236 ] ], [ [ -116.97731236449188, 32.805477780702631 ], [ -116.97731236449188, 32.805477780702631 ] ], [ [ -117.177447621223195, 32.809660686801948 ], [ -117.177281367362795, 32.809763524216656 ], [ -117.142040797993758, 32.813616432041364 ], [ -117.117499152723397, 32.815288139328196 ], [ -117.117404851662755, 32.815276549786951 ], [ -117.089341606623748, 32.806096932827785 ], [ -117.085252464665572, 32.803550937267424 ], [ -117.077321717403052, 32.79593269777186 ], [ -117.061341129486422, 32.784258165439745 ], [ -117.021695366515218, 32.788426174490127 ], [ -117.017453388721819, 32.790198704627691 ], [ -117.00488733981156, 32.796095918451464 ], [ -117.001403189885011, 32.797636837858967 ], [ -117.001211065101685, 32.797639412977439 ], [ -116.997067724390035, 32.795945913326783 ], [ -116.988909914499914, 32.792096606636676 ], [ -116.988800541774381, 32.791935235948287 ], [ -116.989098869868343, 32.78017123645553 ], [ -116.989171440403467, 32.780039552591063 ], [ -117.005197934861542, 32.768143470365004 ], [ -117.00881554731086, 32.76629965594897 ], [ -117.021177716813312, 32.764039452639587 ], [ -117.053251807547952, 32.744850462915061 ], [ -117.057546659756497, 32.742851100639598 ], [ -117.081372260654163, 32.746645519100184 ], [ -117.101484408668313, 32.744773662443023 ], [ -117.117400394320327, 32.748641557312084 ], [ -117.145195972819877, 32.727208576195338 ], [ -117.145400828030148, 32.719918668971246 ], [ -117.137266967215297, 32.703773995723601 ], [ -117.13742677431992, 32.703525537825762 ], [ -117.149342851436458, 32.70177464131114 ], [ -117.158326332236911, 32.702138786921829 ], [ -117.163595091356299, 32.702702102973994 ], [ -117.164406848741862, 32.703103679880236 ], [ -117.168002673819601, 32.705552047715024 ], [ -117.173434695695988, 32.708961124573882 ], [ -117.175794165049339, 32.711285808647695 ], [ -117.176728312769242, 32.714083131406895 ], [ -117.217409303266422, 32.72710719326728 ], [ -117.225266456279769, 32.71928016918821 ], [ -117.225411244337948, 32.71921711590938 ], [ -117.230896433420838, 32.718825516732245 ], [ -117.233793396445861, 32.719636806863242 ], [ -117.245741453307502, 32.748544087665415 ], [ -117.2456525698544, 32.748756854176392 ], [ -117.241578307959315, 32.750895672972021 ], [ -117.233653235471124, 32.754759560560473 ], [ -117.205671756008755, 32.776256006081809 ], [ -117.181666403932212, 32.791710301699631 ], [ -117.177447621223195, 32.809660686801948 ] ], [ [ -117.193867043723884, 32.832946563447052 ], [ -117.193470200617469, 32.83298880908702 ], [ -117.189570662436154, 32.826750086583125 ], [ -117.182080177366245, 32.823370809265825 ], [ -117.181842671124613, 32.826571581914791 ], [ -117.181447488079584, 32.826654965701138 ], [ -117.177401395028923, 32.821111959881392 ], [ -117.177388335457167, 32.816844916919827 ], [ -117.17750977140966, 32.816682852472127 ], [ -117.182026265094052, 32.814857755773815 ], [ -117.182252973701893, 32.81488029464267 ], [ -117.185420568577243, 32.817116675060575 ], [ -117.185824105773833, 32.820821172850771 ], [ -117.193974369282856, 32.825045020637688 ], [ -117.194076264344147, 32.825210327923024 ], [ -117.193812277265792, 32.828753258224523 ], [ -117.193867043723884, 32.832946563447052 ] ], [ [ -117.206227152481546, 32.795352623169471 ], [ -117.205925721089031, 32.79551000888037 ], [ -117.201501014576223, 32.793820805841939 ], [ -117.197390736637558, 32.791691054728432 ], [ -117.197402123380144, 32.791378039680218 ], [ -117.20153409935925, 32.789519968395993 ], [ -117.201540808431318, 32.785889618528053 ], [ -117.201643744230026, 32.785735578360274 ], [ -117.205452140104214, 32.783786981692977 ], [ -117.205776371547799, 32.783943479833042 ], [ -117.205723087837328, 32.787668812100179 ], [ -117.209611674573026, 32.789574133043644 ], [ -117.209622776999879, 32.789880436756896 ], [ -117.205789384715857, 32.792033497239231 ], [ -117.206227152481546, 32.795352623169471 ] ], [ [ -117.201323096002227, 32.813123541052668 ], [ -117.201323096002227, 32.813123541052668 ] ], [ [ -117.20145488712599, 32.817014541336661 ], [ -117.20145488712599, 32.817014541336661 ] ], [ [ -117.241860415489001, 32.797499057295951 ], [ -117.241612640283108, 32.801525373545182 ], [ -117.241436177828675, 32.801693712613229 ], [ -117.229712103273116, 32.803428453513405 ], [ -117.226039914489917, 32.805639811700082 ], [ -117.217985305338885, 32.809620618581867 ], [ -117.217766872622818, 32.809619301529843 ], [ -117.213521067920908, 32.807451697854908 ], [ -117.213418335648271, 32.807308035811154 ], [ -117.212893753321424, 32.799875434857704 ], [ -117.21310956531201, 32.799684291522269 ], [ -117.222033627206557, 32.799774488068657 ], [ -117.233436141886969, 32.797126897861169 ], [ -117.237460961031204, 32.787729727340881 ], [ -117.23336050510423, 32.778004029367288 ], [ -117.233462727488359, 32.774040278611096 ], [ -117.2334302567685, 32.766230933904858 ], [ -117.233856717861769, 32.766216487862337 ], [ -117.234200985189304, 32.770004623292401 ], [ -117.237810274001021, 32.779827107402184 ], [ -117.238139705673902, 32.783728033075427 ], [ -117.241860415489001, 32.797499057295951 ] ], [ [ -117.229844092863445, 32.873712342773857 ], [ -117.229844092863445, 32.873712342773857 ] ], [ [ -117.253445163842073, 32.795451480547392 ], [ -117.253445163842073, 32.795451480547392 ] ] ] } }
]
}
