{
"type": "FeatureCollection",
"name": "san_jose_isochrones",
"crs": { "type": "name", "properties": { "name": "urn:ogc:def:crs:OGC:1.3:CRS84" } },
"features": [
{ "type": "Feature", "properties": { "site_label": "Vj58W84M8n", "site_name": "PayPal Park", "travel_time_minutes": 30.0 }, "geometry": { "type": "MultiLineString", "coordinates": [ [ [ -121.94316621261413, 37.361298531753462 ], [ -121.940222236070724, 37.366171699805115 ], [ -121.939847189796396, 37.366210595815311 ], [ -121.934712636416094, 37.361475518387898 ], [ -121.931864784140586, 37.360027103779139 ], [ -121.927516988786408, 37.3555276973552 ], [ -121.925773725547216, 37.353597826994964 ], [ -121.922066976678579, 37.352668267813421 ], [ -121.920633586163007, 37.360081313316833 ], [ -121.923070360791797, 37.362623109916086 ], [ -121.92873485232424, 37.367901763872005 ], [ -121.931993798678008, 37.370648447774428 ], [ -121.931864210282598, 37.370950562187012 ], [ -121.929905444264108, 37.371188242953849 ], [ -121.921386474001537, 37.370936241150829 ], [ -121.917326254706865, 37.373146034147304 ], [ -121.917000671176467, 37.3730833688142 ], [ -121.912867382723491, 37.367030462145792 ], [ -121.91291889810779, 37.363105644284758 ], [ -121.91647680332072, 37.357411134976466 ], [ -121.913143300677007, 37.355298890020372 ], [ -121.913057916030965, 37.355160909893378 ], [ -121.912977730830363, 37.351566398572658 ], [ -121.904748828291645, 37.351488953371188 ], [ -121.904525695249646, 37.351307758927007 ], [ -121.904582127876893, 37.347453225569858 ], [ -121.908989637315798, 37.341547332863442 ], [ -121.913411770202842, 37.339543933337133 ], [ -121.921883149951313, 37.339545733013267 ], [ -121.922108804121081, 37.339730483712728 ], [ -121.921992475587317, 37.343463529775462 ], [ -121.926027805979032, 37.349593681495215 ], [ -121.934364835696499, 37.349408408625159 ], [ -121.938622781853411, 37.347580533809186 ], [ -121.947158661439147, 37.347555533553759 ], [ -121.947385275104324, 37.3477384295824 ], [ -121.947316317725907, 37.35151207124909 ], [ -121.955608769918896, 37.351534933169205 ], [ -121.955720333530977, 37.351871579446183 ], [ -121.951446618374035, 37.353827947858747 ], [ -121.947348720338283, 37.359430300323794 ], [ -121.94316621261413, 37.361298531753462 ] ] ] } },
{ "type": "Feature", "properties": { "site_label": "Vj58W84M8n", "site_name": "PayPal Park", "travel_time_minutes": 45.0 }, "geometry": { "type": "MultiLineString", "coordinates": [ [ [ -121.95497156746373, 37.410195464322982 ], [ -121.954895611830906, 37.41042512511504 ], [ -121.950671354341679, 37.412657251592613 ], [ -121.942011233652366, 37.412410850692957 ], [ -121.941843137880085, 37.412343617815537 ], [ -121.933712345166256, 37.404271605953824 ], [ -121.929366111543715, 37.398541786268332 ], [ -121.904593264141212, 37.390237692039044 ], [ -121.895661027781173, 37.405878249121585 ], [ -121.895342903420328, 37.40595983775669 ], [ -121.891133004667651, 37.403988908988843 ], [ -121.882837841819764, 37.38809709512531 ], [ -121.882893621459559, 37.384254611521825 ], [ -121.883008650299601, 37.384100329752698 ], [ -121.895662413079478, 37.378414816239335 ], [ -121.896723775420597, 37.359389414878216 ], [ -121.89599672272756, 37.355194853956164 ], [ -121.891774123079728, 37.345598481411137 ], [ -121.887814126560258, 37.339494911988737 ], [ -121.888102041623839, 37.335213767444223 ], [ -121.888220085292588, 37.335065902837933 ], [ -121.900894465843507, 37.329596813888955 ], [ -121.904938236052132, 37.327873955773882 ], [ -121.905155379216922, 37.327875977794854 ], [ -121.909229518957758, 37.329710486740439 ], [ -121.921936158717514, 37.331883784145901 ], [ -121.930385849359865, 37.331760321828874 ], [ -121.947430870706825, 37.316275990677894 ], [ -121.951884039849205, 37.314418751684897 ], [ -121.952202432466947, 37.314522797250149 ], [ -121.956151486081652, 37.32417210933739 ], [ -121.977108801979668, 37.338115591089981 ], [ -121.990058039558278, 37.347971120965177 ], [ -122.006447390552111, 37.351957250920236 ], [ -122.006496457939349, 37.352284908773306 ], [ -121.998097307248713, 37.356189423362522 ], [ -121.985177277855499, 37.358203927604016 ], [ -121.97263026907568, 37.359684744507959 ], [ -121.95972944848792, 37.373312812343556 ], [ -121.959302697890095, 37.376896607152055 ], [ -121.938341286558341, 37.39050843264819 ], [ -121.946656818417352, 37.402458393406988 ], [ -121.95497156746373, 37.410195464322982 ] ], [ [ -121.963075883861606, 37.406367007251042 ], [ -121.963075883861606, 37.406367007251042 ] ], [ [ -122.00208888509647, 37.369560944093791 ], [ -122.002026114348382, 37.373614817032355 ], [ -122.001910326932332, 37.373767936635915 ], [ -121.993454256043421, 37.377582333300879 ], [ -121.993116122771696, 37.37742396943802 ], [ -121.993290368399201, 37.365717600391534 ], [ -121.993635487953725, 37.365567125882926 ], [ -121.997669661637289, 37.367569776645283 ], [ -122.00208888509647, 37.369560944093791 ] ], [ [ -122.014630336288704, 37.352208975687731 ], [ -122.014630336288704, 37.352208975687731 ] ], [ [ -122.035721195164527, 37.377904323558447 ], [ -122.035897600523199, 37.381467840408021 ], [ -122.035567470004381, 37.381633193369922 ], [ -122.031656671365525, 37.38000814105596 ], [ -122.031583883332587, 37.383735808957383 ], [ -122.031238202321248, 37.383885835805025 ], [ -122.02700249727755, 37.381771631493514 ], [ -122.026896447362176, 37.381614947983095 ], [ -122.027001359096388, 37.377697848347132 ], [ -122.027118304447399, 37.377543759757501 ], [ -122.031400898010332, 37.375663163563473 ], [ -122.03163698180326, 37.375672118863541 ], [ -122.035721195164527, 37.377904323558447 ] ], [ [ -122.077638619445295, 37.393744811661946 ], [ -122.077638619445295, 37.393744811661946 ] ], [ [ -122.107137855244247, 37.407548363872863 ], [ -122.107137855244247, 37.407548363872863 ] ] ] } },
{ "type": "Feature", "properties": { "site_label": "Vj58W84M8n", "site_name": "PayPal Park", "travel_time_minutes": 60.0 }, "geometry": { "type": "MultiLineString", "coordinates": [ [ [ -121.865777377476974, 37.403424034239613 ], [ -121.865777377476974, 37.403424034239613 ] ], [ [ -121.871193828206202, 37.311777147147851 ], [ -121.871193828206202, 37.311777147147851 ] ], [ [ -122.057080289640624, 37.376160431797906 ], [ -122.048337630903788, 37.383789813538428 ], [ -122.044197814194305, 37.385837648931648 ], [ -122.031389795427714, 37.391595960539419 ], [ -122.026607005452959, 37.393085444337544 ], [ -122.018798620247935, 37.393317119535496 ], [ -121.971739897516841, 37.414485829251106 ], [ -121.954760360751962, 37.41817363712692 ], [ -121.941939469556445, 37.419441101215398 ], [ -121.903841991659391, 37.41778821853876 ], [ -121.895338073011914, 37.417722094321029 ], [ -121.882542444363381, 37.41568958913642 ], [ -121.882389274740774, 37.4156006785093 ], [ -121.869968307850527, 37.397851758558538 ], [ -121.869939673984391, 37.397761533978716 ], [ -121.870326442232098, 37.374243074313348 ], [ -121.870837829961758, 37.339259856532728 ], [ -121.875405490926397, 37.317823566027506 ], [ -121.875516949595067, 37.317696862769147 ], [ -121.901105066664627, 37.306144478401492 ], [ -121.930819101552899, 37.296747511310791 ], [ -121.947773704907121, 37.281307921262986 ], [ -121.948059003466028, 37.281272044371676 ], [ -121.952466235954873, 37.28338707748722 ], [ -121.977477352690201, 37.306933641808982 ], [ -121.98162369034921, 37.316750303338878 ], [ -122.010811458833331, 37.342138442779408 ], [ -122.015344080262452, 37.344295147139981 ], [ -122.023507255885463, 37.348598266755957 ], [ -122.05705954326227, 37.371958224968409 ], [ -122.057136969357657, 37.372095574159871 ], [ -122.057080289640624, 37.376160431797906 ] ], [ [ -121.874319717074428, 37.41913804321667 ], [ -121.873903364650815, 37.419189024441422 ], [ -121.869773674906043, 37.413482917850317 ], [ -121.869780625819729, 37.409411755882253 ], [ -121.870123574803742, 37.409258866545578 ], [ -121.874377069490038, 37.411311462298443 ], [ -121.874485728987082, 37.411475840909183 ], [ -121.87420606376935, 37.415434839150819 ], [ -121.874319717074428, 37.41913804321667 ] ], [ [ -121.871985000665816, 37.292632915971396 ], [ -121.871985000665816, 37.292632915971396 ] ], [ [ -121.88407122110101, 37.310270770054146 ], [ -121.88407122110101, 37.310270770054146 ] ], [ [ -121.975600634292192, 37.420166729114655 ], [ -121.975600634292192, 37.420166729114655 ] ], [ [ -121.9814279048407, 37.301160816462598 ], [ -121.9814279048407, 37.301160816462598 ] ], [ [ -122.090871208072898, 37.395870029389755 ], [ -122.09084297667566, 37.395995147182369 ], [ -122.086447907903207, 37.401817187474556 ], [ -122.077862995098315, 37.405611095159983 ], [ -122.069187487594235, 37.405564060725304 ], [ -122.06896387005159, 37.40538010949934 ], [ -122.069065192565319, 37.40146450335002 ], [ -122.069598035959558, 37.397452842925333 ], [ -122.060919763237621, 37.393819085269989 ], [ -122.052499898351456, 37.397585743187093 ], [ -122.052280850832474, 37.39758660499205 ], [ -122.048133144898429, 37.395773901147479 ], [ -122.048114981372507, 37.395466549516357 ], [ -122.051903182593776, 37.393419268378935 ], [ -122.06032829773757, 37.389253950549602 ], [ -122.0693023484572, 37.385718926080749 ], [ -122.073582698668275, 37.383851037840046 ], [ -122.073797869428915, 37.383850332580771 ], [ -122.08232965692595, 37.387500924802119 ], [ -122.086586732957585, 37.389859057493688 ], [ -122.090871208072898, 37.395870029389755 ] ], [ [ -122.05083762506257, 37.405769655165649 ], [ -122.048857530760301, 37.405586212958085 ], [ -122.048822962350087, 37.405235299754985 ], [ -122.051559856597692, 37.404568101186257 ], [ -122.051800332016484, 37.404855103345938 ], [ -122.05083762506257, 37.405769655165649 ] ], [ [ -122.116197611133003, 37.407358557501887 ], [ -122.116174366444298, 37.407486933750597 ], [ -122.111692809445074, 37.413798497437845 ], [ -122.103103994041774, 37.41751618657014 ], [ -122.102769809593823, 37.417349972088445 ], [ -122.103020033761126, 37.412872536584707 ], [ -122.098649068609362, 37.407633082994728 ], [ -122.09450897943546, 37.401752776319974 ], [ -122.09470822408008, 37.40148423763538 ], [ -122.103106363211481, 37.401549885588274 ], [ -122.107306028220876, 37.399749308803479 ], [ -122.107521587310373, 37.399750008264178 ], [ -122.111558686831998, 37.401540124635773 ], [ -122.116197611133003, 37.407358557501887 ] ], [ [ -122.149451036493844, 37.431037240524553 ], [ -122.149421667682375, 37.431312074213338 ], [ -122.145214163365267, 37.43368047874462 ], [ -122.144953039345722, 37.433680254608845 ], [ -122.140725380807439, 37.431289616265204 ], [ -122.136749024421931, 37.429301635958815 ], [ -122.136643134223803, 37.429153861149409 ], [ -122.136511445692079, 37.425338961044247 ], [ -122.136633890588726, 37.425173740215705 ], [ -122.141095483448581, 37.423340743986465 ], [ -122.141318124919138, 37.423347795583929 ], [ -122.145447719902293, 37.425390091410172 ], [ -122.145554279869685, 37.425553484498245 ], [ -122.145304946055901, 37.429067490340394 ], [ -122.149451036493844, 37.431037240524553 ] ], [ [ -122.155221411705526, 37.443905248749026 ], [ -122.155221411705526, 37.443905248749026 ] ] ] } }
]
}
