{
"type": "FeatureCollection",
"name": "seattle_tacoma_isochrones",
"crs": { "type": "name", "properties": { "name": "urn:ogc:def:crs:OGC:1.3:CRS84" } },
"features": [
{ "type": "Feature", "properties": { "site_label": "old", "site_name": "Cheney Stadium", "travel_time_minutes": 30.0 }, "geometry": { "type": "MultiLineString", "coordinates": [ [ [ -122.511303030918938, 47.249182946534589 ], [ -122.511357715402752, 47.252960126236218 ], [ -122.511222895673527, 47.25311879643332 ], [ -122.506163885358163, 47.255054302059648 ], [ -122.505890434317337, 47.255048339585507 ], [ -122.501097611677125, 47.25292909563629 ], [ -122.496388055413874, 47.254991639909512 ], [ -122.496430648842363, 47.258742208827584 ], [ -122.495939710945251, 47.258836303196212 ], [ -122.490790910523685, 47.253002655228819 ], [ -122.486115912990655, 47.251025716817551 ], [ -122.481026444203238, 47.249168526650323 ], [ -122.480887274988277, 47.249001574095352 ], [ -122.481150048698169, 47.245137837331704 ], [ -122.476133113474646, 47.243221666932584 ], [ -122.475999085786498, 47.243049341251314 ], [ -122.476507757626408, 47.239004752782691 ], [ -122.476226512632309, 47.235299291093554 ], [ -122.476354490278027, 47.235135657643937 ], [ -122.491149494962343, 47.229136411231906 ], [ -122.491292608318247, 47.22559704514525 ], [ -122.491617458386671, 47.22542685019917 ], [ -122.500715330168077, 47.226891045313849 ], [ -122.500918765361632, 47.22706331623835 ], [ -122.500975609741843, 47.229479320874738 ], [ -122.506375515103457, 47.231843040325529 ], [ -122.511093613707928, 47.233271437623088 ], [ -122.511250203600511, 47.233444858598382 ], [ -122.510970791621105, 47.237263270986098 ], [ -122.5162268721256, 47.239210601862467 ], [ -122.516364758384555, 47.239373708500381 ], [ -122.516214144305252, 47.243058124014127 ], [ -122.520730767497966, 47.245110082835062 ], [ -122.520721637807, 47.245413483113452 ], [ -122.516129796960243, 47.247318844729399 ], [ -122.511303030918938, 47.249182946534589 ] ] ] } },
{ "type": "Feature", "properties": { "site_label": "old", "site_name": "Cheney Stadium", "travel_time_minutes": 45.0 }, "geometry": { "type": "MultiLineString", "coordinates": [ [ [ -122.516102356166854, 47.262720845564402 ], [ -122.51596327984754, 47.262881583531922 ], [ -122.510724413191639, 47.264800508731177 ], [ -122.506726326815397, 47.266722706063547 ], [ -122.50645006215646, 47.266734746933672 ], [ -122.500995425437864, 47.264768261212424 ], [ -122.496315459228612, 47.266686090821793 ], [ -122.496049872650403, 47.266688910967034 ], [ -122.485995501713035, 47.262878452894704 ], [ -122.481076693156879, 47.260792146915882 ], [ -122.480952135528824, 47.260638810414868 ], [ -122.480971137876338, 47.256691494591387 ], [ -122.476149197860067, 47.254912653321917 ], [ -122.4660688486818, 47.250905367078211 ], [ -122.461333482812137, 47.245036504537644 ], [ -122.456462067357407, 47.243125342095283 ], [ -122.456365556446741, 47.242878911465837 ], [ -122.46133087281116, 47.237064821340013 ], [ -122.46655596354492, 47.23155603905294 ], [ -122.471332360211804, 47.229058452081716 ], [ -122.471427352813578, 47.225505523148023 ], [ -122.471555337742018, 47.225354571007038 ], [ -122.476201467539227, 47.223450855625195 ], [ -122.481069531739038, 47.217675974483925 ], [ -122.481426374724236, 47.217608082265954 ], [ -122.486402990494, 47.219481867113799 ], [ -122.49377195197944, 47.215791589531356 ], [ -122.494170064514947, 47.215863947060001 ], [ -122.496626595361221, 47.219656979607173 ], [ -122.506027302944204, 47.219785962026194 ], [ -122.506282944584299, 47.21999391313777 ], [ -122.505419092224344, 47.223728752528409 ], [ -122.505421639355049, 47.227506194598099 ], [ -122.511215461748918, 47.2303063387224 ], [ -122.51628297536665, 47.227517999854889 ], [ -122.516678666304031, 47.227569035824018 ], [ -122.521249717769422, 47.233044137674078 ], [ -122.526168507613505, 47.23142819843477 ], [ -122.526546402377434, 47.231606852699713 ], [ -122.526042997418855, 47.235319050923593 ], [ -122.531377041908627, 47.237302940539919 ], [ -122.536047003186539, 47.239297329499983 ], [ -122.536170727514261, 47.239455530105133 ], [ -122.535962737805406, 47.243402468873832 ], [ -122.531808657281204, 47.249177077466939 ], [ -122.526172656472156, 47.251109748879685 ], [ -122.526709942296904, 47.254942198322325 ], [ -122.526567801684863, 47.255119310708444 ], [ -122.521014152794123, 47.257065877873139 ], [ -122.516032428158894, 47.258921258436487 ], [ -122.516102356166854, 47.262720845564402 ] ] ] } },
{ "type": "Feature", "properties": { "site_label": "old", "site_name": "Cheney Stadium", "travel_time_minutes": 60.0 }, "geometry": { "type": "MultiLineString", "coordinates": [ [ [ -122.540578946180389, 47.257052196151228 ], [ -122.536078536957376, 47.262894671604407 ], [ -122.531183997538434, 47.264754851664989 ], [ -122.520793124941235, 47.272603687090978 ], [ -122.515998053592469, 47.274570363580253 ], [ -122.505982733299078, 47.27842377477554 ], [ -122.495898801099798, 47.278398867636092 ], [ -122.490828158109039, 47.276466313523343 ], [ -122.485819316386056, 47.274483233889114 ], [ -122.476067001374545, 47.266589000790972 ], [ -122.470811990217072, 47.26459328508092 ], [ -122.461270495112061, 47.256759663626745 ], [ -122.456342437781117, 47.25481888433962 ], [ -122.451521843033731, 47.252722510168034 ], [ -122.441652351055723, 47.244902593094466 ], [ -122.441601607139432, 47.244729355073915 ], [ -122.446251986898133, 47.235044755558121 ], [ -122.446708882655557, 47.231650867166977 ], [ -122.44681431375578, 47.231522891038317 ], [ -122.451370902948852, 47.229214789626397 ], [ -122.46123779041892, 47.224905101359084 ], [ -122.466514626436677, 47.219496351301764 ], [ -122.471521803587137, 47.213703870270002 ], [ -122.476618864356567, 47.211746843465392 ], [ -122.481865730680695, 47.209821235621092 ], [ -122.491492579146296, 47.205965941578924 ], [ -122.501472672075948, 47.205984028989761 ], [ -122.50667122266988, 47.207859864358724 ], [ -122.516468785602981, 47.215844391788629 ], [ -122.521919577066953, 47.217714146040855 ], [ -122.526170133122505, 47.219803865909142 ], [ -122.536265430341032, 47.227601997264223 ], [ -122.541168750543576, 47.229764730127094 ], [ -122.546314569219746, 47.235284508678134 ], [ -122.555878046350045, 47.243246437066936 ], [ -122.555798540259133, 47.243518955596798 ], [ -122.545222121232769, 47.247386241891022 ], [ -122.540934054849572, 47.25313796417268 ], [ -122.540578946180389, 47.257052196151228 ] ] ] } },
{ "type": "Feature", "properties": { "site_label": "new", "site_name": "Lumen Field", "travel_time_minutes": 30.0 }, "geometry": { "type": "MultiLineString", "coordinates": [ [ [ -122.238234261421638, 47.590468461445596 ], [ -122.238217931914377, 47.590732548446866 ], [ -122.23416632881937, 47.593060854458699 ], [ -122.233428874884737, 47.592492401788299 ], [ -122.22818587129558, 47.590384190732259 ], [ -122.22805578850803, 47.590230460020997 ], [ -122.228028406109829, 47.586756960057166 ], [ -122.228157380685033, 47.58660175398559 ], [ -122.233510870481695, 47.584424860266452 ], [ -122.233913873233732, 47.584580918084377 ], [ -122.233858762461139, 47.588271674455605 ], [ -122.238234261421638, 47.590468461445596 ] ], [ [ -122.353097947532362, 47.62038898583139 ], [ -122.352965044099832, 47.620533682674484 ], [ -122.342988424003082, 47.624413994018575 ], [ -122.342713006912248, 47.624409918530596 ], [ -122.33781118639628, 47.622305417330089 ], [ -122.327994302003972, 47.62236304553209 ], [ -122.323109119334646, 47.624260934171154 ], [ -122.322843244837216, 47.624260686383693 ], [ -122.312705125048325, 47.62029647461403 ], [ -122.312572241789752, 47.62013906074781 ], [ -122.3126630060015, 47.61615733224528 ], [ -122.317782587490697, 47.610427664877655 ], [ -122.312837773716609, 47.604741710381568 ], [ -122.30318083203484, 47.604578402622685 ], [ -122.298099505859298, 47.602769530753747 ], [ -122.297958531169698, 47.602609055526216 ], [ -122.29809546404104, 47.594778551783932 ], [ -122.293269792284747, 47.588948314184364 ], [ -122.29326973353183, 47.588772557314584 ], [ -122.297969953162607, 47.583086389636925 ], [ -122.29334971503306, 47.577256338478215 ], [ -122.293311468564696, 47.573363113972299 ], [ -122.293699400980969, 47.573202995582008 ], [ -122.298554073759405, 47.574899032930361 ], [ -122.308485055041146, 47.571307785668438 ], [ -122.308744318410874, 47.571311025709733 ], [ -122.313575206723115, 47.573216548925934 ], [ -122.323392119887316, 47.573381945230018 ], [ -122.328331190523201, 47.567609875998542 ], [ -122.327905661167947, 47.563770963126728 ], [ -122.328391025644578, 47.563656664893486 ], [ -122.334219389081881, 47.569487296180625 ], [ -122.338620828374559, 47.571446545441873 ], [ -122.33874062380454, 47.571596830961489 ], [ -122.338742819006328, 47.57545436765453 ], [ -122.343134602801015, 47.581336841458779 ], [ -122.342758638691578, 47.588438442494393 ], [ -122.341914319501896, 47.591788134624956 ], [ -122.3411109973501, 47.593964072622242 ], [ -122.340584106506768, 47.597052892965422 ], [ -122.342870144230602, 47.605943895455489 ], [ -122.346964542400826, 47.609150838472246 ], [ -122.35284075868978, 47.612502477492455 ], [ -122.353189478644083, 47.616452676786182 ], [ -122.353097947532362, 47.62038898583139 ] ], [ [ -122.293483394251766, 47.561607686288028 ], [ -122.293483394251766, 47.561607686288028 ] ], [ [ -122.302358965711619, 47.647479504695376 ], [ -122.302358965711619, 47.647479504695376 ] ], [ [ -122.302375847124381, 47.651261504668753 ], [ -122.302375847124381, 47.651261504668753 ] ], [ [ -122.328596829559089, 47.548013165135693 ], [ -122.328596829559089, 47.548013165135693 ] ], [ [ -122.342179906547486, 47.631958794234833 ], [ -122.342179906547486, 47.631958794234833 ] ], [ [ -122.36870430171615, 47.571800457044439 ], [ -122.368438319153555, 47.571960557645518 ], [ -122.358463784985574, 47.571917457340319 ], [ -122.358235470292072, 47.571647206156932 ], [ -122.363212511244143, 47.565839666646262 ], [ -122.36336741965053, 47.561921386727342 ], [ -122.36389248648581, 47.558096332937417 ], [ -122.364363712265444, 47.557999665801049 ], [ -122.373618823002218, 47.565725549336669 ], [ -122.37354427590374, 47.565995129224561 ], [ -122.368473531771969, 47.567957129079204 ], [ -122.36870430171615, 47.571800457044439 ] ] ] } },
{ "type": "Feature", "properties": { "site_label": "new", "site_name": "Lumen Field", "travel_time_minutes": 45.0 }, "geometry": { "type": "MultiLineString", "coordinates": [ [ [ -122.168769415278462, 47.570479943005687 ], [ -122.169284698394591, 47.570544338003359 ], [ -122.169099457308562, 47.582182638786563 ], [ -122.168882052736052, 47.58235763344787 ], [ -122.154749706591431, 47.58413203909172 ], [ -122.149716386976749, 47.582560118957936 ], [ -122.142214135263018, 47.580631723259799 ], [ -122.142152850883988, 47.58031762764498 ], [ -122.1438448589481, 47.579500576929846 ], [ -122.14905532132471, 47.578371978730729 ], [ -122.154001730832945, 47.57997382822105 ], [ -122.159087303864837, 47.580994781342596 ], [ -122.163766876945559, 47.580384304463088 ], [ -122.168631167667357, 47.578124170819727 ], [ -122.168769415278462, 47.570479943005687 ] ], [ [ -122.167931102211909, 47.624983617762624 ], [ -122.167931102211909, 47.624983617762624 ] ], [ [ -122.203569658167552, 47.611611167667746 ], [ -122.198447023578183, 47.617567306671766 ], [ -122.193329576819025, 47.61956282986673 ], [ -122.193065283781451, 47.619562389242063 ], [ -122.188326251155658, 47.617719076920238 ], [ -122.183257572916148, 47.623155666743131 ], [ -122.182903128772651, 47.62321700920014 ], [ -122.178068118886998, 47.621400803740933 ], [ -122.177931243593747, 47.62124160936164 ], [ -122.178027914299491, 47.617233495680793 ], [ -122.183041931171346, 47.611371705761464 ], [ -122.188154061604195, 47.605655403334104 ], [ -122.18825757159189, 47.601829308371364 ], [ -122.188646674460514, 47.601673052216064 ], [ -122.19344905231884, 47.603367713662777 ], [ -122.198627745107629, 47.605428406412159 ], [ -122.203569658167552, 47.611611167667746 ] ], [ [ -122.203443920918517, 47.595924519646637 ], [ -122.203379122196949, 47.596200469615468 ], [ -122.198810013037843, 47.59798827482124 ], [ -122.198445252400589, 47.597921131150521 ], [ -122.193533670262951, 47.592049821429356 ], [ -122.193417953793343, 47.588242157740488 ], [ -122.188044566834165, 47.590552187777419 ], [ -122.187636796093656, 47.590385419353112 ], [ -122.188148511940028, 47.586213092734937 ], [ -122.188504551623524, 47.582462004953463 ], [ -122.183683179247552, 47.580401853055569 ], [ -122.183726596026361, 47.580082566970795 ], [ -122.189133881438792, 47.578621871491549 ], [ -122.191342557981145, 47.578483327852325 ], [ -122.193831256795818, 47.580246977083682 ], [ -122.197365548351442, 47.578664817969027 ], [ -122.19777156868065, 47.578774797253118 ], [ -122.198984159536408, 47.582363835518294 ], [ -122.203830384683499, 47.584033432429621 ], [ -122.203843568965056, 47.584349304128274 ], [ -122.198987093675726, 47.586262897238193 ], [ -122.203726975895989, 47.588115780810703 ], [ -122.203710505957005, 47.588433345966564 ], [ -122.198880185002153, 47.590026962369784 ], [ -122.198110001849017, 47.593926754995593 ], [ -122.203443920918517, 47.595924519646637 ] ], [ [ -122.253787550365871, 47.588598456182631 ], [ -122.253742415855967, 47.588712046673244 ], [ -122.246657131578701, 47.595784960240557 ], [ -122.246413001493679, 47.595863230840251 ], [ -122.227829338642891, 47.594727926648382 ], [ -122.224987116984849, 47.59319165636515 ], [ -122.224530050272662, 47.592233798682827 ], [ -122.21894269023835, 47.584917495683626 ], [ -122.213454342778221, 47.572963583939774 ], [ -122.213452314905538, 47.572861453506036 ], [ -122.219150986837263, 47.559153196389104 ], [ -122.218781772384219, 47.555070511988546 ], [ -122.218687810679953, 47.547498011991514 ], [ -122.224105262604354, 47.541561101288885 ], [ -122.224596491681524, 47.541651950277142 ], [ -122.224729718428577, 47.545441448270651 ], [ -122.224094413631278, 47.549661330398145 ], [ -122.224212224707202, 47.553210739359812 ], [ -122.22426779991612, 47.56107465627052 ], [ -122.235638828904669, 47.570105409769859 ], [ -122.23863066659473, 47.571973127999613 ], [ -122.245689974979626, 47.576586884914576 ], [ -122.253787550365871, 47.588598456182631 ] ], [ [ -122.217918428834153, 47.644944216403161 ], [ -122.217414226769492, 47.644861249613321 ], [ -122.217552066365698, 47.637066050155475 ], [ -122.218084552166218, 47.637067858090106 ], [ -122.218095572069586, 47.640984858177944 ], [ -122.217918428834153, 47.644944216403161 ] ], [ [ -122.243512206860089, 47.638471588059232 ], [ -122.243416964512292, 47.638683354302614 ], [ -122.237718556253839, 47.641394161801585 ], [ -122.237299068631273, 47.64124376379683 ], [ -122.237406803561754, 47.637195605999644 ], [ -122.233129052957651, 47.63535746261438 ], [ -122.233139836562643, 47.635049341997686 ], [ -122.237814927042692, 47.633244047278737 ], [ -122.238182231029327, 47.633316019037025 ], [ -122.240129564585402, 47.635799096798827 ], [ -122.243512206860089, 47.638471588059232 ] ], [ [ -122.270191944030373, 47.485437984680196 ], [ -122.265559174364057, 47.487511721667893 ], [ -122.265150385526894, 47.487366962224542 ], [ -122.264985052306102, 47.484341519660738 ], [ -122.260847205407472, 47.481094338683292 ], [ -122.259874275108018, 47.477597087709896 ], [ -122.254815192906065, 47.475697528366879 ], [ -122.254679276393418, 47.475525186818693 ], [ -122.255160695816812, 47.471599780930823 ], [ -122.249706558814637, 47.46608320610931 ], [ -122.25004605667398, 47.465822162872328 ], [ -122.25546799097836, 47.46770440606263 ], [ -122.260330595233242, 47.473876047942966 ], [ -122.26492494792528, 47.475932099063243 ], [ -122.270144355600678, 47.477713555504472 ], [ -122.27029043316675, 47.477876252696063 ], [ -122.270191944030373, 47.485437984680196 ] ], [ [ -122.327184903203289, 47.707954868700128 ], [ -122.32688681039464, 47.707976956196958 ], [ -122.321585098939991, 47.706077550417689 ], [ -122.31664317628065, 47.704112521540594 ], [ -122.301805047241629, 47.690345775081262 ], [ -122.282820245506898, 47.663156036065253 ], [ -122.282795920037003, 47.663062913427119 ], [ -122.287827138948927, 47.625865061538647 ], [ -122.282905746341953, 47.616127383012696 ], [ -122.281039484783946, 47.612371492558857 ], [ -122.278184386457767, 47.590306319091873 ], [ -122.274189256790962, 47.55757683797686 ], [ -122.26895367037109, 47.536306377688938 ], [ -122.269328708821178, 47.508787090178664 ], [ -122.269780922303383, 47.508660847905816 ], [ -122.284516211852747, 47.518516864284209 ], [ -122.287976520174141, 47.520393867788826 ], [ -122.318269164357432, 47.536135709123613 ], [ -122.343909660011235, 47.518953201612376 ], [ -122.343895362275077, 47.515141357623882 ], [ -122.344168442636317, 47.514961008020499 ], [ -122.364145474435915, 47.515338606418453 ], [ -122.369292287546926, 47.517194121034095 ], [ -122.379490780148728, 47.525001284115682 ], [ -122.388991241158337, 47.540625564220711 ], [ -122.39394070178362, 47.550476803287843 ], [ -122.393748560862406, 47.562160203991191 ], [ -122.393598703244095, 47.566161708321111 ], [ -122.378414025947379, 47.579715736223953 ], [ -122.373479628046965, 47.581691825524814 ], [ -122.357608070464835, 47.614872795287233 ], [ -122.364531499420082, 47.620807062075905 ], [ -122.377897596134119, 47.630134574438422 ], [ -122.377969255113868, 47.630288331365655 ], [ -122.377062521014665, 47.634104057090106 ], [ -122.36757406822646, 47.665086979135893 ], [ -122.367531806250511, 47.665153347519265 ], [ -122.347339380565003, 47.684729739653527 ], [ -122.327241876322873, 47.707908929900384 ], [ -122.327184903203289, 47.707954868700128 ] ], [ [ -122.326177940433752, 47.738978345880419 ], [ -122.326177940433752, 47.738978345880419 ] ], [ [ -122.339095467544396, 47.509179574738759 ], [ -122.339095467544396, 47.509179574738759 ] ], [ [ -122.392569948929577, 47.644001413954619 ], [ -122.392042366387486, 47.643963126350485 ], [ -122.392403925532335, 47.632311427443064 ], [ -122.392936324763951, 47.632316614903928 ], [ -122.392845964060186, 47.640067721612652 ], [ -122.392569948929577, 47.644001413954619 ] ], [ [ -122.393690921982227, 47.523135288139017 ], [ -122.393690921982227, 47.523135288139017 ] ], [ [ -122.393645269087884, 47.534815287967248 ], [ -122.393645269087884, 47.534815287967248 ] ] ] } },
{ "type": "Feature", "properties": { "site_label": "new", "site_name": "Lumen Field", "travel_time_minutes": 60.0 }, "geometry": { "type": "MultiLineString", "coordinates": [ [ [ -122.25760889768938, 47.640633490146065 ], [ -122.257447922494933, 47.640880488490438 ], [ -122.239159066836066, 47.644810890985958 ], [ -122.217281174090701, 47.652168143552366 ], [ -122.202518962802543, 47.677914113406587 ], [ -122.202129612863303, 47.6780018432476 ], [ -122.197349494157706, 47.67596783924936 ], [ -122.192161250102004, 47.670172712089489 ], [ -122.187649273421698, 47.656370904599569 ], [ -122.167872919047269, 47.63320449374929 ], [ -122.14777526408524, 47.632504415573962 ], [ -122.147523028649275, 47.632332575961314 ], [ -122.146614383003751, 47.61828747834231 ], [ -122.148367867734649, 47.597642903262312 ], [ -122.142050539079051, 47.580507041306809 ], [ -122.141655384774694, 47.570887921652584 ], [ -122.141801893965095, 47.570722172248097 ], [ -122.144951789470994, 47.569651939114642 ], [ -122.179159055431285, 47.550954615438705 ], [ -122.179555339350429, 47.551003500166679 ], [ -122.184428828122435, 47.556624775092224 ], [ -122.203948224393343, 47.584114144489725 ], [ -122.206914350849374, 47.588078785699167 ], [ -122.20940351001758, 47.592994721693309 ], [ -122.21317700178281, 47.600949299994319 ], [ -122.23883319417321, 47.621532598110178 ], [ -122.242852528019924, 47.625348054707246 ], [ -122.25760889768938, 47.640633490146065 ] ], [ [ -122.143352532751848, 47.655392806152641 ], [ -122.143352532751848, 47.655392806152641 ] ], [ [ -122.258751271624462, 47.589777565399409 ], [ -122.258659473344366, 47.589991463278842 ], [ -122.246591656519726, 47.595830379323651 ], [ -122.246413001493679, 47.595863230840251 ], [ -122.227829338642891, 47.594727926648382 ], [ -122.224987116984849, 47.59319165636515 ], [ -122.224530050272662, 47.592233798682827 ], [ -122.218994036216841, 47.584990733352633 ], [ -122.209064944689032, 47.580809871003225 ], [ -122.204617432609709, 47.579098734309134 ], [ -122.203575052105975, 47.577332729107589 ], [ -122.203590769073827, 47.573981629242361 ], [ -122.203925296610564, 47.572848412097493 ], [ -122.209355102009596, 47.560301069230981 ], [ -122.209647072060335, 47.557689088488573 ], [ -122.20921540510804, 47.547125076283983 ], [ -122.209498543836915, 47.540332416209836 ], [ -122.20967635973328, 47.539308727139066 ], [ -122.211972650662986, 47.536946726246413 ], [ -122.224309338147691, 47.530292143824454 ], [ -122.224657592645983, 47.530302225757367 ], [ -122.239409289419385, 47.539759802450348 ], [ -122.239482186151676, 47.53993981867373 ], [ -122.234752395895214, 47.551176586359482 ], [ -122.232226170426586, 47.5650496920303 ], [ -122.238492049195315, 47.571876258976751 ], [ -122.245632484020632, 47.576532014802837 ], [ -122.251763793718695, 47.581759376029126 ], [ -122.258751271624462, 47.589777565399409 ] ], [ [ -122.341602086425468, 47.74122391825135 ], [ -122.33649350177285, 47.743386837339045 ], [ -122.326403307769482, 47.747370608835205 ], [ -122.279858151385085, 47.751636422490876 ], [ -122.279560229257527, 47.751491962041747 ], [ -122.279048985438592, 47.74968170005932 ], [ -122.276552722047882, 47.707605635432806 ], [ -122.256926192655854, 47.683607663902059 ], [ -122.256893023751417, 47.683518868746361 ], [ -122.257070632496749, 47.672078239938109 ], [ -122.276908068687632, 47.630847820697873 ], [ -122.273206428465883, 47.590206902461446 ], [ -122.259310090018189, 47.551332590400861 ], [ -122.229623528289949, 47.500939562853638 ], [ -122.225158635220296, 47.479036584073071 ], [ -122.225347996620329, 47.475584231293453 ], [ -122.245684779928382, 47.432649876729705 ], [ -122.250650021122098, 47.426804737188021 ], [ -122.251076588157446, 47.426774139540818 ], [ -122.295335233320557, 47.460030801542999 ], [ -122.334906062404016, 47.472066378334929 ], [ -122.349761028542261, 47.47811660893796 ], [ -122.396768067116795, 47.515166127325308 ], [ -122.396826335604331, 47.515245451785695 ], [ -122.401581627321676, 47.53014601789846 ], [ -122.404059108664072, 47.566107813007754 ], [ -122.404035345396153, 47.566190994076656 ], [ -122.393586390444099, 47.581662549745005 ], [ -122.410867439380823, 47.638167133783881 ], [ -122.408021581838824, 47.661593082778808 ], [ -122.407992909769675, 47.661660709886888 ], [ -122.387255374055471, 47.688840583466614 ], [ -122.341602086425468, 47.74122391825135 ] ], [ [ -122.250701418919533, 47.419089342768778 ], [ -122.250701418919533, 47.419089342768778 ] ], [ [ -122.30167429133752, 47.450568456249478 ], [ -122.301526136010906, 47.450703024512499 ], [ -122.295381221220737, 47.452684830486874 ], [ -122.295130589435843, 47.452676534778853 ], [ -122.29023788043412, 47.450681128950499 ], [ -122.29010928935088, 47.450526398813977 ], [ -122.290140128723635, 47.442660844118649 ], [ -122.295191879199223, 47.436811494552529 ], [ -122.295362835034794, 47.429187774026104 ], [ -122.290699267141903, 47.423315778907032 ], [ -122.290496111417426, 47.41896342010503 ], [ -122.295524025098814, 47.413542229928353 ], [ -122.295876947205471, 47.413480703419133 ], [ -122.300944970277513, 47.415418801163753 ], [ -122.305749088300857, 47.421287591631653 ], [ -122.305767370330003, 47.422917013056278 ], [ -122.30054379221896, 47.42727789452325 ], [ -122.30284417531665, 47.442994613030216 ], [ -122.30167429133752, 47.450568456249478 ] ], [ [ -122.296188873622, 47.390155380151526 ], [ -122.295806010456957, 47.390241874117045 ], [ -122.291080401861322, 47.388299968467571 ], [ -122.291088976540621, 47.387988654902315 ], [ -122.296028866245024, 47.386126060341375 ], [ -122.296422295668236, 47.386290278679546 ], [ -122.296188873622, 47.390155380151526 ] ], [ [ -122.297040644265167, 47.359166643867837 ], [ -122.297040644265167, 47.359166643867837 ] ], [ [ -122.321763936158533, 47.76247630599871 ], [ -122.321232920403759, 47.762452409755923 ], [ -122.321078870466508, 47.75266270964574 ], [ -122.32161251605784, 47.752658170164963 ], [ -122.321763936158533, 47.76247630599871 ] ], [ [ -122.469000859943193, 47.505460889876247 ], [ -122.47054976555755, 47.509112655966739 ], [ -122.470369769743826, 47.509333686908327 ], [ -122.463551649305288, 47.510708391291622 ], [ -122.463211178976195, 47.510521123128285 ], [ -122.463482693382318, 47.508288228694937 ], [ -122.456959775822853, 47.505627385735984 ], [ -122.457025432237543, 47.505307075067456 ], [ -122.463518713328853, 47.503865779631383 ], [ -122.469000859943193, 47.505460889876247 ] ] ] } }
]
}
